# 2022 12 20 10 51 33.529 40.5266 -124.3268 17.418 2.669 0.136 0.136 0.491 59 
1584B.NP 3.521 0.89 P 
KCT.NC 4.014 0.64 P 
1023.NP 4.071 0.93 P 
1586.NP 4.941 0.93 P 
89462.CE 5.311 0.89 P 
KMPB.NC 5.414 0.59 P 
B046.PB 5.749 0.89 P 
PETL.BK 6.341 0.70 P 
B045.PB 6.549 0.91 P 
89781.CE 6.801 0.92 P 
KCO.NC 6.924 0.89 P 
B047.PB 7.529 0.87 P 
BJES.BK 7.841 0.65 P 
KNEE.BK 8.281 0.57 P 
KPR.NC 8.571 0.68 P 
KCR.NC 8.921 0.53 P 
DMOR.BK 9.301 0.55 P 
KBU.NC 10.081 0.56 P 
KMR.NC 10.204 0.58 P 
B049.PB 10.249 0.88 P 
89688.CE 10.431 0.86 P 
PRDS.BK 10.481 0.84 P 
KHMB.NC 11.604 0.58 P 
B935.PB 11.609 0.86 P 
BRIC.BK 11.861 0.59 P 
1591.NP 12.431 0.81 P 
KCSB.NC 12.644 0.84 P 
WEAV.BK 17.291 0.55 P 
1584B.NP 6.241 0.83 S 
KCT.NC 7.194 0.70 S 
1023.NP 7.881 0.87 S 
1586.NP 9.311 0.85 S 
KMPB.NC 9.554 0.72 S 
89462.CE 9.641 0.74 S 
B046.PB 10.009 0.83 S 
PETL.BK 10.821 0.61 S 
1581.NP 11.161 0.75 S 
B045.PB 11.429 0.82 S 
KCO.NC 12.094 0.85 S 
89781.CE 12.391 0.86 S 
B047.PB 12.449 0.72 S 
BJES.BK 14.001 0.76 S 
KNEE.BK 14.661 0.62 S 
KPR.NC 14.791 0.70 S 
1580.NP 14.801 0.76 S 
KCR.NC 15.881 0.80 S 
PRDS.BK 17.721 0.53 S 
DMOR.BK 17.781 0.81 S 
89688.CE 17.831 0.72 S 
KBU.NC 17.961 0.70 S 
B049.PB 18.199 0.85 S 
BRIC.BK 20.671 0.59 S 
KHMB.NC 20.704 0.63 S 
KMR.NC 20.734 0.58 S 
B935.PB 21.199 0.76 S 
1591.NP 22.131 0.68 S 
KCSB.NC 22.824 0.75 S 
79046.CE 27.081 0.68 S 
# 2022 12 20 10 52 3.910 40.5938 -124.1138 20.577 2.529 0.153 0.153 0.515 60 
89462.CE 4.790 0.89 P 
1586.NP 5.000 0.89 P 
KMPB.NC 5.263 0.57 P 
1581.NP 5.380 0.93 P 
B045.PB 5.398 0.91 P 
89781.CE 5.450 0.91 P 
1023.NP 5.600 0.85 P 
BJES.BK 5.720 0.89 P 
KNEE.BK 5.720 0.65 P 
KCT.NC 6.003 0.64 P 
RBOW.BK 6.340 0.61 P 
DMOR.BK 6.430 0.57 P 
1580.NP 6.650 0.90 P 
KCR.NC 6.990 0.69 P 
B046.PB 7.028 0.89 P 
PETL.BK 7.700 0.81 P 
KCO.NC 7.863 0.90 P 
KPR.NC 8.240 0.69 P 
KHMB.NC 8.843 0.69 P 
B935.PB 9.208 0.89 P 
KTD.NC 9.380 0.93 P 
KBU.NC 9.570 0.61 P 
B049.PB 9.648 0.87 P 
PRDS.BK 9.974 0.68 P 
KCSB.NC 10.263 0.88 P 
KMR.NC 11.023 0.87 P 
KRP.NC 11.053 0.90 P 
BRIC.BK 12.160 0.52 P 
KHBB.NC 12.903 0.65 P 
HAYF.BK 12.943 0.60 P 
KOM.NC 15.263 0.83 P 
WEAV.BK 15.390 0.85 P 
LBK.NC 20.540 0.77 P 
89462.CE 8.740 0.72 S 
1586.NP 9.260 0.73 S 
B045.PB 9.618 0.86 S 
KMPB.NC 9.663 0.71 S 
89781.CE 9.740 0.85 S 
1581.NP 9.750 0.85 S 
1584B.NP 9.770 0.85 S 
1023.NP 9.890 0.65 S 
BJES.BK 9.900 0.72 S 
KNEE.BK 10.180 0.54 S 
RBOW.BK 11.200 0.53 S 
KCT.NC 11.243 0.85 S 
1580.NP 11.580 0.85 S 
B046.PB 12.388 0.84 S 
KCR.NC 12.820 0.65 S 
B047.PB 13.468 0.82 S 
PETL.BK 13.610 0.54 S 
KCO.NC 14.023 0.83 S 
KPR.NC 14.730 0.53 S 
B049.PB 15.528 0.54 S 
KHMB.NC 15.743 0.64 S 
KBU.NC 15.910 0.64 S 
KTD.NC 15.980 0.84 S 
B935.PB 16.758 0.86 S 
KCSB.NC 18.263 0.87 S 
BRIC.BK 19.270 0.70 S 
KRP.NC 19.333 0.83 S 
KMR.NC 19.543 0.55 S 
1591.NP 21.340 0.70 S 
KHBB.NC 22.863 0.64 S 
HAYF.BK 23.263 0.57 S 
KOM.NC 25.973 0.81 S 
79046.CE 27.620 0.54 S 
LBK.NC 36.380 0.62 S 
# 2022 12 20 10 52 39.335 40.5772 -124.3350 20.072 3.337 0.138 0.138 0.479 61 
1584B.NP 4.415 0.85 P 
1023.NP 4.445 0.84 P 
1586.NP 4.675 0.89 P 
KCT.NC 4.898 0.51 P 
1581.NP 5.325 0.86 P 
89462.CE 5.785 0.85 P 
89781.CE 6.015 0.85 P 
B046.PB 6.763 0.86 P 
B045.PB 6.993 0.86 P 
RBOW.BK 7.195 0.63 P 
1580.NP 7.565 0.83 P 
KCO.NC 7.848 0.86 P 
BJES.BK 7.955 0.59 P 
KNEE.BK 7.975 0.52 P 
B047.PB 8.073 0.85 P 
DMOR.BK 8.785 0.52 P 
KCR.NC 9.055 0.71 P 
KPR.NC 9.225 0.69 P 
KTD.NC 9.615 0.83 P 
KBU.NC 10.625 0.66 P 
PRDS.BK 10.745 0.62 P 
B049.PB 10.773 0.86 P 
KHMB.NC 10.958 0.64 P 
89688.CE 11.085 0.80 P 
B935.PB 11.513 0.83 P 
KRP.NC 11.698 0.83 P 
KMR.NC 11.948 0.58 P 
KCSB.NC 12.328 0.83 P 
BRIC.BK 12.385 0.62 P 
99700.CE 12.875 0.73 P 
1591.NP 13.015 0.85 P 
KHBB.NC 15.238 0.61 P 
B934.PB 15.923 0.84 P 
79046.CE 16.395 0.80 P 
KOM.NC 16.838 0.57 P 
RVIT.BK 18.195 0.80 P 
79298.CE 19.275 0.52 P 
KFP.NC 19.615 0.55 P 
DCMP.BK 21.708 0.60 P 
KRK.NC 22.275 0.79 P 
LBK.NC 22.615 0.86 P 
SCOT.BK 23.026 0.59 P 
GNR.NC 23.495 0.60 P 
GVA.NC 24.735 0.78 P 
GUMB.BK 24.939 0.68 P 
1584B.NP 7.795 0.81 S 
1023.NP 8.355 0.58 S 
KCT.NC 8.598 0.69 S 
1586.NP 8.605 0.67 S 
1581.NP 9.955 0.80 S 
KMPB.NC 10.768 0.62 S 
89781.CE 10.885 0.85 S 
B046.PB 11.793 0.79 S 
B045.PB 12.283 0.85 S 
RBOW.BK 12.525 0.51 S 
PETL.BK 12.785 0.61 S 
1580.NP 13.385 0.83 S 
KCO.NC 13.518 0.83 S 
BJES.BK 13.905 0.56 S 
B047.PB 14.003 0.81 S 
KNEE.BK 14.275 0.60 S 
KCR.NC 15.655 0.54 S 
KPR.NC 16.175 0.59 S 
KTD.NC 17.635 0.83 S 
KBU.NC 18.825 0.81 S 
89688.CE 18.855 0.70 S 
KHMB.NC 18.998 0.64 S 
B049.PB 19.043 0.80 S 
B935.PB 20.463 0.84 S 
KRP.NC 20.658 0.83 S 
KMR.NC 21.298 0.70 S 
BRIC.BK 21.345 0.54 S 
KCSB.NC 22.198 0.79 S 
1591.NP 22.835 0.79 S 
KHBB.NC 26.918 0.68 S 
B934.PB 27.083 0.81 S 
HAYF.BK 27.988 0.59 S 
79046.CE 28.105 0.80 S 
KOM.NC 28.718 0.80 S 
79298.CE 34.075 0.54 S 
KFP.NC 34.375 0.76 S 
MNDO.BK 37.355 0.76 S 
DCMP.BK 37.918 0.51 S 
SCOT.BK 39.468 0.51 S 
LBK.NC 39.635 0.79 S 
GNR.NC 40.945 0.70 S 
GUMB.BK 44.445 0.52 S 
# 2022 12 20 10 52 52.719 39.7863 -123.3985 29.540 2.730 0.414 0.414 0.740 62 
KIP.NC 4.571 0.63 P 
KFP.NC 5.491 0.59 P 
KBN.NC 6.281 0.62 P 
DCMP.BK 8.282 0.55 P 
GROB.NC 10.451 0.75 P 
GWR.NC 11.751 0.76 P 
GCWB.NC 14.011 0.75 P 
GHGB.NC 16.434 0.58 P 
GSR.NC 16.971 0.70 P 
KIP.NC 9.471 0.80 S 
KFP.NC 10.721 0.76 S 
KBN.NC 11.391 0.66 S 
GWR.NC 19.551 0.72 S 
GCWB.NC 22.451 0.65 S 
GHO.NC 24.611 0.62 S 
GSR.NC 27.911 0.55 S 
# 2022 12 20 10 53 16.375 40.5229 -124.3589 15.772 2.928 0.123 0.123 0.456 63 
1584B.NP 3.545 0.90 P 
KCT.NC 3.948 0.61 P 
1023.NP 4.145 0.91 P 
1586.NP 5.145 0.92 P 
89462.CE 5.615 0.89 P 
KMPB.NC 5.668 0.55 P 
B046.PB 5.763 0.85 P 
1581.NP 6.115 0.93 P 
PETL.BK 6.255 0.79 P 
RBOW.BK 6.595 0.58 P 
B045.PB 6.913 0.89 P 
KCO.NC 6.978 0.87 P 
89781.CE 7.015 0.91 P 
B047.PB 7.383 0.89 P 
BJES.BK 8.315 0.87 P 
1580.NP 8.585 0.76 P 
KNEE.BK 8.675 0.53 P 
KPR.NC 8.795 0.65 P 
KCR.NC 9.315 0.64 P 
DMOR.BK 9.645 0.65 P 
PRDS.BK 10.145 0.58 P 
KBU.NC 10.395 0.54 P 
89688.CE 10.555 0.83 P 
B049.PB 10.583 0.89 P 
KTD.NC 10.735 0.81 P 
KHMB.NC 11.868 0.56 P 
B935.PB 12.103 0.85 P 
KMR.NC 12.138 0.67 P 
BRIC.BK 12.205 0.57 P 
1591.NP 12.675 0.81 P 
KCSB.NC 13.038 0.86 P 
HAYF.BK 15.798 0.86 P 
79046.CE 15.825 0.84 P 
KHBB.NC 15.988 0.53 P 
KOM.NC 17.758 0.75 P 
KFP.NC 19.695 0.58 P 
LBK.NC 23.735 0.70 P 
SCOT.BK 24.018 0.59 P 
1584B.NP 6.335 0.85 S 
KCT.NC 7.028 0.71 S 
1023.NP 7.995 0.78 S 
1586.NP 9.595 0.83 S 
KMPB.NC 10.038 0.69 S 
B046.PB 10.043 0.78 S 
89462.CE 10.195 0.66 S 
PETL.BK 10.785 0.61 S 
RBOW.BK 11.465 0.59 S 
1581.NP 11.525 0.85 S 
B045.PB 12.033 0.83 S 
KCO.NC 12.248 0.80 S 
89781.CE 12.685 0.86 S 
B047.PB 12.693 0.81 S 
BJES.BK 14.835 0.61 S 
1580.NP 15.195 0.84 S 
KPR.NC 15.205 0.66 S 
KNEE.BK 15.735 0.60 S 
KCR.NC 16.185 0.67 S 
PRDS.BK 18.045 0.57 S 
89688.CE 18.215 0.78 S 
KBU.NC 18.555 0.64 S 
DMOR.BK 18.555 0.62 S 
B049.PB 18.723 0.84 S 
BRIC.BK 21.125 0.59 S 
KMR.NC 21.338 0.67 S 
KHMB.NC 21.488 0.76 S 
B935.PB 21.923 0.72 S 
1591.NP 22.715 0.61 S 
KCSB.NC 23.438 0.77 S 
79046.CE 27.415 0.83 S 
B934.PB 27.523 0.84 S 
HAYF.BK 29.078 0.71 S 
KHBB.NC 29.918 0.56 S 
# 2022 12 20 10 53 55.362 40.6060 -124.0681 18.088 1.969 0.158 0.158 0.674 64 
89462.CE 4.338 0.90 P 
1586.NP 4.538 0.89 P 
BJES.BK 4.648 0.91 P 
1581.NP 4.908 0.92 P 
89781.CE 4.998 0.89 P 
B045.PB 5.076 0.90 P 
KCR.NC 6.458 0.69 P 
RBOW.BK 6.688 0.63 P 
PETL.BK 6.808 0.79 P 
KCO.NC 7.611 0.93 P 
KPR.NC 8.768 0.72 P 
B935.PB 8.876 0.87 P 
KBU.NC 9.018 0.67 P 
B049.PB 9.086 0.84 P 
KCSB.NC 9.711 0.88 P 
KMR.NC 10.491 0.64 P 
PRDS.BK 10.688 0.62 P 
KHBB.NC 11.191 0.82 P 
89688.CE 11.198 0.86 P 
BRIC.BK 11.828 0.52 P 
HAYF.BK 12.971 0.66 P 
89462.CE 7.978 0.83 S 
BJES.BK 8.378 0.85 S 
1586.NP 8.708 0.83 S 
89781.CE 9.038 0.79 S 
B045.PB 9.166 0.74 S 
1581.NP 9.358 0.86 S 
KMPB.NC 9.791 0.63 S 
1023.NP 9.998 0.67 S 
1584B.NP 10.318 0.81 S 
DMOR.BK 11.368 0.67 S 
KCR.NC 11.558 0.61 S 
RBOW.BK 12.038 0.51 S 
KCO.NC 12.971 0.80 S 
B047.PB 13.416 0.84 S 
B046.PB 13.856 0.85 S 
KPR.NC 15.248 0.59 S 
PETL.BK 15.528 0.59 S 
B935.PB 15.846 0.85 S 
B049.PB 16.136 0.81 S 
KBU.NC 16.208 0.65 S 
KCSB.NC 17.281 0.87 S 
PRDS.BK 18.688 0.57 S 
KMR.NC 18.771 0.66 S 
89688.CE 19.158 0.75 S 
BRIC.BK 20.598 0.54 S 
KHBB.NC 22.771 0.81 S 
B934.PB 26.836 0.60 S 
# 2022 12 20 10 54 12.375 40.5532 -124.2954 20.008 1.785 0.202 0.202 0.872 65 
1584B.NP 4.655 0.74 P 
KCT.NC 4.898 0.84 P 
1586.NP 5.845 0.86 P 
B046.PB 6.103 0.85 P 
B045.PB 6.203 0.78 P 
PETL.BK 6.405 0.84 P 
KMPB.NC 6.478 0.65 P 
1581.NP 6.585 0.83 P 
KCO.NC 7.078 0.81 P 
RBOW.BK 7.175 0.53 P 
B047.PB 7.403 0.84 P 
KBU.NC 9.815 0.63 P 
B049.PB 9.833 0.76 P 
PRDS.BK 10.449 0.63 P 
89688.CE 10.755 0.77 P 
BRIC.BK 12.425 0.56 P 
1584B.NP 7.305 0.67 S 
KCT.NC 7.758 0.59 S 
1023.NP 9.065 0.76 S 
89781.CE 9.755 0.72 S 
89462.CE 9.915 0.79 S 
1581.NP 10.405 0.55 S 
B046.PB 10.443 0.80 S 
KMPB.NC 10.928 0.68 S 
PETL.BK 10.945 0.51 S 
BJES.BK 11.925 0.54 S 
KCO.NC 12.508 0.81 S 
RBOW.BK 12.635 0.69 S 
B047.PB 13.133 0.83 S 
KPR.NC 16.285 0.52 S 
B049.PB 16.843 0.70 S 
KBU.NC 16.955 0.57 S 
89688.CE 18.845 0.80 S 
KMR.NC 19.278 0.75 S 
BRIC.BK 21.785 0.60 S 
1591.NP 22.095 0.65 S 
B934.PB 27.563 0.53 S 
# 2022 12 20 10 54 50.445 40.5406 -124.3011 18.967 2.269 0.146 0.146 0.604 66 
KCT.NC 4.088 0.60 P 
1586.NP 4.555 0.91 P 
89462.CE 5.065 0.80 P 
KMPB.NC 5.308 0.74 P 
1581.NP 5.565 0.91 P 
B046.PB 5.823 0.85 P 
RBOW.BK 6.295 0.57 P 
PETL.BK 6.365 0.61 P 
89781.CE 6.375 0.91 P 
KCO.NC 6.958 0.88 P 
B047.PB 7.203 0.90 P 
KNEE.BK 8.005 0.65 P 
1580.NP 8.025 0.91 P 
KPR.NC 8.475 0.69 P 
KCR.NC 8.685 0.78 P 
DMOR.BK 8.985 0.79 P 
KBU.NC 9.965 0.63 P 
PRDS.BK 9.975 0.60 P 
B049.PB 10.103 0.82 P 
89688.CE 10.395 0.82 P 
KHMB.NC 11.208 0.55 P 
B935.PB 11.433 0.83 P 
KMR.NC 11.768 0.57 P 
BRIC.BK 11.935 0.62 P 
KHBB.NC 15.328 0.79 P 
KIP.NC 18.075 0.55 P 
WEAV.BK 19.835 0.57 P 
LBK.NC 23.045 0.66 P 
KCT.NC 7.198 0.54 S 
1023.NP 7.375 0.67 S 
1586.NP 8.615 0.87 S 
89462.CE 9.405 0.83 S 
B046.PB 10.363 0.80 S 
1581.NP 10.595 0.85 S 
KMPB.NC 10.728 0.61 S 
RBOW.BK 11.075 0.59 S 
B045.PB 11.263 0.62 S 
PETL.BK 11.285 0.59 S 
89781.CE 11.765 0.84 S 
KCO.NC 12.278 0.79 S 
B047.PB 12.663 0.66 S 
BJES.BK 13.555 0.61 S 
1580.NP 13.965 0.84 S 
KNEE.BK 14.685 0.58 S 
KPR.NC 15.065 0.64 S 
KCR.NC 15.715 0.64 S 
DMOR.BK 16.245 0.57 S 
KBU.NC 17.865 0.66 S 
B049.PB 17.963 0.73 S 
PRDS.BK 18.025 0.58 S 
89688.CE 18.045 0.72 S 
B935.PB 18.763 0.71 S 
KHMB.NC 20.168 0.79 S 
KCSB.NC 20.408 0.68 S 
BRIC.BK 20.765 0.58 S 
KMR.NC 20.888 0.61 S 
HAYF.BK 25.786 0.52 S 
KHBB.NC 26.128 0.61 S 
B934.PB 26.533 0.59 S 
WEAV.BK 31.075 0.57 S 
# 2022 12 20 10 55 1.098 40.5293 -124.3413 17.193 2.189 0.158 0.158 0.709 67 
1584B.NP 3.472 0.64 P 
KCT.NC 4.015 0.67 P 
1586.NP 4.862 0.88 P 
KMPB.NC 5.535 0.79 P 
PETL.BK 6.312 0.85 P 
RBOW.BK 6.512 0.68 P 
BJES.BK 7.952 0.82 P 
KPR.NC 8.702 0.68 P 
KNEE.BK 8.886 0.68 P 
KCR.NC 9.112 0.78 P 
DMOR.BK 9.112 0.66 P 
KBU.NC 10.272 0.67 P 
KMR.NC 10.425 0.58 P 
1584B.NP 6.142 0.81 S 
KCT.NC 7.005 0.64 S 
1023.NP 7.792 0.88 S 
1586.NP 9.222 0.83 S 
KMPB.NC 9.715 0.60 S 
89462.CE 9.792 0.57 S 
B046.PB 10.240 0.57 S 
B047.PB 10.280 0.59 S 
PETL.BK 11.022 0.54 S 
RBOW.BK 11.262 0.58 S 
B045.PB 11.720 0.58 S 
KCO.NC 11.995 0.80 S 
89781.CE 12.452 0.76 S 
KNEE.BK 13.832 0.51 S 
1580.NP 15.052 0.71 S 
KPR.NC 15.502 0.69 S 
KCR.NC 16.332 0.62 S 
DMOR.BK 17.992 0.69 S 
PRDS.BK 18.016 0.56 S 
KBU.NC 18.472 0.65 S 
B049.PB 18.560 0.65 S 
KMR.NC 21.415 0.54 S 
1591.NP 22.582 0.66 S 
# 2022 12 20 10 55 25.795 40.5145 -124.3837 16.645 1.892 0.164 0.164 0.432 68 
1584B.NP 3.645 0.65 P 
KCT.NC 4.658 0.51 P 
1586.NP 5.385 0.75 P 
B046.PB 5.533 0.87 P 
PETL.BK 5.915 0.60 P 
89462.CE 5.975 0.88 P 
KMPB.NC 5.988 0.56 P 
1581.NP 6.395 0.83 P 
RBOW.BK 6.635 0.55 P 
KCO.NC 6.748 0.86 P 
B045.PB 7.203 0.88 P 
B047.PB 7.283 0.89 P 
89781.CE 7.335 0.87 P 
KPR.NC 8.795 0.63 P 
KCR.NC 9.645 0.60 P 
PRDS.BK 10.149 0.61 P 
89688.CE 10.425 0.86 P 
KBU.NC 10.575 0.54 P 
B049.PB 10.713 0.88 P 
BRIC.BK 12.235 0.56 P 
B935.PB 12.403 0.81 P 
KMR.NC 12.598 0.83 P 
1584B.NP 6.695 0.56 S 
1023.NP 8.515 0.63 S 
B046.PB 9.813 0.82 S 
1586.NP 10.255 0.86 S 
PETL.BK 10.535 0.63 S 
KMPB.NC 10.688 0.73 S 
89462.CE 10.955 0.82 S 
RBOW.BK 11.985 0.65 S 
1581.NP 11.985 0.87 S 
KCO.NC 11.988 0.81 S 
B047.PB 12.703 0.84 S 
B045.PB 12.763 0.86 S 
89781.CE 13.295 0.86 S 
BJES.BK 14.485 0.64 S 
KPR.NC 15.695 0.80 S 
KCR.NC 17.055 0.80 S 
PRDS.BK 17.929 0.56 S 
89688.CE 18.255 0.85 S 
KBU.NC 19.105 0.66 S 
B049.PB 19.273 0.83 S 
BRIC.BK 21.495 0.63 S 
B934.PB 27.303 0.63 S 
# 2022 12 20 10 56 9.447 40.3232 -124.3160 -0.668 -0.273 1.004 1.004 0.523 69 
KCO.NC 1.686 0.59 P 
B047.PB 3.341 0.63 P 
KMPB.NC 3.816 0.81 P 
RBOW.BK 4.563 0.62 P 
1584B.NP 4.613 0.73 P 
KPR.NC 6.123 0.52 P 
89688.CE 8.143 0.50 P 
B046.PB 0.651 0.65 S 
RBOW.BK 6.423 0.70 S 
1584B.NP 7.993 0.68 S 
KMPB.NC 8.586 0.67 S 
# 2022 12 20 10 56 51.059 40.5738 -124.1287 25.679 2.206 0.170 0.170 0.515 70 
89462.CE 5.011 0.87 P 
1586.NP 5.151 0.87 P 
KMPB.NC 5.404 0.65 P 
1023.NP 5.501 0.87 P 
BJES.BK 5.651 0.84 P 
B045.PB 5.679 0.87 P 
89781.CE 5.721 0.85 P 
1584B.NP 5.791 0.85 P 
RBOW.BK 5.981 0.56 P 
KNEE.BK 6.101 0.82 P 
KCT.NC 6.394 0.55 P 
KCR.NC 7.011 0.68 P 
B046.PB 7.549 0.82 P 
KPR.NC 7.551 0.66 P 
PRDS.BK 8.931 0.74 P 
KBU.NC 8.941 0.54 P 
KHMB.NC 8.964 0.63 P 
B049.PB 9.029 0.86 P 
B935.PB 9.129 0.84 P 
89688.CE 9.701 0.82 P 
KCSB.NC 10.074 0.81 P 
KMR.NC 10.384 0.83 P 
BRIC.BK 10.791 0.66 P 
KRP.NC 11.104 0.80 P 
HAYF.BK 12.754 0.56 P 
KHBB.NC 12.864 0.53 P 
KOM.NC 15.264 0.81 P 
WEAV.BK 15.441 0.64 P 
TRIN.BK 19.334 0.54 P 
LBK.NC 20.551 0.86 P 
89462.CE 9.071 0.76 S 
1586.NP 9.561 0.80 S 
B045.PB 9.909 0.82 S 
BJES.BK 10.001 0.73 S 
KMPB.NC 10.124 0.63 S 
1023.NP 10.261 0.59 S 
89781.CE 10.321 0.82 S 
1581.NP 10.331 0.82 S 
KNEE.BK 10.751 0.51 S 
RBOW.BK 11.531 0.57 S 
B047.PB 11.799 0.65 S 
1580.NP 12.181 0.73 S 
KCR.NC 12.361 0.58 S 
B046.PB 13.239 0.66 S 
KPR.NC 14.701 0.76 S 
KBU.NC 15.831 0.79 S 
B049.PB 16.039 0.80 S 
KHMB.NC 16.154 0.65 S 
B935.PB 16.199 0.83 S 
89688.CE 16.391 0.68 S 
KCSB.NC 17.954 0.84 S 
KMR.NC 18.384 0.55 S 
BRIC.BK 19.371 0.63 S 
KRP.NC 19.764 0.78 S 
KHBB.NC 22.564 0.80 S 
HAYF.BK 22.602 0.60 S 
WEAV.BK 28.181 0.59 S 
TRIN.BK 34.502 0.81 S 
LBK.NC 36.151 0.80 S 
LSF.NC 36.421 0.63 S 
GUMB.BK 41.271 0.71 S 
# 2022 12 20 10 57 19.471 40.6556 -124.0123 25.889 2.400 0.232 0.232 1.147 71 
1023.NP 5.879 0.91 P 
1586.NP 6.869 0.91 P 
B046.PB 7.107 0.86 P 
KMPB.NC 7.532 0.64 P 
PETL.BK 7.569 0.59 P 
B935.PB 7.767 0.51 P 
1581.NP 7.849 0.89 P 
KCO.NC 8.212 0.88 P 
KCSB.NC 8.542 0.72 P 
B047.PB 8.767 0.87 P 
KMR.NC 10.042 0.52 P 
KPR.NC 10.299 0.56 P 
KHBB.NC 11.262 0.68 P 
HAYF.BK 11.382 0.62 P 
PRDS.BK 11.579 0.62 P 
89688.CE 11.919 0.82 P 
WEAV.BK 14.259 0.66 P 
LBK.NC 19.049 0.62 P 
KFP.NC 20.929 0.70 P 
GNR.NC 24.649 0.85 P 
GHO.NC 27.009 0.80 P 
1023.NP 10.019 0.86 S 
KCR.NC 11.119 0.50 S 
1586.NP 11.649 0.78 S 
KMPB.NC 12.292 0.65 S 
RBOW.BK 13.359 0.78 S 
KCO.NC 13.622 0.73 S 
B935.PB 13.827 0.52 S 
B047.PB 14.237 0.68 S 
KCSB.NC 15.422 0.82 S 
KPR.NC 17.539 0.74 S 
PRDS.BK 19.403 0.53 S 
89688.CE 19.719 0.82 S 
KHBB.NC 20.182 0.59 S 
HAYF.BK 20.312 0.53 S 
WEAV.BK 24.649 0.53 S 
B934.PB 28.577 0.76 S 
79046.CE 29.139 0.82 S 
79298.CE 34.899 0.72 S 
DCMP.BK 39.440 0.50 S 
GNR.NC 41.859 0.72 S 
GBL.NC 43.099 0.60 S 
GHO.NC 46.259 0.54 S 
# 2022 12 20 10 57 45.304 40.5371 -124.3231 16.843 2.790 0.142 0.142 0.442 72 
1584B.NP 3.606 0.85 P 
1023.NP 3.996 0.88 P 
KCT.NC 4.019 0.65 P 
1586.NP 4.716 0.86 P 
89462.CE 5.236 0.86 P 
KMPB.NC 5.419 0.63 P 
B046.PB 5.904 0.85 P 
RBOW.BK 6.436 0.64 P 
PETL.BK 6.476 0.70 P 
B045.PB 6.494 0.86 P 
89781.CE 6.526 0.84 P 
BJES.BK 7.666 0.83 P 
KNEE.BK 8.096 0.60 P 
1580.NP 8.166 0.79 P 
KPR.NC 8.566 0.67 P 
KCR.NC 8.806 0.63 P 
DMOR.BK 9.166 0.73 P 
PRDS.BK 10.010 0.60 P 
KBU.NC 10.076 0.59 P 
B049.PB 10.244 0.83 P 
KTD.NC 10.526 0.82 P 
KHMB.NC 11.329 0.63 P 
B935.PB 11.574 0.77 P 
KMR.NC 11.929 0.63 P 
BRIC.BK 12.056 0.55 P 
KRP.NC 12.349 0.78 P 
KCSB.NC 12.469 0.80 P 
HAYF.BK 15.029 0.77 P 
KOM.NC 17.349 0.65 P 
1584B.NP 6.386 0.71 S 
KCT.NC 7.309 0.61 S 
1023.NP 7.636 0.84 S 
1586.NP 8.876 0.83 S 
KMPB.NC 9.259 0.63 S 
89462.CE 9.596 0.81 S 
B046.PB 10.424 0.76 S 
RBOW.BK 11.216 0.65 S 
B045.PB 11.424 0.70 S 
89781.CE 11.916 0.78 S 
BJES.BK 13.836 0.73 S 
1580.NP 14.386 0.75 S 
KNEE.BK 14.906 0.57 S 
KPR.NC 15.326 0.60 S 
KCR.NC 15.986 0.65 S 
DMOR.BK 17.546 0.63 S 
PRDS.BK 17.736 0.55 S 
89688.CE 18.006 0.68 S 
KBU.NC 18.156 0.78 S 
B049.PB 18.284 0.79 S 
KTD.NC 18.426 0.81 S 
KHMB.NC 20.229 0.69 S 
BRIC.BK 20.906 0.65 S 
KMR.NC 21.149 0.63 S 
KHBB.NC 27.709 0.52 S 
HAYF.BK 27.957 0.51 S 
# 2022 12 20 10 57 56.236 40.5054 -124.4430 17.760 3.277 0.126 0.126 0.488 73 
1584B.NP 4.254 0.84 P 
KCT.NC 4.297 0.58 P 
1023.NP 5.024 0.92 P 
B046.PB 5.852 0.87 P 
PETL.BK 6.094 0.51 P 
1586.NP 6.094 0.90 P 
KMPB.NC 6.527 0.52 P 
89462.CE 6.674 0.89 P 
1581.NP 6.714 0.90 P 
KCO.NC 6.957 0.87 P 
RBOW.BK 7.274 0.51 P 
B047.PB 7.562 0.87 P 
89781.CE 7.714 0.89 P 
B045.PB 7.742 0.77 P 
KPR.NC 9.084 0.57 P 
1580.NP 9.174 0.88 P 
BJES.BK 9.204 0.88 P 
KCR.NC 10.164 0.63 P 
PRDS.BK 10.174 0.62 P 
89688.CE 10.474 0.83 P 
DMOR.BK 10.574 0.74 P 
KBU.NC 11.074 0.56 P 
B049.PB 11.082 0.88 P 
KTD.NC 11.254 0.81 P 
BRIC.BK 12.314 0.58 P 
KHMB.NC 12.817 0.82 P 
B935.PB 12.822 0.88 P 
KCSB.NC 13.777 0.85 P 
99700.CE 14.854 0.78 P 
B934.PB 15.742 0.90 P 
79046.CE 15.944 0.88 P 
KIP.NC 18.114 0.59 P 
KOM.NC 18.547 0.58 P 
KFP.NC 19.734 0.61 P 
KBN.NC 20.364 0.88 P 
MNDO.BK 21.354 0.87 P 
DCMP.BK 21.807 0.51 P 
GNR.NC 23.264 0.72 P 
TRIN.BK 23.537 0.70 P 
GBL.NC 23.914 0.55 P 
LBK.NC 24.414 0.84 P 
SCOT.BK 24.747 0.51 P 
GWR.NC 25.194 0.85 P 
GHO.NC 25.544 0.55 P 
LRB.NC 25.744 0.60 P 
GUMB.BK 26.918 0.52 P 
GCWB.NC 27.394 0.92 P 
GTSB.BK 30.254 0.76 P 
GHGB.NC 30.297 0.95 P 
1584B.NP 7.604 0.84 S 
KCT.NC 7.907 0.73 S 
1023.NP 9.534 0.81 S 
B046.PB 10.272 0.80 S 
PETL.BK 10.734 0.66 S 
1586.NP 11.134 0.86 S 
KMPB.NC 11.537 0.69 S 
89462.CE 12.164 0.76 S 
KCO.NC 12.347 0.83 S 
RBOW.BK 12.654 0.64 S 
1581.NP 12.724 0.86 S 
B047.PB 13.322 0.70 S 
89781.CE 13.894 0.87 S 
1580.NP 16.054 0.87 S 
KPR.NC 16.104 0.67 S 
BJES.BK 16.734 0.70 S 
KNEE.BK 17.634 0.54 S 
PRDS.BK 18.128 0.54 S 
89688.CE 18.294 0.79 S 
KCR.NC 18.294 0.67 S 
KBU.NC 19.654 0.66 S 
DMOR.BK 19.674 0.79 S 
B049.PB 19.722 0.80 S 
BRIC.BK 21.644 0.61 S 
KHMB.NC 22.137 0.81 S 
B935.PB 22.892 0.79 S 
KMR.NC 23.207 0.62 S 
KCSB.NC 24.407 0.84 S 
B934.PB 27.532 0.88 S 
79046.CE 27.564 0.87 S 
KOM.NC 31.767 0.80 S 
KIP.NC 32.134 0.77 S 
79298.CE 33.934 0.56 S 
KFP.NC 34.754 0.66 S 
DCMP.BK 38.155 0.56 S 
KBN.NC 38.374 0.54 S 
KRK.NC 40.034 0.81 S 
79668.CE 40.474 0.83 S 
GNR.NC 40.534 0.79 S 
GBL.NC 41.654 0.79 S 
SCOT.BK 43.297 0.57 S 
GHO.NC 44.634 0.72 S 
GUMB.BK 47.494 0.56 S 
GCWB.NC 48.054 0.76 S 
