# 2022 12 20 11 9 1.450 40.5337 -124.3411 17.650 3.395 0.133 0.133 0.506 93 
1584B.NP 3.630 0.90 P 
KCT.NC 4.093 0.66 P 
1586.NP 4.780 0.88 P 
89462.CE 5.290 0.90 P 
KMPB.NC 5.473 0.70 P 
1581.NP 5.850 0.93 P 
B046.PB 5.938 0.91 P 
PETL.BK 6.440 0.56 P 
RBOW.BK 6.450 0.60 P 
89781.CE 6.560 0.91 P 
KCO.NC 7.063 0.92 P 
BJES.BK 7.710 0.88 P 
1580.NP 8.100 0.87 P 
KPR.NC 8.780 0.70 P 
KCR.NC 8.840 0.62 P 
PRDS.BK 10.094 0.61 P 
KBU.NC 10.100 0.62 P 
B049.PB 10.268 0.91 P 
KTD.NC 10.380 0.90 P 
89688.CE 10.420 0.89 P 
KHMB.NC 11.383 0.54 P 
B935.PB 11.608 0.87 P 
KMR.NC 11.963 0.64 P 
BRIC.BK 12.000 0.54 P 
1591.NP 12.440 0.87 P 
99700.CE 13.740 0.76 P 
79046.CE 15.700 0.88 P 
B934.PB 15.888 0.87 P 
KOM.NC 17.403 0.78 P 
KIP.NC 17.760 0.84 P 
KFP.NC 19.500 0.85 P 
KBN.NC 19.640 0.54 P 
KRK.NC 22.750 0.70 P 
GROB.NC 24.080 0.73 P 
GWR.NC 24.840 0.71 P 
1584B.NP 6.470 0.86 S 
KCT.NC 7.373 0.68 S 
1023.NP 7.600 0.79 S 
1586.NP 8.930 0.77 S 
89462.CE 9.640 0.75 S 
KMPB.NC 9.673 0.63 S 
B046.PB 10.418 0.85 S 
1581.NP 10.820 0.85 S 
RBOW.BK 11.280 0.56 S 
PETL.BK 11.320 0.59 S 
89781.CE 12.050 0.84 S 
KCO.NC 12.363 0.82 S 
1580.NP 14.600 0.84 S 
KNEE.BK 14.924 0.51 S 
KPR.NC 15.540 0.60 S 
KCR.NC 15.880 0.66 S 
DMOR.BK 17.550 0.51 S 
PRDS.BK 17.980 0.54 S 
89688.CE 18.110 0.82 S 
KBU.NC 18.200 0.67 S 
B049.PB 18.328 0.85 S 
KTD.NC 18.490 0.84 S 
KHMB.NC 20.643 0.74 S 
B935.PB 20.728 0.78 S 
BRIC.BK 20.860 0.59 S 
KMR.NC 21.543 0.64 S 
1591.NP 22.310 0.82 S 
B934.PB 26.638 0.87 S 
79046.CE 27.320 0.86 S 
KIP.NC 31.020 0.84 S 
KOM.NC 31.503 0.70 S 
RVIT.BK 31.600 0.88 S 
79298.CE 33.480 0.62 S 
KFP.NC 33.960 0.69 S 
KBN.NC 36.470 0.74 S 
MNDO.BK 36.720 0.72 S 
# 2022 12 20 11 10 11.210 40.5253 -124.4043 16.294 2.627 0.123 0.123 0.558 94 
1584B.NP 4.020 0.87 P 
KCT.NC 4.233 0.67 P 
1586.NP 5.660 0.92 P 
B046.PB 5.928 0.91 P 
89462.CE 6.220 0.88 P 
KMPB.NC 6.283 0.63 P 
PETL.BK 6.340 0.61 P 
1581.NP 6.620 0.93 P 
RBOW.BK 7.010 0.56 P 
KCO.NC 7.123 0.91 P 
89781.CE 7.410 0.91 P 
BJES.BK 8.760 0.88 P 
KPR.NC 9.040 0.65 P 
KCR.NC 9.820 0.64 P 
89688.CE 10.660 0.85 P 
KBU.NC 10.800 0.61 P 
B049.PB 10.968 0.92 P 
KTD.NC 11.120 0.80 P 
KHMB.NC 11.563 0.50 P 
BRIC.BK 12.120 0.67 P 
B935.PB 12.528 0.89 P 
KMR.NC 12.713 0.88 P 
KRP.NC 12.993 0.77 P 
1591.NP 13.040 0.87 P 
KCSB.NC 13.373 0.85 P 
HAYF.BK 16.163 0.79 P 
79046.CE 16.320 0.87 P 
KHBB.NC 16.403 0.66 P 
WEAV.BK 18.950 0.52 P 
KBN.NC 20.300 0.91 P 
DCMP.BK 22.323 0.86 P 
TRIN.BK 22.523 0.85 P 
GNR.NC 23.440 0.70 P 
LBK.NC 24.190 0.86 P 
GBL.NC 24.240 0.85 P 
SCOT.BK 24.441 0.73 P 
GWR.NC 25.300 1.00 P 
GHO.NC 25.700 1.00 P 
GUMB.BK 26.594 0.54 P 
1584B.NP 7.050 0.82 S 
KCT.NC 7.683 0.67 S 
1023.NP 8.790 0.83 S 
1586.NP 10.350 0.88 S 
B046.PB 10.368 0.85 S 
KMPB.NC 10.963 0.67 S 
PETL.BK 10.970 0.59 S 
89462.CE 11.190 0.84 S 
1581.NP 12.080 0.86 S 
RBOW.BK 12.250 0.60 S 
KCO.NC 12.443 0.84 S 
89781.CE 13.270 0.85 S 
1580.NP 15.350 0.70 S 
KPR.NC 15.940 0.67 S 
BJES.BK 15.990 0.73 S 
KCR.NC 17.720 0.68 S 
89688.CE 18.200 0.61 S 
DMOR.BK 19.280 0.70 S 
B049.PB 19.448 0.83 S 
KBU.NC 19.640 0.74 S 
KTD.NC 19.880 0.80 S 
KHMB.NC 21.523 0.60 S 
BRIC.BK 21.530 0.56 S 
KMR.NC 22.363 0.62 S 
B935.PB 22.428 0.88 S 
1591.NP 23.030 0.85 S 
KCSB.NC 23.963 0.83 S 
B934.PB 27.248 0.85 S 
79046.CE 27.790 0.81 S 
KHBB.NC 28.903 0.62 S 
KOM.NC 31.043 0.79 S 
KIP.NC 31.640 0.84 S 
RVIT.BK 34.400 0.68 S 
79298.CE 37.480 0.53 S 
KBN.NC 37.640 0.75 S 
MNDO.BK 37.700 0.84 S 
GNR.NC 40.600 0.83 S 
GBL.NC 42.040 0.54 S 
SCOT.BK 42.131 0.59 S 
LBK.NC 42.720 0.82 S 
GHO.NC 45.080 0.86 S 
GUMB.BK 46.970 0.64 S 
# 2022 12 20 11 11 11.278 40.5010 -124.2512 14.125 1.247 0.201 0.201 1.203 95 
KCT.NC 3.245 0.67 P 
RBOW.BK 5.442 0.53 P 
1586.NP 5.732 0.83 P 
B049.PB 7.770 0.53 P 
KHBB.NC 15.655 0.69 P 
HAYF.BK 15.743 0.55 P 
WEAV.BK 18.962 0.53 P 
1584B.NP 5.532 0.78 S 
89462.CE 5.682 0.75 S 
KCT.NC 6.455 0.67 S 
PETL.BK 8.572 0.55 S 
1586.NP 8.612 0.74 S 
KCR.NC 13.932 0.54 S 
KPR.NC 15.212 0.57 S 
PRDS.BK 17.066 0.54 S 
KMR.NC 17.175 0.70 S 
KBU.NC 17.522 0.52 S 
B049.PB 17.530 0.62 S 
BRIC.BK 17.732 0.57 S 
KHBB.NC 24.985 0.63 S 
# 2022 12 20 11 11 49.467 40.5572 -124.3375 15.785 1.744 0.306 0.306 0.423 96 
KCT.NC 4.626 0.57 P 
PETL.BK 5.543 0.50 P 
KMPB.NC 6.016 0.68 P 
B046.PB 6.311 0.65 P 
RBOW.BK 6.763 0.53 P 
KPR.NC 9.203 0.64 P 
KCR.NC 9.293 0.61 P 
B935.PB 12.151 0.71 P 
1584B.NP 6.933 0.69 S 
KCT.NC 7.786 0.53 S 
KMPB.NC 10.126 0.53 S 
B046.PB 10.421 0.71 S 
KPR.NC 15.953 0.55 S 
KCR.NC 16.243 0.55 S 
KBU.NC 18.543 0.53 S 
BRIC.BK 21.233 0.51 S 
B935.PB 21.371 0.72 S 
KMR.NC 21.746 0.66 S 
1591.NP 22.843 0.71 S 
# 2022 12 20 11 11 54.237 40.4073 -124.2136 11.907 1.213 0.568 0.568 0.660 97 
PRDS.BK 7.253 0.67 P 
KBU.NC 8.133 0.72 P 
B049.PB 8.141 0.74 P 
89688.CE 8.203 0.75 P 
KMR.NC 10.856 0.74 P 
KCO.NC 7.766 0.68 S 
KCR.NC 11.753 0.57 S 
B049.PB 13.811 0.72 S 
KBU.NC 13.933 0.53 S 
89688.CE 14.123 0.69 S 
BRIC.BK 16.453 0.56 S 
# 2022 12 20 11 12 5.021 40.5049 -124.3268 14.242 1.346 0.228 0.228 0.401 98 
1584B.NP 3.289 0.69 P 
KCT.NC 3.322 0.60 P 
KMPB.NC 5.012 0.61 P 
B046.PB 5.057 0.80 P 
PETL.BK 5.549 0.74 P 
RBOW.BK 5.779 0.63 P 
KCO.NC 6.192 0.77 P 
KPR.NC 7.949 0.80 P 
KBU.NC 9.709 0.62 P 
B049.PB 9.747 0.78 P 
PRDS.BK 10.003 0.57 P 
BRIC.BK 11.269 0.73 P 
B934.PB 16.277 0.59 P 
1584B.NP 5.699 0.74 S 
KCT.NC 6.402 0.57 S 
KMPB.NC 9.302 0.61 S 
B046.PB 9.317 0.77 S 
PETL.BK 10.119 0.60 S 
RBOW.BK 10.619 0.62 S 
KCO.NC 11.312 0.72 S 
KPR.NC 14.629 0.60 S 
PRDS.BK 17.269 0.55 S 
89688.CE 17.779 0.63 S 
B049.PB 17.807 0.73 S 
KBU.NC 18.069 0.62 S 
1591.NP 21.979 0.64 S 
# 2022 12 20 11 12 32.288 40.6096 -124.0593 16.631 2.008 0.127 0.127 0.463 99 
89462.CE 4.352 0.88 P 
1586.NP 4.562 0.90 P 
BJES.BK 4.612 0.78 P 
1023.NP 4.742 0.91 P 
KNEE.BK 4.876 0.71 P 
1581.NP 4.952 0.89 P 
89781.CE 4.962 0.87 P 
KMPB.NC 5.405 0.70 P 
DMOR.BK 5.612 0.55 P 
1580.NP 6.302 0.89 P 
KCR.NC 6.452 0.64 P 
RBOW.BK 6.612 0.60 P 
B046.PB 7.650 0.89 P 
KHMB.NC 8.275 0.68 P 
PETL.BK 8.382 0.82 P 
KCO.NC 8.535 0.89 P 
KPR.NC 8.552 0.80 P 
B935.PB 8.710 0.85 P 
KBU.NC 8.932 0.66 P 
B049.PB 8.990 0.86 P 
KTD.NC 9.162 0.75 P 
KCSB.NC 9.645 0.86 P 
89688.CE 9.952 0.50 P 
KMR.NC 10.425 0.61 P 
PRDS.BK 10.522 0.64 P 
KRP.NC 10.905 0.87 P 
BRIC.BK 11.592 0.53 P 
99700.CE 12.302 0.85 P 
KHBB.NC 12.655 0.62 P 
HAYF.BK 12.785 0.58 P 
B934.PB 14.690 0.61 P 
WEAV.BK 15.462 0.65 P 
TRIN.BK 19.835 0.87 P 
89462.CE 8.112 0.86 S 
BJES.BK 8.442 0.57 S 
1586.NP 8.692 0.86 S 
KNEE.BK 9.042 0.57 S 
89781.CE 9.052 0.79 S 
1581.NP 9.252 0.79 S 
KMPB.NC 9.805 0.60 S 
1023.NP 9.842 0.75 S 
1584B.NP 10.292 0.85 S 
DMOR.BK 11.072 0.74 S 
1580.NP 11.282 0.83 S 
KCR.NC 11.492 0.72 S 
KCT.NC 11.555 0.82 S 
RBOW.BK 11.872 0.57 S 
B046.PB 13.730 0.83 S 
PETL.BK 14.942 0.61 S 
KHMB.NC 15.055 0.64 S 
B935.PB 15.390 0.81 S 
KCO.NC 15.645 0.83 S 
KPR.NC 15.852 0.78 S 
KBU.NC 15.922 0.66 S 
B049.PB 15.940 0.82 S 
KCSB.NC 17.435 0.85 S 
KMR.NC 18.645 0.69 S 
PRDS.BK 18.976 0.57 S 
KRP.NC 19.605 0.65 S 
BRIC.BK 20.352 0.60 S 
89688.CE 20.372 0.79 S 
KHBB.NC 22.595 0.68 S 
HAYF.BK 22.615 0.57 S 
WEAV.BK 27.082 0.62 S 
RVIT.BK 30.282 0.50 S 
KFP.NC 33.712 0.59 S 
LBK.NC 36.502 0.70 S 
# 2022 12 20 11 12 47.979 40.5178 -124.0043 23.857 2.224 0.331 0.331 0.836 100 
BJES.BK 3.701 0.71 P 
89462.CE 4.101 0.82 P 
KMPB.NC 4.854 0.52 P 
KNEE.BK 6.071 0.71 P 
KCR.NC 6.481 0.59 P 
1584B.NP 6.691 0.80 P 
89781.CE 7.101 0.86 P 
1581.NP 7.461 0.87 P 
1580.NP 7.931 0.88 P 
KHMB.NC 8.534 0.54 P 
B935.PB 8.799 0.69 P 
KCSB.NC 9.544 0.86 P 
89688.CE 9.591 0.66 P 
KHBB.NC 12.274 0.65 P 
HAYF.BK 12.582 0.52 P 
WEAV.BK 15.111 0.54 P 
TRIN.BK 20.174 0.74 P 
89781.CE 12.041 0.62 S 
1586.NP 12.941 0.78 S 
1581.NP 12.951 0.82 S 
1580.NP 13.191 0.71 S 
KCSB.NC 16.104 0.86 S 
HAYF.BK 18.474 0.54 S 
KHBB.NC 20.534 0.63 S 
# 2022 12 20 11 13 5.124 40.5512 -124.2313 21.913 2.006 0.185 0.185 0.419 101 
1586.NP 4.766 0.93 P 
KCT.NC 4.949 0.67 P 
89462.CE 4.996 0.92 P 
KMPB.NC 5.359 0.65 P 
89781.CE 5.976 0.93 P 
RBOW.BK 6.186 0.58 P 
B046.PB 6.204 0.91 P 
BJES.BK 6.746 0.55 P 
PETL.BK 6.806 0.56 P 
KNEE.BK 7.110 0.62 P 
KCO.NC 7.169 0.89 P 
KCR.NC 7.806 0.69 P 
DMOR.BK 7.916 0.59 P 
KPR.NC 8.036 0.69 P 
KBU.NC 9.166 0.71 P 
B049.PB 9.314 0.84 P 
PRDS.BK 9.816 0.80 P 
KRP.NC 11.649 0.50 P 
BRIC.BK 11.806 0.74 P 
KHBB.NC 14.189 0.65 P 
LBK.NC 21.866 0.94 P 
SCOT.BK 22.437 0.63 P 
1584B.NP 7.816 0.86 S 
1023.NP 8.656 0.89 S 
KCT.NC 8.849 0.67 S 
1586.NP 8.966 0.86 S 
89462.CE 9.256 0.87 S 
KMPB.NC 9.539 0.65 S 
1581.NP 10.196 0.87 S 
89781.CE 10.896 0.74 S 
B046.PB 10.974 0.84 S 
RBOW.BK 11.006 0.59 S 
PETL.BK 12.006 0.60 S 
BJES.BK 12.156 0.82 S 
KCO.NC 12.699 0.85 S 
KNEE.BK 13.006 0.57 S 
1580.NP 13.606 0.55 S 
KCR.NC 13.966 0.68 S 
KPR.NC 14.766 0.71 S 
DMOR.BK 15.266 0.76 S 
KBU.NC 16.526 0.65 S 
B049.PB 16.614 0.79 S 
89688.CE 17.806 0.63 S 
KHMB.NC 17.889 0.54 S 
KMR.NC 19.169 0.55 S 
BRIC.BK 19.396 0.59 S 
KRP.NC 20.759 0.67 S 
KHBB.NC 24.959 0.75 S 
79046.CE 26.606 0.54 S 
LBK.NC 38.626 0.79 S 
SCOT.BK 39.169 0.59 S 
GUMB.BK 42.876 0.51 S 
# 2022 12 20 11 13 16.714 40.6218 -123.8825 7.680 1.462 0.411 0.411 0.742 102 
BJES.BK 3.486 0.85 P 
DMOR.BK 3.656 0.81 P 
KMPB.NC 5.459 0.79 P 
1581.NP 5.756 0.83 P 
1586.NP 5.776 0.77 P 
KHMB.NC 6.259 0.54 P 
KCSB.NC 6.419 0.81 P 
1023.NP 8.046 0.79 P 
B049.PB 8.784 0.61 P 
KPR.NC 11.686 0.56 P 
PRDS.BK 12.250 0.54 P 
DMOR.BK 8.056 0.60 S 
KCR.NC 8.976 0.80 S 
89781.CE 10.976 0.71 S 
B935.PB 11.064 0.78 S 
1586.NP 11.696 0.78 S 
1581.NP 11.846 0.74 S 
KHMB.NC 12.299 0.54 S 
KCSB.NC 12.459 0.80 S 
PRDS.BK 20.816 0.52 S 
# 2022 12 20 11 13 43.228 40.5383 -124.2275 18.945 1.716 0.176 0.176 0.640 103 
RBOW.BK 5.832 0.61 P 
B046.PB 5.930 0.86 P 
89781.CE 6.242 0.86 P 
PETL.BK 6.602 0.56 P 
KCO.NC 6.935 0.83 P 
KNEE.BK 7.056 0.59 P 
KCR.NC 7.642 0.70 P 
DMOR.BK 7.902 0.75 P 
KPR.NC 7.942 0.69 P 
KBU.NC 9.162 0.67 P 
B049.PB 9.330 0.83 P 
PRDS.BK 9.692 0.59 P 
KHMB.NC 10.405 0.54 P 
KMR.NC 10.905 0.62 P 
BRIC.BK 11.212 0.62 P 
1584B.NP 7.412 0.65 S 
1023.NP 7.982 0.74 S 
89462.CE 8.422 0.78 S 
1586.NP 8.422 0.68 S 
1581.NP 10.222 0.80 S 
RBOW.BK 10.362 0.51 S 
B046.PB 10.550 0.76 S 
89781.CE 11.052 0.78 S 
PETL.BK 11.672 0.56 S 
BJES.BK 11.892 0.77 S 
KCO.NC 12.355 0.76 S 
KNEE.BK 13.136 0.63 S 
KCR.NC 13.462 0.63 S 
KPR.NC 14.182 0.75 S 
DMOR.BK 15.682 0.82 S 
B049.PB 16.530 0.77 S 
KBU.NC 16.672 0.68 S 
B935.PB 17.070 0.72 S 
PRDS.BK 17.216 0.53 S 
89688.CE 17.662 0.53 S 
KMR.NC 19.365 0.65 S 
BRIC.BK 19.772 0.68 S 
1591.NP 20.902 0.68 S 
HAYF.BK 26.123 0.52 S 
KHBB.NC 26.865 0.55 S 
# 2022 12 20 11 14 0.739 40.5158 -124.3418 16.606 1.701 0.145 0.145 0.598 104 
1584B.NP 3.821 0.61 P 
KCT.NC 3.984 0.60 P 
1586.NP 5.091 0.79 P 
KMPB.NC 5.454 0.61 P 
B046.PB 5.629 0.80 P 
PETL.BK 6.111 0.75 P 
RBOW.BK 6.291 0.56 P 
KCO.NC 6.684 0.78 P 
89781.CE 6.911 0.78 P 
KCR.NC 7.751 0.52 P 
KPR.NC 8.341 0.58 P 
KNEE.BK 8.431 0.66 P 
KBU.NC 8.971 0.55 P 
PRDS.BK 9.131 0.65 P 
DMOR.BK 9.401 0.54 P 
89688.CE 10.411 0.75 P 
KHMB.NC 11.734 0.77 P 
BRIC.BK 11.911 0.54 P 
KCT.NC 6.184 0.52 S 
1584B.NP 6.351 0.56 S 
1023.NP 7.911 0.60 S 
1586.NP 9.411 0.74 S 
KMPB.NC 9.774 0.61 S 
B046.PB 9.839 0.65 S 
89462.CE 9.871 0.73 S 
PETL.BK 10.711 0.51 S 
RBOW.BK 11.221 0.51 S 
1581.NP 11.391 0.76 S 
KCO.NC 11.844 0.78 S 
BJES.BK 14.151 0.72 S 
KPR.NC 15.341 0.72 S 
KNEE.BK 15.561 0.51 S 
KCR.NC 15.711 0.69 S 
PRDS.BK 16.841 0.54 S 
KBU.NC 16.991 0.69 S 
DMOR.BK 18.031 0.69 S 
B049.PB 18.159 0.74 S 
89688.CE 18.341 0.68 S 
B935.PB 20.909 0.73 S 
KMR.NC 21.194 0.71 S 
1591.NP 21.891 0.72 S 
HAYF.BK 28.442 0.51 S 
KHBB.NC 29.394 0.76 S 
WEAV.BK 32.351 0.52 S 
# 2022 12 20 11 14 13.915 40.4886 -124.3709 16.627 1.797 0.388 0.388 0.594 105 
KCT.NC 4.158 0.52 P 
KMPB.NC 5.688 0.51 P 
KPR.NC 7.095 0.52 P 
KCR.NC 9.315 0.56 P 
89462.CE 10.055 0.63 S 
KNEE.BK 15.519 0.50 S 
KCR.NC 16.165 0.52 S 
KBU.NC 18.375 0.54 S 
KMR.NC 21.448 0.51 S 
KHBB.NC 29.618 0.52 S 
# 2022 12 20 11 14 14.024 40.5303 -124.3324 15.801 1.830 0.143 0.143 0.636 106 
1584B.NP 3.656 0.85 P 
KCT.NC 4.039 0.65 P 
1586.NP 5.056 0.92 P 
1581.NP 5.446 0.92 P 
KMPB.NC 5.539 0.63 P 
89781.CE 5.626 0.87 P 
B046.PB 5.724 0.84 P 
PETL.BK 6.126 0.85 P 
KCO.NC 6.669 0.84 P 
BJES.BK 7.986 0.89 P 
KPR.NC 8.646 0.54 P 
PRDS.BK 8.846 0.54 P 
DMOR.BK 9.426 0.80 P 
KCR.NC 9.706 0.68 P 
KBU.NC 10.226 0.82 P 
89688.CE 10.446 0.85 P 
B935.PB 11.864 0.85 P 
BRIC.BK 12.056 0.62 P 
1591.NP 12.646 0.76 P 
HAYF.BK 14.989 0.77 P 
1584B.NP 6.356 0.82 S 
KCT.NC 7.179 0.67 S 
89462.CE 7.846 0.54 S 
1023.NP 7.916 0.79 S 
1586.NP 9.426 0.85 S 
KMPB.NC 9.759 0.71 S 
B046.PB 9.994 0.80 S 
RBOW.BK 10.026 0.51 S 
PETL.BK 10.816 0.56 S 
1581.NP 10.986 0.84 S 
KCO.NC 12.069 0.80 S 
89781.CE 12.466 0.71 S 
BJES.BK 14.226 0.85 S 
KNEE.BK 15.386 0.65 S 
KPR.NC 15.586 0.74 S 
KCR.NC 16.166 0.67 S 
PRDS.BK 17.906 0.53 S 
DMOR.BK 18.186 0.82 S 
B049.PB 18.314 0.75 S 
89688.CE 18.496 0.82 S 
KBU.NC 18.496 0.61 S 
BRIC.BK 20.826 0.61 S 
KMR.NC 21.349 0.59 S 
B935.PB 21.464 0.80 S 
1591.NP 22.426 0.74 S 
HAYF.BK 28.589 0.60 S 
# 2022 12 20 11 14 38.128 40.5171 -124.3983 16.041 2.106 0.177 0.177 0.411 107 
1584B.NP 3.652 0.73 P 
1023.NP 5.072 0.82 P 
1586.NP 5.522 0.81 P 
B046.PB 5.780 0.80 P 
89462.CE 6.122 0.75 P 
KMPB.NC 6.145 0.59 P 
PETL.BK 6.212 0.59 P 
1581.NP 6.552 0.78 P 
RBOW.BK 6.852 0.54 P 
KCO.NC 6.935 0.74 P 
89781.CE 7.402 0.76 P 
KPR.NC 9.282 0.77 P 
KCR.NC 9.752 0.60 P 
PRDS.BK 10.072 0.56 P 
89688.CE 10.392 0.67 P 
KBU.NC 10.712 0.72 P 
BRIC.BK 12.362 0.73 P 
GNR.NC 23.402 0.50 P 
1584B.NP 6.842 0.76 S 
1023.NP 8.612 0.80 S 
B046.PB 10.050 0.75 S 
1586.NP 10.202 0.79 S 
PETL.BK 10.842 0.53 S 
KMPB.NC 10.845 0.59 S 
1581.NP 12.042 0.65 S 
KCO.NC 12.195 0.65 S 
RBOW.BK 12.222 0.52 S 
89781.CE 13.332 0.74 S 
BJES.BK 15.542 0.63 S 
KPR.NC 16.862 0.75 S 
KCR.NC 17.512 0.71 S 
PRDS.BK 18.156 0.52 S 
89688.CE 18.402 0.69 S 
KBU.NC 18.982 0.60 S 
B049.PB 19.280 0.75 S 
KMR.NC 22.875 0.64 S 
B934.PB 27.290 0.58 S 
# 2022 12 20 11 14 51.250 40.5408 -124.2715 21.483 2.140 0.199 0.199 0.334 108 
KCT.NC 4.513 0.82 P 
1586.NP 4.660 0.86 P 
89462.CE 4.910 0.86 P 
KMPB.NC 5.243 0.75 P 
89781.CE 6.090 0.88 P 
B046.PB 6.098 0.87 P 
RBOW.BK 6.170 0.59 P 
PETL.BK 6.780 0.62 P 
BJES.BK 6.860 0.80 P 
KCO.NC 7.123 0.84 P 
KNEE.BK 7.464 0.84 P 
KCR.NC 8.000 0.70 P 
KPR.NC 8.320 0.60 P 
KBU.NC 9.460 0.63 P 
B049.PB 9.638 0.87 P 
PRDS.BK 9.674 0.62 P 
89688.CE 10.240 0.79 P 
KMR.NC 11.103 0.80 P 
KHBB.NC 14.543 0.59 P 
79046.CE 14.550 0.54 P 
1023.NP 8.370 0.76 S 
KCT.NC 8.503 0.63 S 
1586.NP 8.770 0.83 S 
89462.CE 9.090 0.84 S 
KMPB.NC 9.333 0.62 S 
1581.NP 10.450 0.64 S 
B046.PB 10.788 0.83 S 
RBOW.BK 10.870 0.55 S 
89781.CE 11.210 0.76 S 
PETL.BK 11.850 0.54 S 
KCO.NC 12.673 0.83 S 
KNEE.BK 13.434 0.52 S 
KCR.NC 14.510 0.58 S 
KPR.NC 14.520 0.69 S 
KBU.NC 16.940 0.66 S 
B049.PB 17.058 0.81 S 
PRDS.BK 17.370 0.53 S 
89688.CE 17.870 0.79 S 
KHMB.NC 19.043 0.55 S 
KMR.NC 19.623 0.66 S 
KHBB.NC 25.123 0.75 S 
HAYF.BK 26.563 0.61 S 
# 2022 12 20 11 15 26.251 40.4812 -124.3911 16.996 1.110 0.281 0.281 0.787 109 
1584B.NP 3.709 0.75 P 
1023.NP 5.309 0.82 P 
KCO.NC 5.992 0.80 P 
1586.NP 6.919 0.77 P 
PRDS.BK 8.399 0.51 P 
KCR.NC 9.759 0.78 P 
BRIC.BK 11.709 0.57 P 
1584B.NP 6.909 0.70 S 
KCT.NC 8.182 0.79 S 
B046.PB 8.917 0.69 S 
KMPB.NC 10.362 0.68 S 
KCO.NC 11.622 0.75 S 
KPR.NC 16.279 0.55 S 
KCR.NC 16.919 0.58 S 
# 2022 12 20 11 16 3.402 40.6208 -124.0305 19.477 1.885 0.195 0.195 0.591 110 
KNEE.BK 4.822 0.88 P 
1586.NP 4.968 0.67 P 
89462.CE 4.998 0.91 P 
89781.CE 4.998 0.91 P 
1584B.NP 5.028 0.74 P 
1581.NP 5.108 0.91 P 
KMPB.NC 5.171 0.65 P 
DMOR.BK 5.338 0.59 P 
KCT.NC 5.931 0.59 P 
1023.NP 6.678 0.84 P 
KCR.NC 6.718 0.67 P 
RBOW.BK 6.928 0.59 P 
KHMB.NC 7.861 0.65 P 
B046.PB 7.916 0.90 P 
B935.PB 8.476 0.90 P 
PETL.BK 8.488 0.76 P 
KPR.NC 8.798 0.86 P 
KBU.NC 8.848 0.65 P 
B049.PB 8.946 0.87 P 
KMR.NC 10.281 0.65 P 
1591.NP 10.468 0.78 P 
HAYF.BK 12.481 0.70 P 
89688.CE 12.868 0.58 P 
TRIN.BK 19.499 0.50 P 
89462.CE 8.808 0.87 S 
BJES.BK 9.048 0.62 S 
89781.CE 9.338 0.84 S 
1586.NP 9.488 0.79 S 
1581.NP 9.738 0.81 S 
1023.NP 10.788 0.81 S 
DMOR.BK 10.968 0.81 S 
KCR.NC 11.838 0.63 S 
RBOW.BK 12.508 0.56 S 
B046.PB 14.216 0.84 S 
KHMB.NC 14.371 0.68 S 
B935.PB 15.496 0.85 S 
KPR.NC 15.638 0.58 S 
B049.PB 15.986 0.78 S 
KBU.NC 16.048 0.70 S 
KCSB.NC 17.011 0.83 S 
KMR.NC 18.571 0.64 S 
1591.NP 20.728 0.80 S 
KHBB.NC 20.751 0.50 S 
# 2022 12 20 11 16 24.425 40.5749 -124.1272 20.117 1.687 0.191 0.191 0.340 111 
1586.NP 4.455 0.93 P 
1023.NP 4.625 0.93 P 
KMPB.NC 4.698 0.70 P 
1581.NP 5.035 0.90 P 
89781.CE 5.375 0.86 P 
KNEE.BK 5.905 0.75 P 
RBOW.BK 6.005 0.56 P 
B046.PB 6.693 0.91 P 
KCR.NC 7.045 0.70 P 
KCO.NC 7.628 0.91 P 
KPR.NC 8.055 0.65 P 
KBU.NC 8.695 0.66 P 
B049.PB 8.773 0.87 P 
KHMB.NC 9.168 0.68 P 
B935.PB 9.183 0.88 P 
PRDS.BK 9.819 0.72 P 
KMR.NC 10.318 0.65 P 
BRIC.BK 11.065 0.60 P 
89462.CE 8.165 0.77 S 
1586.NP 8.515 0.86 S 
1023.NP 9.035 0.81 S 
KMPB.NC 9.138 0.62 S 
BJES.BK 9.335 0.73 S 
1581.NP 9.615 0.74 S 
89781.CE 10.035 0.61 S 
RBOW.BK 10.855 0.59 S 
KNEE.BK 10.865 0.50 S 
B046.PB 12.003 0.84 S 
KCR.NC 12.825 0.57 S 
KCO.NC 13.618 0.84 S 
KPR.NC 14.705 0.66 S 
B049.PB 15.743 0.76 S 
KBU.NC 15.775 0.64 S 
KHMB.NC 16.588 0.62 S 
B935.PB 16.993 0.86 S 
PRDS.BK 17.655 0.50 S 
KMR.NC 18.428 0.63 S 
BRIC.BK 19.505 0.58 S 
KRP.NC 19.698 0.81 S 
# 2022 12 20 11 16 53.743 40.5561 -123.9529 19.731 1.806 0.165 0.165 0.519 112 
DMOR.BK 5.167 0.64 P 
KNEE.BK 5.301 0.73 P 
KCR.NC 5.327 0.66 P 
RBOW.BK 6.437 0.60 P 
89781.CE 6.577 0.70 P 
B935.PB 7.235 0.81 P 
B049.PB 7.675 0.86 P 
KBU.NC 7.677 0.63 P 
KPR.NC 8.067 0.85 P 
KHMB.NC 8.380 0.63 P 
KCO.NC 8.650 0.79 P 
KMR.NC 8.910 0.63 P 
PRDS.BK 9.657 0.65 P 
89688.CE 10.007 0.66 P 
1591.NP 10.137 0.86 P 
BRIC.BK 10.567 0.50 P 
HAYF.BK 11.370 0.52 P 
KHBB.NC 11.550 0.58 P 
B934.PB 14.155 0.77 P 
BJES.BK 7.707 0.81 S 
KCR.NC 9.507 0.60 S 
DMOR.BK 10.497 0.51 S 
RBOW.BK 11.347 0.53 S 
1581.NP 12.417 0.65 S 
KBU.NC 12.677 0.64 S 
B935.PB 13.155 0.82 S 
B049.PB 13.565 0.82 S 
KPR.NC 13.827 0.78 S 
KHMB.NC 14.090 0.70 S 
KCSB.NC 14.870 0.71 S 
KMR.NC 15.990 0.69 S 
1591.NP 16.737 0.80 S 
PRDS.BK 17.327 0.54 S 
89688.CE 18.247 0.64 S 
BRIC.BK 18.467 0.57 S 
HAYF.BK 20.028 0.59 S 
KHBB.NC 20.340 0.65 S 
B934.PB 24.575 0.77 S 
WEAV.BK 25.467 0.53 S 
RVIT.BK 27.672 0.51 S 
# 2022 12 20 11 17 3.233 40.5042 -124.4323 14.847 1.786 0.160 0.160 0.489 113 
1584B.NP 3.047 0.73 P 
KCT.NC 4.160 0.60 P 
B046.PB 4.495 0.80 P 
1586.NP 6.037 0.80 P 
PETL.BK 6.197 0.56 P 
KMPB.NC 6.480 0.62 P 
89462.CE 6.567 0.83 P 
1581.NP 7.077 0.75 P 
KCO.NC 7.090 0.85 P 
RBOW.BK 7.187 0.69 P 
KPR.NC 9.137 0.67 P 
KCR.NC 10.217 0.64 P 
KBU.NC 11.017 0.66 P 
B049.PB 11.205 0.84 P 
1591.NP 13.657 0.76 P 
1584B.NP 7.337 0.81 S 
KCT.NC 7.580 0.68 S 
1023.NP 9.327 0.79 S 
PETL.BK 10.647 0.66 S 
1586.NP 10.987 0.83 S 
KMPB.NC 11.220 0.64 S 
89462.CE 11.737 0.70 S 
KCO.NC 12.220 0.80 S 
RBOW.BK 12.527 0.55 S 
1581.NP 12.827 0.78 S 
89781.CE 14.397 0.81 S 
KPR.NC 15.987 0.66 S 
KCR.NC 17.957 0.63 S 
PRDS.BK 18.337 0.58 S 
89688.CE 18.607 0.60 S 
KBU.NC 19.527 0.64 S 
B049.PB 19.755 0.70 S 
BRIC.BK 21.687 0.53 S 
1591.NP 23.617 0.76 S 
79046.CE 28.017 0.63 S 
