# 2022 12 20 10 45 37.130 40.5466 -124.4147 11.927 1.679 0.201 0.201 0.851 42 
1584B.NP 4.420 0.88 P 
1586.NP 5.370 0.87 P 
1023.NP 5.460 0.82 P 
89462.CE 5.860 0.87 P 
KCO.NC 8.073 0.75 P 
KPR.NC 9.540 0.64 P 
89688.CE 11.680 0.60 P 
KCT.NC 5.203 0.51 S 
1584B.NP 7.460 0.84 S 
1023.NP 8.450 0.84 S 
89462.CE 9.990 0.83 S 
PETL.BK 12.590 0.51 S 
KCO.NC 13.453 0.80 S 
1580.NP 15.150 0.53 S 
KCR.NC 20.460 0.58 S 
89688.CE 20.960 0.62 S 
# 2022 12 20 10 46 3.916 40.5040 -123.9700 26.105 1.696 0.357 0.357 0.801 43 
B045.PB 4.822 0.52 P 
KMPB.NC 5.297 0.63 P 
KCR.NC 5.974 0.70 P 
B046.PB 7.172 0.69 P 
B047.PB 7.442 0.77 P 
KPR.NC 7.744 0.56 P 
KCO.NC 7.937 0.74 P 
B935.PB 8.282 0.76 P 
B045.PB 8.662 0.55 S 
89462.CE 8.894 0.64 S 
KMPB.NC 9.557 0.75 S 
KCR.NC 10.774 0.53 S 
RBOW.BK 10.914 0.55 S 
KMR.NC 12.217 0.71 S 
B046.PB 12.742 0.76 S 
B047.PB 13.132 0.70 S 
KPR.NC 13.654 0.58 S 
KCO.NC 13.687 0.72 S 
PRDS.BK 17.134 0.51 S 
# 2022 12 20 10 46 15.867 40.5362 -124.3015 16.264 1.762 0.142 0.142 0.416 44 
1584B.NP 3.423 0.87 P 
1023.NP 3.723 0.91 P 
KCT.NC 3.876 0.62 P 
89462.CE 4.973 0.88 P 
1586.NP 5.143 0.90 P 
B046.PB 5.751 0.85 P 
1581.NP 5.843 0.91 P 
B045.PB 6.101 0.74 P 
RBOW.BK 6.103 0.58 P 
89781.CE 6.443 0.90 P 
KCO.NC 6.866 0.84 P 
B047.PB 7.031 0.87 P 
BJES.BK 7.463 0.56 P 
1580.NP 7.883 0.90 P 
KNEE.BK 8.243 0.69 P 
KPR.NC 8.323 0.65 P 
KCR.NC 8.433 0.68 P 
KBU.NC 9.763 0.60 P 
PRDS.BK 9.897 0.63 P 
B049.PB 9.911 0.86 P 
KMR.NC 11.536 0.54 P 
BRIC.BK 11.703 0.58 P 
1584B.NP 6.233 0.83 S 
KCT.NC 7.206 0.72 S 
1023.NP 7.393 0.85 S 
1586.NP 8.503 0.87 S 
KMPB.NC 9.176 0.63 S 
89462.CE 9.183 0.85 S 
B046.PB 10.301 0.79 S 
1581.NP 10.423 0.85 S 
RBOW.BK 10.853 0.59 S 
B045.PB 10.961 0.77 S 
89781.CE 11.913 0.86 S 
KCO.NC 12.206 0.84 S 
B047.PB 12.471 0.82 S 
1580.NP 14.093 0.84 S 
KNEE.BK 14.577 0.64 S 
KPR.NC 14.903 0.74 S 
KCR.NC 15.493 0.64 S 
DMOR.BK 17.103 0.73 S 
KBU.NC 17.773 0.68 S 
B049.PB 17.831 0.81 S 
PRDS.BK 17.897 0.54 S 
B935.PB 20.291 0.82 S 
BRIC.BK 20.423 0.59 S 
KMR.NC 20.596 0.75 S 
1591.NP 22.163 0.54 S 
HAYF.BK 27.714 0.56 S 
# 2022 12 20 10 46 36.843 40.5115 -124.3432 16.532 1.630 0.177 0.177 0.457 45 
1584B.NP 3.607 0.83 P 
KCT.NC 3.950 0.63 P 
1586.NP 5.117 0.84 P 
KMPB.NC 5.210 0.64 P 
89462.CE 5.237 0.86 P 
KCO.NC 5.760 0.79 P 
RBOW.BK 6.207 0.53 P 
B045.PB 6.535 0.84 P 
1584B.NP 6.337 0.66 S 
KCT.NC 7.210 0.59 S 
1023.NP 7.927 0.82 S 
KMPB.NC 9.570 0.59 S 
1586.NP 9.637 0.81 S 
B046.PB 9.695 0.79 S 
89462.CE 9.927 0.81 S 
B045.PB 11.445 0.70 S 
1581.NP 11.447 0.63 S 
KCO.NC 11.740 0.78 S 
KPR.NC 14.807 0.78 S 
KCR.NC 16.227 0.80 S 
B049.PB 18.005 0.79 S 
KBU.NC 18.007 0.80 S 
89688.CE 18.217 0.59 S 
BRIC.BK 20.567 0.60 S 
B935.PB 21.095 0.53 S 
1591.NP 22.287 0.81 S 
# 2022 12 20 10 46 54.141 40.5137 -124.3007 13.924 1.944 0.154 0.154 1.097 46 
1023.NP 2.929 0.59 P 
KCT.NC 3.592 0.66 P 
KMPB.NC 4.952 0.59 P 
B046.PB 5.227 0.79 P 
RBOW.BK 5.879 0.57 P 
B045.PB 6.147 0.76 P 
PETL.BK 6.439 0.60 P 
B047.PB 6.677 0.78 P 
KPR.NC 8.089 0.78 P 
KBU.NC 9.709 0.52 P 
B049.PB 9.887 0.72 P 
KHMB.NC 11.302 0.71 P 
KHBB.NC 15.152 0.77 P 
1584B.NP 5.829 0.68 S 
KCT.NC 6.872 0.61 S 
1586.NP 8.969 0.73 S 
KCO.NC 9.092 0.61 S 
B047.PB 9.357 0.62 S 
B046.PB 9.487 0.72 S 
89462.CE 9.509 0.79 S 
PETL.BK 10.299 0.55 S 
1581.NP 10.939 0.56 S 
B045.PB 11.147 0.81 S 
89781.CE 12.029 0.71 S 
BJES.BK 13.789 0.68 S 
KPR.NC 14.659 0.73 S 
KCR.NC 14.709 0.62 S 
1580.NP 14.709 0.68 S 
B049.PB 17.747 0.71 S 
DMOR.BK 17.749 0.75 S 
KMR.NC 20.902 0.51 S 
B935.PB 21.017 0.60 S 
KHBB.NC 29.012 0.55 S 
B934.PB 31.517 0.53 S 
# 2022 12 20 10 47 14.053 40.5159 -124.3917 15.986 2.385 0.156 0.156 0.493 47 
1584B.NP 3.837 0.82 P 
KCT.NC 4.000 0.63 P 
1586.NP 5.477 0.90 P 
B046.PB 5.745 0.87 P 
PETL.BK 5.997 0.61 P 
KMPB.NC 6.060 0.61 P 
1581.NP 6.517 0.88 P 
RBOW.BK 6.727 0.54 P 
KCO.NC 6.880 0.87 P 
89781.CE 7.227 0.83 P 
BJES.BK 8.667 0.87 P 
KPR.NC 8.797 0.67 P 
KCR.NC 9.497 0.66 P 
PRDS.BK 10.227 0.59 P 
89688.CE 10.437 0.82 P 
KBU.NC 10.597 0.60 P 
B049.PB 10.765 0.87 P 
BRIC.BK 12.297 0.77 P 
B934.PB 17.425 0.50 P 
1584B.NP 6.837 0.80 S 
KCT.NC 7.360 0.66 S 
1023.NP 8.507 0.84 S 
B046.PB 10.085 0.82 S 
1586.NP 10.187 0.87 S 
PETL.BK 10.667 0.62 S 
KMPB.NC 10.730 0.66 S 
1581.NP 11.967 0.82 S 
RBOW.BK 12.077 0.60 S 
KCO.NC 12.120 0.82 S 
B047.PB 12.765 0.73 S 
89781.CE 13.207 0.83 S 
KPR.NC 15.697 0.64 S 
1580.NP 15.757 0.75 S 
KNEE.BK 16.627 0.82 S 
KCR.NC 17.117 0.68 S 
PRDS.BK 17.917 0.61 S 
89688.CE 18.077 0.72 S 
B049.PB 19.235 0.79 S 
KBU.NC 19.357 0.65 S 
BRIC.BK 21.447 0.62 S 
1591.NP 22.867 0.70 S 
79046.CE 27.557 0.59 S 
# 2022 12 20 10 47 33.935 40.6002 -124.0744 15.730 2.699 0.113 0.113 0.527 48 
89462.CE 4.205 0.90 P 
1586.NP 4.455 0.87 P 
BJES.BK 4.645 0.84 P 
KNEE.BK 4.875 0.59 P 
1581.NP 4.935 0.85 P 
B045.PB 5.023 0.89 P 
1023.NP 5.045 0.89 P 
89781.CE 5.055 0.89 P 
KMPB.NC 5.298 0.59 P 
1584B.NP 5.605 0.86 P 
DMOR.BK 5.815 0.60 P 
KCT.NC 6.278 0.64 P 
KCR.NC 6.385 0.65 P 
RBOW.BK 6.545 0.58 P 
B046.PB 7.733 0.86 P 
B047.PB 8.213 0.85 P 
PETL.BK 8.415 0.63 P 
KCO.NC 8.558 0.84 P 
KPR.NC 8.575 0.65 P 
KHMB.NC 8.578 0.58 P 
B935.PB 8.933 0.84 P 
KBU.NC 9.005 0.68 P 
B049.PB 9.103 0.81 P 
KCSB.NC 9.818 0.83 P 
KMR.NC 10.538 0.64 P 
PRDS.BK 10.625 0.52 P 
KRP.NC 11.108 0.87 P 
89688.CE 11.235 0.78 P 
1591.NP 11.605 0.81 P 
BRIC.BK 11.775 0.54 P 
HAYF.BK 12.878 0.58 P 
KHBB.NC 12.898 0.63 P 
B934.PB 14.993 0.76 P 
KOM.NC 15.198 0.85 P 
WEAV.BK 15.835 0.58 P 
KIP.NC 16.875 0.53 P 
KBN.NC 18.155 0.81 P 
RVIT.BK 18.155 0.85 P 
79046.CE 18.825 0.64 P 
KFP.NC 18.905 0.53 P 
TRIN.BK 19.198 0.83 P 
PETY.BK 19.858 0.51 P 
LBK.NC 20.635 0.81 P 
89462.CE 7.735 0.83 S 
BJES.BK 8.425 0.85 S 
1586.NP 8.515 0.69 S 
B045.PB 8.993 0.84 S 
KNEE.BK 9.155 0.58 S 
89781.CE 9.155 0.78 S 
1581.NP 9.275 0.78 S 
KMPB.NC 9.488 0.66 S 
1023.NP 9.645 0.65 S 
1584B.NP 10.075 0.79 S 
KCT.NC 11.218 0.64 S 
KCR.NC 11.365 0.59 S 
RBOW.BK 11.525 0.50 S 
B046.PB 13.603 0.82 S 
B047.PB 14.463 0.81 S 
PETL.BK 14.945 0.51 S 
KPR.NC 15.185 0.57 S 
KCO.NC 15.268 0.81 S 
KHMB.NC 15.298 0.67 S 
B049.PB 16.083 0.78 S 
KBU.NC 16.135 0.53 S 
B935.PB 16.243 0.79 S 
KTD.NC 16.835 0.72 S 
KCSB.NC 17.518 0.83 S 
KMR.NC 18.718 0.55 S 
PRDS.BK 18.989 0.54 S 
89688.CE 19.755 0.79 S 
KRP.NC 19.878 0.78 S 
BRIC.BK 20.495 0.57 S 
1591.NP 20.705 0.82 S 
KHBB.NC 23.478 0.64 S 
B934.PB 26.643 0.79 S 
KOM.NC 27.158 0.83 S 
79046.CE 27.655 0.74 S 
WEAV.BK 28.965 0.57 S 
RVIT.BK 29.695 0.84 S 
KIP.NC 30.195 0.78 S 
KBN.NC 33.435 0.83 S 
KFP.NC 33.575 0.79 S 
SCOT.BK 37.978 0.79 S 
# 2022 12 20 10 48 1.080 40.6385 -124.0067 18.148 2.222 0.131 0.131 0.440 49 
KNEE.BK 4.650 0.57 P 
DMOR.BK 4.920 0.79 P 
89781.CE 5.080 0.93 P 
1586.NP 5.180 0.87 P 
1581.NP 5.250 0.93 P 
B045.PB 5.588 0.91 P 
1580.NP 5.990 0.86 P 
KMPB.NC 6.213 0.87 P 
KCR.NC 6.440 0.71 P 
RBOW.BK 7.300 0.64 P 
KHMB.NC 7.633 0.59 P 
B935.PB 8.418 0.92 P 
B047.PB 8.778 0.87 P 
KTD.NC 8.910 0.91 P 
KPR.NC 9.050 0.56 P 
KBU.NC 9.160 0.57 P 
B049.PB 9.218 0.90 P 
KCSB.NC 9.243 0.91 P 
KRP.NC 10.473 0.86 P 
KMR.NC 10.563 0.87 P 
PRDS.BK 10.730 0.52 P 
BRIC.BK 11.530 0.58 P 
1591.NP 11.770 0.85 P 
KHBB.NC 12.123 0.65 P 
HAYF.BK 12.133 0.57 P 
WEAV.BK 14.510 0.67 P 
LSF.NC 20.360 0.69 P 
KNEE.BK 8.124 0.66 S 
89781.CE 9.120 0.86 S 
89462.CE 9.260 0.80 S 
1581.NP 9.780 0.86 S 
1586.NP 9.890 0.86 S 
B045.PB 9.908 0.80 S 
DMOR.BK 10.200 0.86 S 
KMPB.NC 11.033 0.54 S 
1584B.NP 11.360 0.68 S 
1023.NP 11.450 0.86 S 
KCR.NC 11.720 0.60 S 
RBOW.BK 12.900 0.55 S 
KHMB.NC 13.643 0.68 S 
B046.PB 14.538 0.81 S 
B935.PB 14.948 0.85 S 
B047.PB 15.778 0.77 S 
KTD.NC 15.850 0.76 S 
B049.PB 16.218 0.84 S 
PETL.BK 16.310 0.57 S 
KCO.NC 16.333 0.87 S 
KBU.NC 16.360 0.84 S 
KCSB.NC 16.393 0.85 S 
KPR.NC 16.430 0.83 S 
KMR.NC 18.743 0.57 S 
KRP.NC 19.003 0.58 S 
PRDS.BK 20.210 0.58 S 
89688.CE 21.050 0.85 S 
1591.NP 21.080 0.83 S 
HAYF.BK 21.163 0.57 S 
BRIC.BK 21.200 0.60 S 
KHBB.NC 21.563 0.70 S 
KOM.NC 25.053 0.76 S 
WEAV.BK 25.910 0.63 S 
B934.PB 27.018 0.73 S 
# 2022 12 20 10 48 24.255 40.5236 -124.3751 15.424 2.328 0.224 0.224 0.679 50 
1584B.NP 3.975 0.54 P 
1023.NP 4.455 0.77 P 
KCT.NC 4.458 0.62 P 
1586.NP 5.125 0.71 P 
B046.PB 5.433 0.64 P 
PETL.BK 5.865 0.56 P 
1584B.NP 6.475 0.58 S 
KCT.NC 7.918 0.61 S 
1023.NP 8.285 0.77 S 
1586.NP 9.715 0.77 S 
B046.PB 9.733 0.63 S 
KCO.NC 11.988 0.56 S 
89781.CE 12.755 0.74 S 
KPR.NC 15.635 0.55 S 
KBU.NC 18.415 0.66 S 
B934.PB 29.643 0.53 S 
# 2022 12 20 10 48 38.099 40.5917 -123.9064 25.152 2.908 0.159 0.159 0.464 51 
DMOR.BK 4.751 0.66 P 
KNEE.BK 5.191 0.61 P 
B045.PB 5.609 0.87 P 
KCR.NC 5.741 0.64 P 
BJES.BK 5.811 0.84 P 
89462.CE 5.891 0.85 P 
KMPB.NC 6.514 0.66 P 
89781.CE 6.541 0.88 P 
1586.NP 6.761 0.88 P 
1581.NP 6.861 0.89 P 
B935.PB 7.099 0.88 P 
1580.NP 7.211 0.89 P 
RBOW.BK 7.251 0.57 P 
1584B.NP 7.431 0.82 P 
KHMB.NC 7.674 0.60 P 
KCSB.NC 7.724 0.86 P 
B049.PB 8.139 0.85 P 
KBU.NC 8.191 0.66 P 
B046.PB 8.569 0.87 P 
1591.NP 8.651 0.67 P 
B047.PB 8.659 0.85 P 
KPR.NC 8.691 0.65 P 
KMR.NC 9.094 0.64 P 
KCO.NC 9.144 0.85 P 
PETL.BK 9.271 0.81 P 
PRDS.BK 10.191 0.54 P 
HAYF.BK 10.494 0.60 P 
KHBB.NC 10.654 0.67 P 
BRIC.BK 10.981 0.52 P 
B934.PB 12.909 0.63 P 
79046.CE 13.541 0.62 P 
KOM.NC 14.004 0.85 P 
TRIN.BK 17.194 0.77 P 
LBK.NC 18.591 0.69 P 
GUMB.BK 21.391 0.62 P 
BJES.BK 8.511 0.76 S 
KNEE.BK 9.671 0.50 S 
DMOR.BK 9.741 0.54 S 
B045.PB 10.059 0.83 S 
KCR.NC 10.411 0.63 S 
89462.CE 10.991 0.88 S 
KMPB.NC 11.804 0.65 S 
89781.CE 11.901 0.80 S 
1586.NP 12.571 0.86 S 
1580.NP 12.631 0.84 S 
1581.NP 12.701 0.84 S 
B935.PB 12.719 0.84 S 
RBOW.BK 12.881 0.57 S 
1584B.NP 13.501 0.82 S 
1023.NP 13.591 0.84 S 
KHMB.NC 13.774 0.63 S 
KCSB.NC 14.074 0.84 S 
B049.PB 14.389 0.76 S 
KBU.NC 14.551 0.62 S 
B046.PB 15.109 0.83 S 
B047.PB 15.199 0.77 S 
KPR.NC 15.421 0.65 S 
PETL.BK 16.351 0.55 S 
KMR.NC 16.514 0.63 S 
KCO.NC 16.614 0.81 S 
PRDS.BK 18.041 0.55 S 
BRIC.BK 18.681 0.62 S 
KHBB.NC 18.704 0.61 S 
HAYF.BK 18.742 0.53 S 
1591.NP 18.861 0.68 S 
KRP.NC 19.164 0.72 S 
89688.CE 19.311 0.59 S 
KOM.NC 24.394 0.80 S 
79046.CE 25.911 0.63 S 
LSF.NC 32.751 0.59 S 
SCOT.BK 34.014 0.58 S 
GUMB.BK 37.865 0.65 S 
# 2022 12 20 10 48 55.414 40.5896 -124.1425 19.020 2.794 0.136 0.136 0.606 52 
1586.NP 4.456 0.85 P 
89462.CE 4.576 0.90 P 
1023.NP 4.766 0.92 P 
1581.NP 4.976 0.84 P 
1584B.NP 5.096 0.86 P 
89781.CE 5.246 0.82 P 
KMPB.NC 5.309 0.58 P 
KCT.NC 5.339 0.89 P 
B045.PB 5.464 0.91 P 
BJES.BK 5.556 0.81 P 
KNEE.BK 5.750 0.67 P 
RBOW.BK 6.396 0.57 P 
1580.NP 6.536 0.88 P 
DMOR.BK 6.546 0.78 P 
KCR.NC 7.006 0.65 P 
B046.PB 7.134 0.90 P 
PETL.BK 7.816 0.59 P 
B047.PB 7.824 0.87 P 
KCO.NC 8.039 0.88 P 
KPR.NC 8.416 0.67 P 
KBU.NC 9.046 0.62 P 
KHMB.NC 9.049 0.65 P 
B049.PB 9.154 0.84 P 
KTD.NC 9.276 0.89 P 
B935.PB 9.384 0.87 P 
PRDS.BK 9.990 0.55 P 
KCSB.NC 10.219 0.84 P 
KMR.NC 10.679 0.61 P 
89688.CE 10.756 0.82 P 
KRP.NC 10.999 0.84 P 
1591.NP 11.356 0.83 P 
HAYF.BK 13.019 0.63 P 
KOM.NC 15.279 0.79 P 
WEAV.BK 16.206 0.89 P 
GNR.NC 21.356 0.66 P 
GBL.NC 23.256 0.66 P 
GHO.NC 25.016 0.74 P 
1586.NP 8.396 0.83 S 
89462.CE 8.486 0.82 S 
1023.NP 9.166 0.83 S 
1584B.NP 9.206 0.75 S 
1581.NP 9.366 0.79 S 
KMPB.NC 9.609 0.65 S 
89781.CE 9.676 0.76 S 
B045.PB 9.814 0.70 S 
BJES.BK 10.006 0.58 S 
KCT.NC 10.589 0.83 S 
KNEE.BK 10.650 0.50 S 
RBOW.BK 11.556 0.60 S 
1580.NP 11.996 0.79 S 
KCR.NC 12.556 0.66 S 
B046.PB 12.614 0.83 S 
DMOR.BK 13.026 0.81 S 
PETL.BK 13.826 0.58 S 
B047.PB 13.844 0.82 S 
KCO.NC 14.249 0.83 S 
KPR.NC 15.196 0.61 S 
KBU.NC 16.156 0.58 S 
KHMB.NC 16.319 0.79 S 
B049.PB 16.384 0.71 S 
KTD.NC 16.696 0.81 S 
B935.PB 16.994 0.85 S 
PRDS.BK 18.286 0.53 S 
KCSB.NC 18.599 0.85 S 
KMR.NC 18.999 0.65 S 
89688.CE 19.206 0.80 S 
KRP.NC 19.599 0.81 S 
BRIC.BK 19.796 0.62 S 
1591.NP 20.876 0.84 S 
HAYF.BK 23.919 0.55 S 
B934.PB 25.704 0.80 S 
79046.CE 26.836 0.73 S 
KIP.NC 30.416 0.76 S 
RVIT.BK 30.596 0.82 S 
KBN.NC 34.076 0.64 S 
79298.CE 35.896 0.70 S 
PETY.BK 36.079 0.71 S 
LBK.NC 39.256 0.53 S 
GNR.NC 40.256 0.70 S 
# 2022 12 20 10 49 10.549 40.5076 -124.4392 22.720 2.461 0.254 0.254 0.698 53 
KCT.NC 4.794 0.69 P 
1584B.NP 4.851 0.87 P 
B046.PB 5.729 0.88 P 
PETL.BK 5.871 0.81 P 
1586.NP 6.511 0.91 P 
KCO.NC 6.644 0.89 P 
KMPB.NC 6.704 0.68 P 
89462.CE 6.991 0.88 P 
RBOW.BK 7.071 0.60 P 
B047.PB 7.379 0.87 P 
B045.PB 7.979 0.88 P 
KPR.NC 9.051 0.64 P 
BJES.BK 9.371 0.75 P 
PRDS.BK 9.935 0.61 P 
89688.CE 10.201 0.88 P 
KCR.NC 10.241 0.59 P 
DMOR.BK 10.481 0.72 P 
B049.PB 10.809 0.90 P 
BRIC.BK 11.901 0.83 P 
B935.PB 12.749 0.82 P 
KCSB.NC 13.654 0.79 P 
1584B.NP 8.741 0.76 S 
KCT.NC 8.874 0.65 S 
B046.PB 10.219 0.83 S 
PETL.BK 10.581 0.54 S 
1023.NP 10.691 0.82 S 
KMPB.NC 11.914 0.65 S 
1586.NP 11.981 0.83 S 
KCO.NC 12.014 0.86 S 
89462.CE 12.701 0.80 S 
RBOW.BK 12.831 0.55 S 
B047.PB 13.159 0.84 S 
1581.NP 13.291 0.81 S 
B045.PB 14.069 0.84 S 
BJES.BK 14.211 0.52 S 
KPR.NC 16.111 0.69 S 
PRDS.BK 17.681 0.59 S 
89688.CE 17.721 0.84 S 
KCR.NC 18.211 0.78 S 
B049.PB 19.299 0.87 S 
KHMB.NC 19.824 0.73 S 
79046.CE 29.421 0.56 S 
# 2022 12 20 10 49 42.770 40.5272 -124.0207 21.052 2.160 0.138 0.138 0.412 54 
B045.PB 4.498 0.91 P 
89462.CE 4.600 0.92 P 
KMPB.NC 4.993 0.64 P 
BJES.BK 5.340 0.85 P 
KCR.NC 5.640 0.65 P 
RBOW.BK 5.740 0.57 P 
1586.NP 5.940 0.89 P 
KNEE.BK 5.984 0.68 P 
1023.NP 6.000 0.88 P 
1584B.NP 6.020 0.90 P 
DMOR.BK 6.140 0.61 P 
89781.CE 6.650 0.92 P 
KCT.NC 6.723 0.59 P 
1581.NP 6.800 0.92 P 
B046.PB 7.028 0.91 P 
B047.PB 7.198 0.89 P 
KPR.NC 7.390 0.55 P 
KBU.NC 7.540 0.67 P 
B049.PB 7.638 0.89 P 
KCO.NC 7.733 0.93 P 
1580.NP 7.860 0.92 P 
B935.PB 7.988 0.92 P 
89688.CE 8.860 0.78 P 
KCSB.NC 8.943 0.92 P 
KHMB.NC 9.113 0.68 P 
KMR.NC 9.143 0.67 P 
PRDS.BK 9.244 0.61 P 
1591.NP 10.070 0.88 P 
BRIC.BK 10.200 0.52 P 
KTD.NC 10.620 0.90 P 
HAYF.BK 11.771 0.55 P 
KHBB.NC 12.043 0.57 P 
WEAV.BK 14.640 0.65 P 
KIP.NC 15.420 0.82 P 
B045.PB 8.038 0.84 S 
89462.CE 8.510 0.89 S 
BJES.BK 8.600 0.57 S 
KMPB.NC 8.953 0.64 S 
KCR.NC 10.000 0.64 S 
RBOW.BK 10.110 0.61 S 
1584B.NP 10.890 0.82 S 
1586.NP 11.030 0.83 S 
1023.NP 11.440 0.84 S 
KCT.NC 11.773 0.64 S 
89781.CE 12.080 0.83 S 
1581.NP 12.170 0.80 S 
B046.PB 12.378 0.86 S 
B047.PB 12.608 0.81 S 
KPR.NC 13.110 0.67 S 
B049.PB 13.378 0.77 S 
KBU.NC 13.380 0.63 S 
KCO.NC 13.723 0.84 S 
B935.PB 14.478 0.85 S 
KCSB.NC 15.613 0.84 S 
KMR.NC 16.183 0.61 S 
PRDS.BK 16.394 0.56 S 
KHMB.NC 16.483 0.64 S 
BRIC.BK 17.630 0.59 S 
89688.CE 17.680 0.87 S 
KTD.NC 18.160 0.86 S 
1591.NP 18.280 0.85 S 
HAYF.BK 20.493 0.60 S 
KHBB.NC 22.363 0.79 S 
B934.PB 24.198 0.84 S 
WEAV.BK 26.290 0.66 S 
RVIT.BK 27.500 0.83 S 
KIP.NC 28.440 0.74 S 
# 2022 12 20 10 50 1.896 40.5843 -123.9086 22.923 2.292 0.163 0.163 0.431 55 
BJES.BK 4.594 0.76 P 
B045.PB 5.502 0.86 P 
KCR.NC 5.614 0.65 P 
89462.CE 5.774 0.85 P 
KMPB.NC 6.397 0.67 P 
89781.CE 6.464 0.87 P 
1586.NP 6.664 0.85 P 
1581.NP 6.754 0.85 P 
B935.PB 6.902 0.85 P 
RBOW.BK 7.134 0.61 P 
1584B.NP 7.274 0.78 P 
KCSB.NC 7.577 0.86 P 
KHMB.NC 7.577 0.50 P 
B049.PB 7.782 0.80 P 
1023.NP 7.874 0.88 P 
KCT.NC 8.027 0.74 P 
KBU.NC 8.064 0.66 P 
B047.PB 8.422 0.83 P 
B046.PB 8.442 0.86 P 
KPR.NC 8.564 0.61 P 
KMR.NC 9.097 0.65 P 
HAYF.BK 10.385 0.55 P 
WEAV.BK 12.994 0.55 P 
LBK.NC 18.434 0.59 P 
GUMB.BK 20.828 0.63 P 
BJES.BK 7.664 0.57 S 
KNEE.BK 9.554 0.55 S 
DMOR.BK 9.604 0.59 S 
B045.PB 9.872 0.86 S 
KCR.NC 10.394 0.63 S 
89462.CE 10.694 0.86 S 
KMPB.NC 11.677 0.62 S 
89781.CE 11.874 0.80 S 
1586.NP 12.504 0.85 S 
B935.PB 12.562 0.83 S 
1581.NP 12.604 0.82 S 
RBOW.BK 12.764 0.51 S 
1584B.NP 13.064 0.80 S 
1023.NP 13.494 0.83 S 
KHMB.NC 13.717 0.58 S 
KCSB.NC 13.917 0.82 S 
B049.PB 14.232 0.74 S 
KBU.NC 14.394 0.60 S 
B046.PB 15.032 0.83 S 
KPR.NC 15.114 0.74 S 
B047.PB 15.212 0.82 S 
PETL.BK 16.274 0.72 S 
KMR.NC 16.287 0.68 S 
HAYF.BK 18.797 0.54 S 
1591.NP 18.814 0.78 S 
89688.CE 19.074 0.60 S 
BRIC.BK 19.124 0.68 S 
KHBB.NC 19.657 0.67 S 
WEAV.BK 24.394 0.79 S 
# 2022 12 20 10 50 19.559 40.5347 -124.3077 16.699 1.897 0.173 0.173 0.336 56 
1584B.NP 3.431 0.86 P 
KCT.NC 3.894 0.84 P 
1586.NP 4.441 0.86 P 
KMPB.NC 5.214 0.87 P 
89462.CE 5.331 0.87 P 
B046.PB 5.799 0.85 P 
B045.PB 6.139 0.83 P 
RBOW.BK 6.171 0.59 P 
KCO.NC 6.864 0.87 P 
B047.PB 7.079 0.85 P 
KPR.NC 8.381 0.60 P 
KCR.NC 8.511 0.69 P 
KBU.NC 9.871 0.66 P 
PRDS.BK 9.945 0.60 P 
B049.PB 9.979 0.87 P 
89688.CE 10.311 0.81 P 
KMR.NC 11.574 0.56 P 
1584B.NP 6.221 0.73 S 
1023.NP 7.371 0.88 S 
1586.NP 8.581 0.84 S 
89462.CE 9.171 0.81 S 
KMPB.NC 9.194 0.81 S 
B046.PB 10.349 0.82 S 
RBOW.BK 10.911 0.58 S 
B045.PB 10.979 0.83 S 
PETL.BK 11.251 0.58 S 
KCO.NC 12.234 0.83 S 
B047.PB 12.539 0.82 S 
BJES.BK 13.321 0.78 S 
KPR.NC 14.961 0.71 S 
KCR.NC 15.371 0.61 S 
B049.PB 17.939 0.82 S 
PRDS.BK 18.005 0.57 S 
KBU.NC 18.011 0.64 S 
89688.CE 18.171 0.81 S 
BRIC.BK 20.111 0.83 S 
KMR.NC 20.954 0.63 S 
79046.CE 27.841 0.53 S 
# 2022 12 20 10 50 55.742 40.7608 -124.0264 24.892 2.072 0.185 0.185 0.785 57 
1586.NP 4.708 0.86 P 
89781.CE 4.828 0.91 P 
1580.NP 5.058 0.90 P 
DMOR.BK 5.228 0.58 P 
1581.NP 5.528 0.90 P 
1584B.NP 6.008 0.90 P 
KHMB.NC 6.591 0.63 P 
BJES.BK 6.668 0.90 P 
KCT.NC 6.711 0.51 P 
KTD.NC 7.038 0.88 P 
KCR.NC 7.398 0.63 P 
B045.PB 7.876 0.84 P 
KMPB.NC 8.391 0.72 P 
KRP.NC 8.481 0.90 P 
B935.PB 9.396 0.80 P 
B049.PB 9.906 0.83 P 
99700.CE 10.008 0.86 P 
KBU.NC 10.028 0.53 P 
PETL.BK 10.448 0.65 P 
KCO.NC 10.861 0.84 P 
KHBB.NC 11.711 0.72 P 
KMR.NC 11.831 0.84 P 
BRIC.BK 11.848 0.86 P 
HAYF.BK 12.131 0.71 P 
KOM.NC 12.411 0.84 P 
PRDS.BK 12.938 0.77 P 
WEAV.BK 14.048 0.61 P 
LBK.NC 18.448 0.91 P 
SCOT.BK 18.621 0.88 P 
1580.NP 8.758 0.82 S 
89781.CE 8.798 0.84 S 
1586.NP 9.138 0.82 S 
89462.CE 9.778 0.71 S 
1581.NP 10.218 0.77 S 
DMOR.BK 10.668 0.81 S 
KTD.NC 11.528 0.61 S 
KHMB.NC 11.871 0.68 S 
KMPB.NC 14.611 0.57 S 
KCR.NC 14.998 0.70 S 
KRP.NC 15.151 0.84 S 
B046.PB 15.706 0.80 S 
99700.CE 17.578 0.72 S 
KCO.NC 17.631 0.84 S 
RBOW.BK 17.778 0.57 S 
B047.PB 18.346 0.81 S 
HAYF.BK 21.431 0.51 S 
1591.NP 22.488 0.73 S 
89688.CE 23.348 0.69 S 
WEAV.BK 24.648 0.62 S 
B934.PB 28.876 0.69 S 
SCOT.BK 32.431 0.70 S 
LBK.NC 32.708 0.82 S 
# 2022 12 20 10 51 20.712 40.5541 -123.9286 21.229 2.233 0.179 0.179 0.956 58 
KNEE.BK 4.078 0.62 P 
B045.PB 4.896 0.85 P 
KMPB.NC 5.691 0.69 P 
RBOW.BK 6.468 0.64 P 
KHMB.NC 6.781 0.65 P 
B935.PB 6.876 0.78 P 
KCSB.NC 7.741 0.88 P 
B047.PB 8.096 0.82 P 
KCO.NC 8.311 0.86 P 
KHBB.NC 10.531 0.56 P 
KOM.NC 13.231 0.57 P 
WEAV.BK 13.408 0.55 P 
TRIN.BK 17.961 0.85 P 
LBK.NC 18.328 0.83 P 
BJES.BK 7.838 0.62 S 
KNEE.BK 8.068 0.50 S 
B045.PB 9.186 0.71 S 
89462.CE 9.498 0.79 S 
1023.NP 10.278 0.64 S 
KCR.NC 10.348 0.66 S 
KMPB.NC 10.891 0.60 S 
RBOW.BK 12.138 0.53 S 
KHMB.NC 12.981 0.63 S 
89781.CE 13.448 0.64 S 
KCSB.NC 13.481 0.81 S 
KPR.NC 13.518 0.72 S 
KCO.NC 14.311 0.59 S 
B047.PB 14.826 0.76 S 
1580.NP 15.018 0.72 S 
HAYF.BK 19.201 0.64 S 
KTD.NC 20.058 0.64 S 
LBK.NC 36.158 0.62 S 
