# 2022 12 20 11 17 25.414 40.6086 -124.0690 16.185 2.077 0.138 0.138 0.415 114 
89462.CE 4.156 0.91 P 
1586.NP 4.396 0.91 P 
BJES.BK 4.626 0.61 P 
KNEE.BK 4.750 0.59 P 
1581.NP 4.836 0.93 P 
89781.CE 4.986 0.93 P 
KMPB.NC 5.379 0.87 P 
DMOR.BK 5.916 0.59 P 
KCT.NC 6.249 0.64 P 
KCR.NC 6.456 0.69 P 
RBOW.BK 6.526 0.53 P 
B046.PB 7.664 0.92 P 
KCO.NC 8.469 0.91 P 
KHMB.NC 8.519 0.69 P 
KPR.NC 8.576 0.82 P 
B935.PB 8.864 0.91 P 
KBU.NC 8.946 0.63 P 
B049.PB 9.074 0.87 P 
KCSB.NC 9.819 0.89 P 
KMR.NC 10.489 0.68 P 
PRDS.BK 10.590 0.57 P 
BRIC.BK 11.676 0.59 P 
HAYF.BK 12.829 0.52 P 
KHBB.NC 12.859 0.56 P 
B934.PB 15.564 0.86 P 
KIP.NC 16.946 0.87 P 
TRIN.BK 18.639 0.53 P 
KFP.NC 18.856 0.78 P 
LBK.NC 20.616 0.60 P 
89462.CE 7.716 0.86 S 
BJES.BK 8.386 0.61 S 
1586.NP 8.416 0.64 S 
89781.CE 9.026 0.82 S 
KNEE.BK 9.076 0.59 S 
1581.NP 9.136 0.84 S 
KMPB.NC 9.529 0.78 S 
1023.NP 9.556 0.81 S 
1584B.NP 10.026 0.72 S 
KCT.NC 11.249 0.63 S 
KCR.NC 11.476 0.62 S 
RBOW.BK 11.906 0.70 S 
B046.PB 13.574 0.87 S 
KHMB.NC 15.079 0.65 S 
KCO.NC 15.559 0.86 S 
B935.PB 15.714 0.87 S 
KBU.NC 16.006 0.69 S 
B049.PB 16.094 0.76 S 
KPR.NC 16.896 0.55 S 
KCSB.NC 17.599 0.88 S 
KMR.NC 18.759 0.61 S 
PRDS.BK 19.046 0.58 S 
89688.CE 19.996 0.71 S 
BRIC.BK 20.466 0.57 S 
1591.NP 20.716 0.78 S 
KHBB.NC 23.069 0.86 S 
HAYF.BK 23.199 0.65 S 
B934.PB 26.714 0.84 S 
KFP.NC 34.216 0.76 S 
# 2022 12 20 11 17 58.762 41.2212 -124.5148 -1.997 0.613 1.663 1.663 0.762 115 
DMOR.BK 17.158 0.56 P 
B935.PB 19.816 0.68 P 
KBU.NC 20.708 0.69 P 
B049.PB 20.846 0.71 P 
KPR.NC 20.868 0.58 P 
KMR.NC 21.731 0.60 P 
PRDS.BK 22.148 0.54 P 
BRIC.BK 23.448 0.75 P 
KHBB.NC 23.601 0.69 P 
HAYF.BK 23.761 0.51 P 
DMOR.BK 30.058 0.51 S 
KCR.NC 34.738 0.58 S 
KBU.NC 36.728 0.55 S 
KPR.NC 36.938 0.58 S 
KMR.NC 40.891 0.59 S 
BRIC.BK 41.838 0.52 S 
# 2022 12 20 11 18 22.413 40.5352 -124.0743 21.842 1.580 0.186 0.186 0.442 116 
89462.CE 4.507 0.89 P 
KMPB.NC 4.890 0.64 P 
1584B.NP 5.037 0.83 P 
BJES.BK 5.197 0.90 P 
1586.NP 5.347 0.93 P 
RBOW.BK 5.697 0.62 P 
KCT.NC 6.060 0.66 P 
KNEE.BK 6.071 0.58 P 
KCR.NC 6.187 0.67 P 
DMOR.BK 6.417 0.63 P 
B046.PB 6.655 0.89 P 
KCO.NC 7.420 0.90 P 
PETL.BK 7.437 0.83 P 
KPR.NC 7.517 0.65 P 
KBU.NC 7.977 0.67 P 
B049.PB 8.015 0.87 P 
BRIC.BK 8.357 0.59 P 
B935.PB 8.585 0.91 P 
PRDS.BK 9.337 0.61 P 
KCSB.NC 9.510 0.89 P 
KMR.NC 9.520 0.90 P 
KHBB.NC 12.640 0.89 P 
HAYF.BK 12.800 0.66 P 
WEAV.BK 15.017 0.88 P 
LBK.NC 21.017 0.67 P 
89462.CE 8.367 0.70 S 
KMPB.NC 8.770 0.70 S 
BJES.BK 9.477 0.55 S 
1584B.NP 9.997 0.86 S 
RBOW.BK 10.107 0.54 S 
1586.NP 10.187 0.87 S 
1023.NP 10.507 0.57 S 
KCR.NC 11.047 0.62 S 
KNEE.BK 11.197 0.61 S 
KCT.NC 11.210 0.67 S 
1581.NP 11.367 0.80 S 
B046.PB 11.805 0.86 S 
DMOR.BK 12.837 0.79 S 
PETL.BK 12.997 0.56 S 
KCO.NC 13.240 0.85 S 
KPR.NC 13.667 0.64 S 
KBU.NC 14.167 0.72 S 
B049.PB 14.205 0.77 S 
B935.PB 15.385 0.86 S 
PRDS.BK 16.437 0.56 S 
KMR.NC 17.120 0.64 S 
KCSB.NC 17.300 0.80 S 
BRIC.BK 18.117 0.69 S 
HAYF.BK 21.860 0.64 S 
KHBB.NC 22.240 0.87 S 
WEAV.BK 27.237 0.64 S 
# 2022 12 20 11 18 56.482 40.5415 -123.9653 21.031 1.416 0.188 0.188 0.504 117 
89462.CE 4.838 0.85 P 
KCR.NC 5.278 0.65 P 
KMPB.NC 5.421 0.84 P 
KNEE.BK 5.442 0.75 P 
RBOW.BK 6.238 0.58 P 
B049.PB 6.516 0.56 P 
KCT.NC 7.331 0.76 P 
KBU.NC 7.608 0.70 P 
B046.PB 7.646 0.82 P 
PRDS.BK 9.568 0.66 P 
KMR.NC 9.571 0.84 P 
BRIC.BK 10.708 0.65 P 
HAYF.BK 11.491 0.66 P 
KHBB.NC 11.681 0.53 P 
B934.PB 13.436 0.56 P 
WEAV.BK 14.298 0.67 P 
89462.CE 9.168 0.83 S 
KCR.NC 9.538 0.71 S 
KMPB.NC 9.871 0.81 S 
RBOW.BK 10.988 0.64 S 
1586.NP 12.228 0.77 S 
KCT.NC 12.371 0.52 S 
B935.PB 12.896 0.81 S 
B049.PB 13.446 0.79 S 
KBU.NC 13.588 0.64 S 
B046.PB 13.626 0.84 S 
KPR.NC 13.868 0.84 S 
PETL.BK 15.048 0.73 S 
KCO.NC 15.091 0.81 S 
KMR.NC 15.921 0.84 S 
BRIC.BK 18.238 0.65 S 
HAYF.BK 20.291 0.56 S 
KHBB.NC 20.721 0.68 S 
B934.PB 24.326 0.71 S 
WEAV.BK 25.238 0.56 S 
# 2022 12 20 11 19 16.498 40.7039 -123.9503 20.034 1.684 0.186 0.186 0.310 118 
KNEE.BK 4.012 0.55 P 
1581.NP 5.212 0.77 P 
BJES.BK 5.372 0.78 P 
1586.NP 5.802 0.52 P 
KHMB.NC 6.375 0.57 P 
KCR.NC 7.352 0.61 P 
B935.PB 8.340 0.79 P 
KCSB.NC 8.505 0.76 P 
KRP.NC 9.275 0.78 P 
KMR.NC 11.155 0.77 P 
KHBB.NC 11.525 0.70 P 
WEAV.BK 13.952 0.61 P 
KNEE.BK 7.586 0.55 S 
89781.CE 8.612 0.76 S 
DMOR.BK 9.032 0.62 S 
1581.NP 10.072 0.76 S 
1586.NP 11.002 0.67 S 
89462.CE 11.552 0.51 S 
KHMB.NC 11.705 0.61 S 
KCR.NC 12.782 0.62 S 
B935.PB 14.980 0.77 S 
KRP.NC 16.955 0.76 S 
B046.PB 17.060 0.55 S 
B049.PB 17.790 0.71 S 
KMR.NC 20.025 0.73 S 
KHBB.NC 20.225 0.65 S 
HAYF.BK 20.575 0.56 S 
KOM.NC 22.915 0.51 S 
WEAV.BK 24.062 0.58 S 
# 2022 12 20 11 19 28.865 40.5204 -124.3643 19.009 1.815 0.192 0.192 1.091 119 
1586.NP 5.225 0.76 P 
B046.PB 5.473 0.75 P 
KMPB.NC 5.858 0.80 P 
PETL.BK 5.865 0.56 P 
KCO.NC 6.618 0.53 P 
KPR.NC 8.585 0.64 P 
PRDS.BK 8.939 0.56 P 
B049.PB 9.813 0.63 P 
89688.CE 10.175 0.67 P 
BRIC.BK 11.965 0.58 P 
KHMB.NC 13.108 0.54 P 
KHBB.NC 17.728 0.59 P 
WEAV.BK 20.195 0.59 P 
1584B.NP 6.665 0.77 S 
1023.NP 8.525 0.77 S 
B046.PB 9.813 0.74 S 
1586.NP 10.065 0.74 S 
PETL.BK 10.465 0.56 S 
KMPB.NC 10.608 0.57 S 
89462.CE 10.825 0.71 S 
KCO.NC 11.898 0.66 S 
RBOW.BK 12.085 0.59 S 
KPR.NC 15.765 0.59 S 
KCR.NC 17.345 0.67 S 
89688.CE 18.225 0.72 S 
KBU.NC 19.545 0.51 S 
BRIC.BK 21.015 0.75 S 
KHBB.NC 25.228 0.53 S 
HAYF.BK 26.388 0.53 S 
WEAV.BK 29.575 0.52 S 
# 2022 12 20 11 19 36.527 40.7436 -123.8301 20.161 2.038 0.146 0.146 0.427 120 
DMOR.BK 3.413 0.55 P 
KNEE.BK 4.243 0.52 P 
KHMB.NC 5.436 0.59 P 
89781.CE 6.073 0.86 P 
1581.NP 6.843 0.84 P 
1586.NP 7.633 0.86 P 
89462.CE 7.683 0.78 P 
KCSB.NC 7.806 0.84 P 
B935.PB 7.811 0.87 P 
KCR.NC 7.963 0.82 P 
KMPB.NC 8.866 0.77 P 
KRP.NC 9.286 0.86 P 
KHBB.NC 10.106 0.64 P 
B049.PB 10.331 0.70 P 
HAYF.BK 10.676 0.57 P 
KMR.NC 10.996 0.84 P 
KBU.NC 11.153 0.62 P 
WEAV.BK 12.543 0.66 P 
TRIN.BK 16.346 0.68 P 
DMOR.BK 7.403 0.63 S 
KNEE.BK 8.463 0.65 S 
KHMB.NC 9.766 0.67 S 
BJES.BK 10.753 0.59 S 
89781.CE 10.833 0.73 S 
1581.NP 13.003 0.82 S 
KCR.NC 13.883 0.66 S 
B935.PB 13.901 0.84 S 
89462.CE 13.963 0.82 S 
KCSB.NC 14.196 0.83 S 
KTD.NC 15.143 0.76 S 
KMPB.NC 15.746 0.69 S 
KRP.NC 16.886 0.82 S 
KHBB.NC 17.486 0.65 S 
B049.PB 18.371 0.71 S 
HAYF.BK 18.656 0.57 S 
KCT.NC 18.916 0.57 S 
KMR.NC 20.286 0.62 S 
KOM.NC 20.806 0.56 S 
WEAV.BK 21.883 0.65 S 
TRIN.BK 28.746 0.57 S 
LBK.NC 31.083 0.74 S 
LSF.NC 33.283 0.53 S 
GUMB.BK 35.313 0.66 S 
# 2022 12 20 11 19 47.877 40.5245 -124.4115 17.181 2.074 0.164 0.164 0.412 121 
1584B.NP 4.113 0.90 P 
KCT.NC 4.376 0.64 P 
1586.NP 5.773 0.92 P 
1581.NP 6.033 0.89 P 
B046.PB 6.041 0.90 P 
89462.CE 6.313 0.91 P 
PETL.BK 6.373 0.57 P 
KMPB.NC 6.386 0.71 P 
KCO.NC 7.236 0.90 P 
BJES.BK 8.973 0.77 P 
KPR.NC 9.173 0.66 P 
KCR.NC 9.913 0.68 P 
PRDS.BK 10.043 0.63 P 
89688.CE 10.843 0.69 P 
KBU.NC 10.923 0.65 P 
B049.PB 11.121 0.91 P 
BRIC.BK 11.973 0.83 P 
B935.PB 12.811 0.87 P 
1584B.NP 7.103 0.84 S 
KCT.NC 7.626 0.66 S 
1023.NP 8.903 0.85 S 
B046.PB 10.381 0.84 S 
1586.NP 10.503 0.86 S 
PETL.BK 11.013 0.61 S 
KMPB.NC 11.076 0.61 S 
89462.CE 11.273 0.86 S 
1581.NP 12.333 0.74 S 
KCO.NC 12.496 0.83 S 
BJES.BK 15.773 0.65 S 
KPR.NC 16.013 0.67 S 
KCR.NC 17.593 0.66 S 
PRDS.BK 18.247 0.56 S 
89688.CE 18.603 0.85 S 
B049.PB 19.461 0.86 S 
DMOR.BK 19.533 0.67 S 
KBU.NC 19.563 0.70 S 
BRIC.BK 21.773 0.52 S 
B935.PB 22.531 0.87 S 
KMR.NC 22.816 0.63 S 
1591.NP 23.183 0.81 S 
B934.PB 27.501 0.68 S 
79046.CE 27.933 0.67 S 
# 2022 12 20 11 20 22.103 40.7528 -123.9099 24.433 1.883 0.268 0.268 1.228 122 
KHMB.NC 5.990 0.56 P 
KMPB.NC 7.730 0.57 P 
1586.NP 7.747 0.85 P 
B935.PB 7.965 0.61 P 
KCT.NC 8.170 0.76 P 
RBOW.BK 9.707 0.63 P 
B046.PB 9.825 0.85 P 
KHBB.NC 10.310 0.51 P 
HAYF.BK 10.928 0.50 P 
KCO.NC 11.000 0.87 P 
WEAV.BK 12.747 0.52 P 
KPR.NC 12.977 0.55 P 
PRDS.BK 14.427 0.70 P 
89688.CE 14.627 0.83 P 
TRIN.BK 17.860 0.70 P 
B934.PB 18.905 0.81 P 
KNEE.BK 8.407 0.79 S 
KHMB.NC 10.070 0.52 S 
1023.NP 12.987 0.77 S 
KCR.NC 13.837 0.75 S 
B935.PB 14.085 0.68 S 
RBOW.BK 16.247 0.54 S 
KCO.NC 16.270 0.65 S 
KHBB.NC 17.860 0.52 S 
HAYF.BK 18.910 0.53 S 
KPR.NC 19.447 0.58 S 
KMR.NC 19.890 0.61 S 
PRDS.BK 22.067 0.51 S 
89688.CE 22.497 0.81 S 
B934.PB 31.155 0.74 S 
# 2022 12 20 11 20 50.460 40.6029 -124.0618 17.120 1.824 0.207 0.207 0.344 123 
89462.CE 4.340 0.70 P 
1586.NP 4.540 0.77 P 
BJES.BK 4.740 0.73 P 
1581.NP 4.970 0.83 P 
89781.CE 5.060 0.84 P 
KNEE.BK 5.064 0.76 P 
KCR.NC 6.410 0.66 P 
KPR.NC 8.550 0.73 P 
B935.PB 8.738 0.81 P 
KBU.NC 8.790 0.64 P 
B049.PB 8.898 0.81 P 
KHMB.NC 9.233 0.62 P 
KMR.NC 10.153 0.60 P 
1591.NP 11.330 0.78 P 
HAYF.BK 12.613 0.53 P 
KHBB.NC 12.633 0.54 P 
WEAV.BK 15.550 0.72 P 
89462.CE 8.110 0.76 S 
BJES.BK 8.640 0.65 S 
1586.NP 8.670 0.78 S 
89781.CE 9.200 0.78 S 
1581.NP 9.410 0.79 S 
KCR.NC 11.550 0.60 S 
KBU.NC 15.790 0.63 S 
B049.PB 15.848 0.77 S 
B935.PB 15.878 0.81 S 
KCSB.NC 17.433 0.74 S 
KMR.NC 18.523 0.60 S 
BRIC.BK 20.270 0.71 S 
KHBB.NC 22.313 0.63 S 
HAYF.BK 22.853 0.56 S 
# 2022 12 20 11 20 56.611 40.4995 -124.2827 16.158 1.846 0.181 0.181 0.616 124 
KCT.NC 3.502 0.68 P 
1023.NP 3.669 0.91 P 
1584B.NP 4.019 0.88 P 
B046.PB 5.067 0.91 P 
RBOW.BK 5.359 0.52 P 
PETL.BK 5.599 0.67 P 
KCO.NC 6.222 0.87 P 
89781.CE 7.579 0.84 P 
KPR.NC 7.889 0.60 P 
KNEE.BK 8.193 0.51 P 
KCR.NC 8.749 0.62 P 
DMOR.BK 8.939 0.54 P 
89688.CE 9.639 0.79 P 
B934.PB 15.007 0.69 P 
1584B.NP 5.989 0.69 S 
89462.CE 6.699 0.59 S 
KCT.NC 6.802 0.64 S 
1023.NP 7.599 0.87 S 
1586.NP 9.099 0.83 S 
B046.PB 9.287 0.86 S 
KCO.NC 9.552 0.51 S 
PETL.BK 10.149 0.57 S 
1581.NP 11.009 0.82 S 
89781.CE 12.039 0.69 S 
BJES.BK 13.869 0.57 S 
KPR.NC 14.549 0.56 S 
KNEE.BK 15.259 0.56 S 
89688.CE 17.719 0.84 S 
DMOR.BK 17.719 0.75 S 
# 2022 12 20 11 21 39.869 40.5937 -124.2765 19.858 2.748 0.148 0.148 0.564 125 
1023.NP 4.331 0.92 P 
1586.NP 4.391 0.91 P 
1584B.NP 4.401 0.86 P 
KCT.NC 4.894 0.66 P 
1581.NP 5.071 0.92 P 
89462.CE 5.401 0.91 P 
89781.CE 5.691 0.90 P 
KMPB.NC 5.994 0.65 P 
B046.PB 6.779 0.89 P 
RBOW.BK 6.911 0.58 P 
BJES.BK 7.251 0.57 P 
PETL.BK 7.311 0.57 P 
KNEE.BK 7.401 0.53 P 
KCO.NC 7.754 0.89 P 
DMOR.BK 8.161 0.62 P 
KCR.NC 8.591 0.62 P 
KPR.NC 8.801 0.66 P 
KTD.NC 9.361 0.89 P 
KBU.NC 9.861 0.53 P 
PRDS.BK 10.211 0.64 P 
KHMB.NC 10.234 0.60 P 
B049.PB 10.369 0.87 P 
89688.CE 10.701 0.83 P 
B935.PB 10.919 0.89 P 
KRP.NC 11.364 0.85 P 
KCSB.NC 11.724 0.87 P 
1591.NP 12.371 0.74 P 
KHBB.NC 14.624 0.66 P 
B934.PB 15.139 0.82 P 
79046.CE 15.861 0.84 P 
KOM.NC 16.254 0.88 P 
KFP.NC 19.211 0.71 P 
TRIN.BK 20.892 0.55 P 
DCMP.BK 21.372 0.59 P 
LBK.NC 21.971 0.97 P 
GNR.NC 23.131 0.53 P 
GHO.NC 25.481 0.82 P 
GCWB.NC 26.921 0.71 P 
1584B.NP 7.871 0.82 S 
1586.NP 8.271 0.85 S 
1023.NP 8.291 0.86 S 
KCT.NC 8.824 0.65 S 
1581.NP 9.451 0.82 S 
89462.CE 9.971 0.85 S 
89781.CE 10.271 0.80 S 
KMPB.NC 10.424 0.65 S 
B046.PB 11.869 0.82 S 
RBOW.BK 12.221 0.57 S 
PETL.BK 12.861 0.55 S 
BJES.BK 13.121 0.61 S 
KNEE.BK 13.575 0.56 S 
KCO.NC 13.824 0.81 S 
KCR.NC 15.251 0.67 S 
DMOR.BK 15.731 0.84 S 
KPR.NC 16.051 0.63 S 
KTD.NC 17.041 0.78 S 
KBU.NC 17.861 0.78 S 
KHMB.NC 18.044 0.61 S 
B049.PB 18.489 0.83 S 
PRDS.BK 18.561 0.50 S 
89688.CE 19.181 0.83 S 
B935.PB 19.229 0.83 S 
KRP.NC 20.144 0.75 S 
BRIC.BK 21.191 0.64 S 
KHBB.NC 25.494 0.66 S 
HAYF.BK 25.654 0.79 S 
79046.CE 27.561 0.73 S 
KIP.NC 30.961 0.54 S 
TRIN.BK 36.792 0.63 S 
79298.CE 38.741 0.60 S 
DCMP.BK 39.762 0.54 S 
GUMB.BK 43.541 0.60 S 
GBL.NC 43.821 0.56 S 
# 2022 12 20 11 22 39.683 40.5398 -124.3050 17.712 1.687 0.147 0.147 0.550 126 
KCT.NC 3.990 0.62 P 
1586.NP 4.637 0.94 P 
KMPB.NC 4.790 0.90 P 
89462.CE 5.127 0.92 P 
1582.NP 5.317 0.92 P 
1023.NP 5.367 0.74 P 
1581.NP 5.707 0.96 P 
B046.PB 5.885 0.89 P 
RBOW.BK 6.217 0.62 P 
89781.CE 6.427 0.94 P 
PETL.BK 6.437 0.52 P 
KCO.NC 7.020 0.90 P 
KPR.NC 8.567 0.68 P 
DMOR.BK 8.667 0.56 P 
KCR.NC 8.757 0.84 P 
KBU.NC 10.027 0.54 P 
PRDS.BK 10.037 0.61 P 
B049.PB 10.175 0.88 P 
89688.CE 10.487 0.84 P 
KHMB.NC 11.230 0.87 P 
B935.PB 11.475 0.87 P 
KMR.NC 11.790 0.85 P 
BRIC.BK 11.957 0.67 P 
KRP.NC 12.280 0.67 P 
KHBB.NC 15.330 0.86 P 
1584B.NP 6.437 0.88 S 
KCT.NC 7.290 0.71 S 
1023.NP 7.577 0.84 S 
1586.NP 8.727 0.86 S 
89462.CE 9.457 0.78 S 
KMPB.NC 9.520 0.77 S 
B046.PB 10.455 0.84 S 
RBOW.BK 11.137 0.57 S 
PETL.BK 11.337 0.65 S 
89781.CE 11.677 0.83 S 
KCO.NC 12.360 0.85 S 
BJES.BK 12.447 0.78 S 
KPR.NC 15.227 0.71 S 
KCR.NC 15.867 0.71 S 
DMOR.BK 17.447 0.84 S 
PRDS.BK 17.937 0.54 S 
KBU.NC 18.017 0.63 S 
B049.PB 18.155 0.85 S 
89688.CE 18.187 0.79 S 
KHMB.NC 19.670 0.75 S 
KMR.NC 20.050 0.58 S 
B935.PB 20.575 0.80 S 
BRIC.BK 20.777 0.60 S 
B934.PB 26.495 0.53 S 
HAYF.BK 27.730 0.56 S 
# 2022 12 20 11 23 43.776 40.5330 -124.4037 17.726 2.721 0.132 0.132 0.727 127 
1584B.NP 4.334 0.87 P 
KCT.NC 4.437 0.65 P 
1023.NP 4.974 0.95 P 
B046.PB 5.792 0.91 P 
1586.NP 5.814 0.94 P 
PETL.BK 6.114 0.57 P 
KMPB.NC 6.297 0.65 P 
89462.CE 6.374 0.91 P 
1582.NP 6.384 0.95 P 
1581.NP 6.624 0.94 P 
KCO.NC 6.727 0.91 P 
RBOW.BK 6.954 0.56 P 
89781.CE 7.374 0.93 P 
KPR.NC 8.724 0.66 P 
BJES.BK 8.734 0.89 P 
KNEE.BK 9.178 0.53 P 
KCR.NC 9.624 0.62 P 
PRDS.BK 9.964 0.61 P 
DMOR.BK 9.984 0.62 P 
89688.CE 10.224 0.82 P 
KBU.NC 10.454 0.57 P 
B049.PB 10.512 0.90 P 
KTD.NC 10.594 0.84 P 
KHMB.NC 12.037 0.89 P 
KMR.NC 12.047 0.53 P 
BRIC.BK 12.164 0.56 P 
B935.PB 12.212 0.93 P 
KRP.NC 12.737 0.88 P 
KCSB.NC 13.077 0.89 P 
1591.NP 13.154 0.91 P 
99700.CE 13.954 0.86 P 
HAYF.BK 16.047 0.83 P 
KHBB.NC 16.197 0.54 P 
79046.CE 16.574 0.91 P 
B934.PB 17.062 0.87 P 
KOM.NC 17.987 0.57 P 
KFP.NC 19.274 0.52 P 
KBN.NC 19.994 0.90 P 
DCMP.BK 21.797 0.73 P 
TRIN.BK 22.067 0.90 P 
GNR.NC 22.944 0.72 P 
LBK.NC 23.864 0.89 P 
SCOT.BK 24.197 0.58 P 
GVA.NC 25.574 0.84 P 
GUMB.BK 26.508 0.63 P 
GCWB.NC 27.694 0.61 P 
1584B.NP 7.874 0.87 S 
KCT.NC 8.327 0.70 S 
1023.NP 9.564 0.83 S 
B046.PB 10.212 0.86 S 
PETL.BK 10.804 0.64 S 
1586.NP 10.854 0.87 S 
KMPB.NC 11.247 0.67 S 
89462.CE 11.754 0.78 S 
1582.NP 11.984 0.86 S 
KCO.NC 12.207 0.88 S 
RBOW.BK 12.244 0.62 S 
1581.NP 12.304 0.89 S 
89781.CE 13.544 0.88 S 
KPR.NC 15.634 0.65 S 
KNEE.BK 16.384 0.61 S 
KCR.NC 17.344 0.71 S 
PRDS.BK 17.504 0.54 S 
89688.CE 17.784 0.79 S 
DMOR.BK 18.674 0.86 S 
KBU.NC 19.114 0.71 S 
B049.PB 19.482 0.82 S 
BRIC.BK 20.974 0.62 S 
KHMB.NC 21.197 0.60 S 
B935.PB 22.042 0.79 S 
KRP.NC 22.587 0.59 S 
KMR.NC 22.797 0.82 S 
1591.NP 23.164 0.84 S 
KCSB.NC 23.667 0.75 S 
KHBB.NC 28.657 0.61 S 
B934.PB 28.842 0.91 S 
79046.CE 29.754 0.86 S 
KOM.NC 31.097 0.89 S 
79298.CE 39.024 0.58 S 
TRIN.BK 39.797 0.55 S 
LBK.NC 41.394 0.89 S 
SCOT.BK 41.725 0.57 S 
GUMB.BK 46.668 0.69 S 
79666.CE 47.874 0.54 S 
# 2022 12 20 11 24 49.527 40.5940 -124.0966 16.214 1.620 0.156 0.156 0.581 128 
1586.NP 4.413 0.84 P 
1582.NP 4.493 0.87 P 
BJES.BK 4.953 0.77 P 
KNEE.BK 5.077 0.61 P 
89781.CE 5.153 0.90 P 
DMOR.BK 6.113 0.68 P 
RBOW.BK 6.543 0.60 P 
KCR.NC 6.593 0.69 P 
B046.PB 7.531 0.79 P 
KPR.NC 8.443 0.71 P 
KCO.NC 8.466 0.82 P 
KHMB.NC 8.786 0.52 P 
KBU.NC 9.103 0.67 P 
B935.PB 9.111 0.88 P 
B049.PB 9.161 0.83 P 
KCSB.NC 9.996 0.87 P 
PRDS.BK 10.563 0.62 P 
KMR.NC 10.666 0.76 P 
89688.CE 11.203 0.76 P 
BRIC.BK 11.803 0.67 P 
KHBB.NC 13.166 0.67 P 
WEAV.BK 15.993 0.59 P 
89462.CE 7.723 0.67 S 
1582.NP 8.213 0.86 S 
1586.NP 8.353 0.86 S 
BJES.BK 8.753 0.58 S 
1581.NP 9.213 0.85 S 
89781.CE 9.263 0.85 S 
KNEE.BK 9.403 0.62 S 
RBOW.BK 11.443 0.56 S 
B046.PB 11.821 0.51 S 
KCR.NC 11.843 0.58 S 
DMOR.BK 11.923 0.56 S 
PETL.BK 12.723 0.54 S 
KCO.NC 14.166 0.65 S 
KPR.NC 15.093 0.65 S 
KHMB.NC 15.766 0.74 S 
KBU.NC 16.123 0.66 S 
B049.PB 16.221 0.82 S 
B935.PB 16.561 0.83 S 
KCSB.NC 18.046 0.75 S 
KMR.NC 18.896 0.64 S 
PRDS.BK 18.957 0.51 S 
BRIC.BK 20.613 0.57 S 
1591.NP 20.783 0.76 S 
WEAV.BK 28.283 0.59 S 
# 2022 12 20 11 25 0.658 40.5171 -124.2934 14.063 1.265 0.226 0.226 0.428 129 
1584B.NP 2.992 0.76 P 
KCT.NC 3.315 0.58 P 
1586.NP 4.222 0.77 P 
B046.PB 4.740 0.77 P 
KMPB.NC 4.875 0.78 P 
RBOW.BK 5.672 0.68 P 
KPR.NC 7.862 0.57 P 
KBU.NC 9.352 0.53 P 
1584B.NP 5.772 0.73 S 
KCT.NC 6.825 0.62 S 
KMPB.NC 7.395 0.66 S 
1586.NP 8.772 0.76 S 
B046.PB 9.280 0.76 S 
1582.NP 9.912 0.67 S 
RBOW.BK 10.952 0.68 S 
KCO.NC 11.425 0.63 S 
KPR.NC 14.792 0.59 S 
KBU.NC 17.552 0.55 S 
# 2022 12 20 11 25 32.401 40.5470 -124.2396 19.329 1.594 0.167 0.167 0.376 130 
KCT.NC 4.652 0.86 P 
1581.NP 4.789 0.87 P 
KMPB.NC 4.972 0.84 P 
1582.NP 4.989 0.85 P 
89781.CE 5.749 0.86 P 
RBOW.BK 6.019 0.54 P 
B046.PB 6.157 0.87 P 
PETL.BK 6.779 0.61 P 
KNEE.BK 6.883 0.67 P 
KCO.NC 7.152 0.87 P 
KCR.NC 7.779 0.66 P 
KPR.NC 8.139 0.61 P 
KBU.NC 9.129 0.65 P 
B049.PB 9.377 0.80 P 
PRDS.BK 9.793 0.60 P 
KHMB.NC 10.372 0.57 P 
KMR.NC 11.002 0.60 P 
BRIC.BK 11.469 0.61 P 
89255.CE 8.179 0.77 S 
1586.NP 8.439 0.84 S 
KCT.NC 8.452 0.59 S 
89462.CE 8.569 0.75 S 
KMPB.NC 9.032 0.58 S 
1582.NP 9.369 0.78 S 
1581.NP 10.099 0.81 S 
RBOW.BK 10.619 0.55 S 
B046.PB 10.817 0.77 S 
89781.CE 10.929 0.78 S 
BJES.BK 11.899 0.83 S 
PETL.BK 11.949 0.55 S 
KCO.NC 12.622 0.78 S 
KNEE.BK 12.993 0.61 S 
KCR.NC 13.929 0.61 S 
KPR.NC 14.319 0.75 S 
KBU.NC 16.769 0.64 S 
B049.PB 16.777 0.70 S 
PRDS.BK 17.489 0.55 S 
89688.CE 17.889 0.61 S 
KHMB.NC 18.052 0.75 S 
B935.PB 18.757 0.80 S 
KMR.NC 19.812 0.70 S 
BRIC.BK 20.029 0.68 S 
KHBB.NC 26.232 0.57 S 
# 2022 12 20 11 25 47.139 40.5508 -123.9509 19.369 1.625 0.150 0.150 0.459 131 
KCR.NC 5.131 0.67 P 
DMOR.BK 5.181 0.68 P 
KMPB.NC 5.434 0.72 P 
RBOW.BK 6.191 0.61 P 
1586.NP 6.221 0.85 P 
1582.NP 6.501 0.88 P 
1581.NP 6.851 0.89 P 
B935.PB 7.179 0.88 P 
KCT.NC 7.344 0.87 P 
KBU.NC 7.471 0.64 P 
B049.PB 7.479 0.87 P 
B046.PB 7.629 0.92 P 
KPR.NC 7.751 0.66 P 
KCO.NC 8.394 0.70 P 
PETL.BK 8.431 0.84 P 
KMR.NC 8.714 0.62 P 
PRDS.BK 9.625 0.72 P 
HAYF.BK 11.152 0.54 P 
KHBB.NC 11.444 0.62 P 
WEAV.BK 13.921 0.66 P 
PETY.BK 18.184 0.53 P 
BJES.BK 7.631 0.87 S 
89462.CE 9.171 0.86 S 
KCR.NC 9.301 0.65 S 
89255.CE 9.831 0.85 S 
KMPB.NC 9.914 0.60 S 
RBOW.BK 11.031 0.57 S 
1582.NP 11.391 0.78 S 
1586.NP 11.621 0.82 S 
89781.CE 12.011 0.84 S 
1581.NP 12.271 0.82 S 
B935.PB 12.959 0.82 S 
B049.PB 13.249 0.79 S 
B046.PB 13.589 0.85 S 
KPR.NC 13.631 0.68 S 
KBU.NC 13.701 0.66 S 
KCT.NC 13.954 0.51 S 
KCO.NC 15.064 0.83 S 
PETL.BK 15.481 0.57 S 
KMR.NC 15.714 0.84 S 
BRIC.BK 18.181 0.61 S 
1591.NP 18.551 0.74 S 
HAYF.BK 19.984 0.61 S 
KHBB.NC 20.404 0.77 S 
WEAV.BK 25.151 0.64 S 
PETY.BK 32.042 0.55 S 
