# 2022 12 20 11 26 15.117 40.7317 -123.8900 24.561 1.679 0.292 0.292 1.248 132 
89255.CE 6.373 0.74 P 
DMOR.BK 6.713 0.61 P 
1586.NP 7.013 0.76 P 
1582.NP 7.203 0.79 P 
B935.PB 8.541 0.81 P 
KCSB.NC 8.606 0.77 P 
KCT.NC 9.986 0.57 P 
B046.PB 10.051 0.59 P 
KHBB.NC 10.746 0.62 P 
HAYF.BK 10.894 0.60 P 
PETL.BK 11.083 0.60 P 
KBU.NC 11.873 0.66 P 
B049.PB 12.001 0.84 P 
KCO.NC 12.126 0.81 P 
KMR.NC 12.356 0.72 P 
WEAV.BK 13.293 0.51 P 
DMOR.BK 9.253 0.56 S 
89255.CE 9.613 0.72 S 
1586.NP 10.653 0.79 S 
1582.NP 11.173 0.80 S 
1581.NP 11.973 0.81 S 
BJES.BK 12.093 0.51 S 
89781.CE 12.263 0.82 S 
B935.PB 12.901 0.83 S 
1584B.NP 14.113 0.77 S 
KCT.NC 15.026 0.58 S 
KCR.NC 15.103 0.66 S 
KHBB.NC 16.536 0.53 S 
HAYF.BK 16.616 0.55 S 
KCO.NC 17.376 0.51 S 
KPR.NC 17.993 0.72 S 
B049.PB 18.781 0.82 S 
KBU.NC 18.983 0.63 S 
PRDS.BK 21.487 0.69 S 
BRIC.BK 22.523 0.64 S 
# 2022 12 20 11 26 42.942 40.5388 -124.3601 18.404 1.490 0.177 0.177 0.995 133 
KCT.NC 4.181 0.67 P 
B046.PB 5.036 0.79 P 
1586.NP 5.098 0.89 P 
89255.CE 5.368 0.77 P 
1582.NP 5.788 0.90 P 
KPR.NC 8.918 0.69 P 
KCR.NC 9.148 0.69 P 
B935.PB 9.876 0.82 P 
PRDS.BK 10.382 0.62 P 
KBU.NC 10.408 0.53 P 
B049.PB 10.486 0.88 P 
89688.CE 10.748 0.82 P 
KHMB.NC 11.891 0.70 P 
KMR.NC 11.901 0.87 P 
BRIC.BK 12.298 0.58 P 
HAYF.BK 12.651 0.52 P 
WEAV.BK 14.708 0.52 P 
1584B.NP 6.468 0.86 S 
KCT.NC 7.271 0.69 S 
1023.NP 8.018 0.76 S 
1586.NP 9.388 0.84 S 
89255.CE 9.718 0.62 S 
B046.PB 10.366 0.75 S 
1582.NP 10.658 0.82 S 
RBOW.BK 10.808 0.58 S 
1581.NP 11.388 0.85 S 
BJES.BK 14.388 0.59 S 
KPR.NC 15.508 0.63 S 
KCR.NC 15.688 0.56 S 
PRDS.BK 18.188 0.58 S 
B049.PB 18.526 0.84 S 
89688.CE 18.538 0.86 S 
KBU.NC 18.548 0.61 S 
BRIC.BK 21.208 0.67 S 
KMR.NC 21.361 0.83 S 
B935.PB 21.576 0.56 S 
1591.NP 22.868 0.68 S 
# 2022 12 20 11 27 11.659 40.5722 -124.2165 18.618 1.369 0.224 0.224 0.627 134 
1584B.NP 4.221 0.70 P 
1582.NP 4.611 0.89 P 
1586.NP 5.741 0.82 P 
PETL.BK 6.251 0.69 P 
B046.PB 6.379 0.82 P 
KCR.NC 7.471 0.64 P 
DMOR.BK 7.501 0.53 P 
KPR.NC 8.261 0.81 P 
KBU.NC 9.251 0.78 P 
B049.PB 9.259 0.81 P 
B935.PB 10.389 0.79 P 
KMR.NC 10.864 0.84 P 
89255.CE 7.231 0.80 S 
1584B.NP 7.601 0.74 S 
1586.NP 7.821 0.77 S 
1582.NP 8.671 0.84 S 
KCT.NC 8.794 0.73 S 
1581.NP 9.511 0.84 S 
B046.PB 11.399 0.75 S 
PETL.BK 12.631 0.52 S 
RBOW.BK 13.021 0.54 S 
KCR.NC 13.341 0.52 S 
KCO.NC 13.604 0.76 S 
KPR.NC 15.051 0.57 S 
KBU.NC 16.991 0.62 S 
KMR.NC 19.804 0.81 S 
BRIC.BK 20.061 0.59 S 
1591.NP 20.891 0.74 S 
B934.PB 27.359 0.54 S 
# 2022 12 20 11 27 28.771 40.5164 -124.3331 15.262 1.132 0.209 0.209 0.440 135 
1584B.NP 3.499 0.77 P 
KCT.NC 3.502 0.59 P 
1586.NP 4.709 0.78 P 
KPR.NC 8.439 0.74 P 
KCR.NC 9.089 0.72 P 
1584B.NP 5.989 0.69 S 
KCT.NC 6.752 0.63 S 
1586.NP 9.269 0.78 S 
89255.CE 9.579 0.63 S 
B046.PB 9.637 0.60 S 
KMPB.NC 9.692 0.60 S 
PETL.BK 10.369 0.57 S 
KCR.NC 15.239 0.68 S 
KBU.NC 17.709 0.68 S 
B049.PB 18.367 0.74 S 
BRIC.BK 20.709 0.53 S 
# 2022 12 20 11 27 45.298 40.7111 -123.8484 21.124 1.709 0.162 0.162 0.840 136 
DMOR.BK 3.882 0.73 P 
KNEE.BK 4.006 0.57 P 
KHMB.NC 5.595 0.66 P 
89781.CE 6.462 0.88 P 
1586.NP 6.832 0.82 P 
B935.PB 7.600 0.87 P 
1584B.NP 8.112 0.64 P 
KCSB.NC 8.185 0.83 P 
KCR.NC 8.252 0.80 P 
KHBB.NC 9.855 0.69 P 
RBOW.BK 9.992 0.83 P 
KPR.NC 10.372 0.67 P 
HAYF.BK 10.483 0.61 P 
B049.PB 10.680 0.82 P 
B046.PB 11.780 0.52 P 
PRDS.BK 12.222 0.57 P 
WEAV.BK 12.372 0.66 P 
PETL.BK 12.742 0.54 P 
TRIN.BK 16.515 0.69 P 
LBK.NC 17.592 0.88 P 
PETY.BK 18.795 0.50 P 
DMOR.BK 7.342 0.53 S 
KNEE.BK 8.512 0.64 S 
KHMB.NC 10.315 0.65 S 
1586.NP 11.112 0.54 S 
89781.CE 11.372 0.82 S 
1582.NP 12.422 0.79 S 
1581.NP 12.802 0.81 S 
B935.PB 13.680 0.84 S 
KMPB.NC 15.715 0.66 S 
KBU.NC 15.912 0.50 S 
RBOW.BK 16.862 0.59 S 
KRP.NC 17.275 0.60 S 
KPR.NC 17.282 0.60 S 
KHBB.NC 17.755 0.62 S 
HAYF.BK 18.595 0.56 S 
B049.PB 18.760 0.71 S 
PRDS.BK 20.242 0.57 S 
WEAV.BK 21.852 0.64 S 
TRIN.BK 28.873 0.65 S 
LBK.NC 30.912 0.84 S 
PETY.BK 32.595 0.67 S 
GUMB.BK 35.946 0.56 S 
# 2022 12 20 11 28 3.492 40.4808 -124.4215 13.298 1.498 0.163 0.163 0.926 137 
1584B.NP 2.818 0.70 P 
B046.PB 3.646 0.77 P 
KCT.NC 4.041 0.64 P 
1023.NP 4.998 0.85 P 
1586.NP 5.638 0.52 P 
KMPB.NC 6.031 0.65 P 
89255.CE 6.058 0.87 P 
89462.CE 6.628 0.85 P 
RBOW.BK 7.008 0.59 P 
KPR.NC 9.098 0.56 P 
PRDS.BK 10.198 0.84 P 
KBU.NC 10.978 0.57 P 
B049.PB 11.056 0.83 P 
BRIC.BK 12.458 0.56 P 
B935.PB 12.856 0.76 P 
KHBB.NC 16.681 0.82 P 
HAYF.BK 16.821 0.66 P 
KCT.NC 7.461 0.65 S 
B046.PB 8.226 0.83 S 
PETL.BK 9.118 0.81 S 
KCO.NC 10.161 0.79 S 
89255.CE 11.178 0.81 S 
KMPB.NC 11.181 0.64 S 
89462.CE 11.598 0.83 S 
RBOW.BK 12.478 0.59 S 
BJES.BK 15.098 0.72 S 
89781.CE 16.068 0.60 S 
KPR.NC 16.318 0.58 S 
KCR.NC 16.588 0.81 S 
KNEE.BK 16.732 0.53 S 
89688.CE 18.758 0.58 S 
KBU.NC 19.678 0.62 S 
B049.PB 19.686 0.81 S 
BRIC.BK 21.718 0.62 S 
KMR.NC 22.821 0.60 S 
B935.PB 26.686 0.53 S 
# 2022 12 20 11 28 42.440 40.5259 -124.3478 18.444 1.522 0.161 0.161 0.685 138 
KCT.NC 3.803 0.67 P 
1586.NP 5.150 0.91 P 
B046.PB 5.548 0.86 P 
1582.NP 5.570 0.90 P 
KCO.NC 5.693 0.79 P 
PETL.BK 6.010 0.70 P 
RBOW.BK 6.080 0.68 P 
KNEE.BK 8.530 0.59 P 
KPR.NC 8.650 0.78 P 
DMOR.BK 8.890 0.57 P 
KCR.NC 9.370 0.84 P 
PRDS.BK 10.210 0.83 P 
KBU.NC 10.370 0.64 P 
89688.CE 10.430 0.83 P 
B049.PB 10.558 0.87 P 
B935.PB 12.058 0.83 P 
KMR.NC 12.213 0.86 P 
HAYF.BK 15.701 0.68 P 
KHBB.NC 16.053 0.50 P 
WEAV.BK 18.290 0.76 P 
1584B.NP 6.500 0.82 S 
KCT.NC 7.103 0.67 S 
1023.NP 7.930 0.87 S 
1586.NP 9.690 0.87 S 
89462.CE 9.810 0.83 S 
B046.PB 9.978 0.80 S 
1582.NP 10.470 0.84 S 
PETL.BK 10.620 0.60 S 
1581.NP 10.950 0.83 S 
RBOW.BK 11.560 0.55 S 
KCO.NC 12.093 0.77 S 
BJES.BK 15.050 0.76 S 
KNEE.BK 15.070 0.75 S 
KPR.NC 15.170 0.61 S 
KCR.NC 16.210 0.57 S 
KBU.NC 17.940 0.67 S 
B049.PB 17.968 0.69 S 
89688.CE 18.330 0.80 S 
B935.PB 19.698 0.79 S 
KMR.NC 21.083 0.79 S 
BRIC.BK 21.200 0.57 S 
HAYF.BK 24.541 0.54 S 
# 2022 12 20 11 29 5.787 40.5594 -124.2116 17.319 1.587 0.136 0.136 0.479 139 
89255.CE 3.793 0.89 P 
1584B.NP 4.033 0.90 P 
1586.NP 4.073 0.81 P 
1582.NP 4.293 0.81 P 
KCT.NC 4.596 0.90 P 
89462.CE 4.783 0.90 P 
89781.CE 5.633 0.79 P 
RBOW.BK 5.933 0.51 P 
PETL.BK 6.133 0.67 P 
B046.PB 6.331 0.88 P 
KNEE.BK 6.797 0.85 P 
KCO.NC 7.346 0.88 P 
KCR.NC 7.563 0.67 P 
DMOR.BK 7.583 0.71 P 
KPR.NC 8.163 0.64 P 
KBU.NC 9.183 0.59 P 
B049.PB 9.381 0.82 P 
PRDS.BK 9.913 0.57 P 
BRIC.BK 10.203 0.58 P 
B935.PB 10.231 0.86 P 
KMR.NC 10.706 0.80 P 
HAYF.BK 14.014 0.69 P 
KHBB.NC 14.146 0.85 P 
WEAV.BK 16.733 0.88 P 
89255.CE 7.253 0.86 S 
1584B.NP 7.433 0.85 S 
1023.NP 7.583 0.59 S 
1586.NP 7.713 0.84 S 
89462.CE 7.863 0.81 S 
KCT.NC 8.546 0.86 S 
1582.NP 8.623 0.74 S 
KMPB.NC 8.686 0.80 S 
1581.NP 9.653 0.58 S 
89781.CE 10.423 0.67 S 
RBOW.BK 10.593 0.54 S 
BJES.BK 11.043 0.70 S 
B046.PB 11.321 0.82 S 
KNEE.BK 12.233 0.50 S 
PETL.BK 12.423 0.58 S 
KCO.NC 13.206 0.81 S 
KCR.NC 13.513 0.60 S 
KPR.NC 14.423 0.61 S 
DMOR.BK 15.163 0.86 S 
KBU.NC 16.353 0.76 S 
B049.PB 16.511 0.63 S 
PRDS.BK 17.793 0.53 S 
KHMB.NC 18.246 0.52 S 
89688.CE 18.423 0.69 S 
B935.PB 18.791 0.83 S 
KMR.NC 20.026 0.65 S 
BRIC.BK 20.183 0.59 S 
1591.NP 21.263 0.74 S 
HAYF.BK 25.544 0.64 S 
KHBB.NC 25.866 0.84 S 
B934.PB 27.541 0.65 S 
# 2022 12 20 11 29 38.871 40.5298 -123.8928 22.745 1.797 0.154 0.154 0.434 140 
BJES.BK 4.379 0.65 P 
KCR.NC 4.909 0.64 P 
KNEE.BK 5.663 0.61 P 
89462.CE 5.699 0.92 P 
89255.CE 6.239 0.91 P 
1586.NP 6.259 0.62 P 
B935.PB 6.497 0.87 P 
RBOW.BK 6.619 0.60 P 
B049.PB 7.137 0.87 P 
1582.NP 7.159 0.93 P 
KBU.NC 7.229 0.64 P 
89781.CE 7.409 0.88 P 
KCSB.NC 7.412 0.89 P 
1581.NP 7.569 0.91 P 
KPR.NC 7.959 0.63 P 
KCT.NC 8.202 0.54 P 
B046.PB 8.227 0.92 P 
KMR.NC 8.322 0.66 P 
KHMB.NC 8.382 0.89 P 
KCO.NC 8.772 0.91 P 
PETL.BK 8.909 0.64 P 
PRDS.BK 9.599 0.63 P 
BRIC.BK 10.209 0.50 P 
HAYF.BK 10.430 0.61 P 
KHBB.NC 10.792 0.69 P 
B934.PB 12.907 0.80 P 
BJES.BK 8.059 0.66 S 
KCR.NC 8.879 0.71 S 
KNEE.BK 10.509 0.54 S 
89462.CE 10.529 0.87 S 
KMPB.NC 10.872 0.59 S 
89255.CE 11.549 0.84 S 
B935.PB 11.707 0.85 S 
RBOW.BK 11.769 0.54 S 
B049.PB 12.617 0.83 S 
KBU.NC 12.789 0.66 S 
1582.NP 12.909 0.85 S 
1586.NP 13.379 0.77 S 
89781.CE 13.379 0.84 S 
KCSB.NC 13.382 0.85 S 
KCT.NC 13.792 0.55 S 
1581.NP 13.979 0.83 S 
KPR.NC 14.099 0.71 S 
1023.NP 14.279 0.64 S 
B046.PB 14.587 0.83 S 
KMR.NC 14.822 0.63 S 
KHMB.NC 15.322 0.82 S 
KCO.NC 15.712 0.85 S 
PETL.BK 16.079 0.53 S 
PRDS.BK 16.859 0.54 S 
1591.NP 17.339 0.83 S 
BRIC.BK 18.099 0.55 S 
HAYF.BK 18.622 0.53 S 
KHBB.NC 19.302 0.59 S 
B934.PB 23.397 0.74 S 
# 2022 12 20 11 30 3.037 40.7451 -123.8222 19.432 1.808 0.181 0.181 0.403 141 
DMOR.BK 3.353 0.62 P 
KNEE.BK 4.147 0.57 P 
KHMB.NC 5.396 0.61 P 
BJES.BK 5.803 0.84 P 
89781.CE 6.013 0.88 P 
1581.NP 6.833 0.81 P 
B935.PB 7.651 0.86 P 
KCSB.NC 7.696 0.88 P 
KHBB.NC 9.926 0.66 P 
HAYF.BK 10.484 0.60 P 
WEAV.BK 12.473 0.66 P 
TRIN.BK 16.736 0.88 P 
DMOR.BK 7.313 0.56 S 
KNEE.BK 8.113 0.66 S 
KHMB.NC 9.696 0.68 S 
BJES.BK 10.793 0.52 S 
89781.CE 10.963 0.81 S 
1581.NP 12.693 0.81 S 
B935.PB 13.781 0.83 S 
KCSB.NC 13.856 0.85 S 
KRP.NC 16.936 0.60 S 
KHBB.NC 17.416 0.64 S 
HAYF.BK 18.546 0.56 S 
KOM.NC 21.096 0.60 S 
WEAV.BK 21.813 0.64 S 
TRIN.BK 28.586 0.60 S 
LBK.NC 30.453 0.67 S 
PETY.BK 32.156 0.66 S 
# 2022 12 20 11 30 28.557 40.5061 -124.4366 15.374 2.927 0.115 0.115 0.571 142 
1584B.NP 4.213 0.87 P 
KCT.NC 4.276 0.55 P 
1023.NP 5.013 0.88 P 
B046.PB 6.051 0.87 P 
1586.NP 6.113 0.87 P 
89255.CE 6.473 0.86 P 
PETL.BK 6.503 0.53 P 
KMPB.NC 6.606 0.56 P 
89462.CE 6.743 0.88 P 
1582.NP 6.833 0.85 P 
RBOW.BK 7.273 0.55 P 
KCO.NC 7.286 0.87 P 
89781.CE 8.023 0.89 P 
KPR.NC 9.263 0.56 P 
BJES.BK 9.323 0.80 P 
KNEE.BK 9.893 0.55 P 
KCR.NC 10.303 0.60 P 
PRDS.BK 10.543 0.62 P 
DMOR.BK 10.693 0.53 P 
89688.CE 10.793 0.81 P 
B049.PB 11.361 0.83 P 
KTD.NC 11.883 0.87 P 
BRIC.BK 12.743 0.51 P 
KMR.NC 12.906 0.59 P 
KHMB.NC 12.946 0.55 P 
B935.PB 13.041 0.85 P 
1591.NP 13.303 0.82 P 
KRP.NC 13.716 0.78 P 
KCSB.NC 13.956 0.84 P 
B934.PB 16.161 0.85 P 
79046.CE 16.273 0.85 P 
HAYF.BK 16.694 0.56 P 
KHBB.NC 16.956 0.50 P 
KIP.NC 18.553 0.53 P 
KOM.NC 18.866 0.56 P 
KFP.NC 20.033 0.62 P 
KBN.NC 20.573 0.55 P 
DCMP.BK 22.164 0.51 P 
PETY.BK 22.334 0.53 P 
KRK.NC 22.823 0.76 P 
GNR.NC 23.643 0.66 P 
LBK.NC 24.613 0.91 P 
GVA.NC 24.963 0.83 P 
GROB.NC 25.243 0.84 P 
LSF.NC 25.393 0.75 P 
GWR.NC 25.453 0.85 P 
LRB.NC 25.913 0.84 P 
GCWB.NC 27.753 0.68 P 
GTSB.BK 29.967 0.65 P 
GHGB.NC 30.376 0.87 P 
1584B.NP 7.293 0.83 S 
KCT.NC 7.626 0.71 S 
1023.NP 9.213 0.77 S 
B046.PB 10.301 0.78 S 
PETL.BK 10.923 0.68 S 
1586.NP 10.963 0.85 S 
KMPB.NC 11.336 0.66 S 
89255.CE 11.573 0.69 S 
89462.CE 11.733 0.72 S 
1582.NP 12.463 0.85 S 
KCO.NC 12.486 0.81 S 
RBOW.BK 12.573 0.58 S 
89781.CE 14.053 0.85 S 
KPR.NC 16.503 0.66 S 
KNEE.BK 17.387 0.62 S 
KCR.NC 18.053 0.71 S 
PRDS.BK 18.573 0.55 S 
89688.CE 18.773 0.82 S 
KBU.NC 19.773 0.70 S 
B049.PB 19.981 0.78 S 
DMOR.BK 20.173 0.77 S 
KTD.NC 20.613 0.85 S 
BRIC.BK 22.083 0.62 S 
KHMB.NC 22.526 0.81 S 
KMR.NC 22.956 0.67 S 
1591.NP 23.493 0.55 S 
B935.PB 23.501 0.70 S 
KCSB.NC 25.216 0.76 S 
B934.PB 27.791 0.83 S 
79046.CE 28.093 0.85 S 
HAYF.BK 30.694 0.59 S 
KHBB.NC 31.636 0.75 S 
KIP.NC 31.893 0.84 S 
KOM.NC 32.096 0.83 S 
KFP.NC 35.173 0.65 S 
MNDO.BK 37.843 0.75 S 
KBN.NC 38.253 0.71 S 
DCMP.BK 38.566 0.56 S 
GNR.NC 40.963 0.58 S 
PETY.BK 41.926 0.51 S 
GBL.NC 42.033 0.73 S 
LBK.NC 42.653 0.82 S 
SCOT.BK 43.096 0.64 S 
GVA.NC 43.673 0.68 S 
GHO.NC 45.813 0.70 S 
# 2022 12 20 11 30 50.694 40.5862 -124.1453 17.528 1.962 0.211 0.211 0.447 143 
89255.CE 3.626 0.88 P 
1586.NP 4.096 0.90 P 
1582.NP 4.256 0.91 P 
1023.NP 4.436 0.90 P 
1584B.NP 4.916 0.90 P 
89781.CE 5.026 0.91 P 
KMPB.NC 5.169 0.70 P 
RBOW.BK 6.306 0.84 P 
B046.PB 6.944 0.89 P 
PETL.BK 7.756 0.67 P 
KCO.NC 7.959 0.88 P 
KBU.NC 9.006 0.74 P 
B049.PB 9.104 0.68 P 
89255.CE 7.076 0.87 S 
1586.NP 7.626 0.88 S 
1582.NP 8.086 0.87 S 
KCT.NC 8.499 0.81 S 
1023.NP 8.636 0.78 S 
1584B.NP 8.896 0.85 S 
1581.NP 8.936 0.87 S 
89781.CE 9.246 0.86 S 
KMPB.NC 9.279 0.63 S 
BJES.BK 9.666 0.71 S 
B046.PB 12.604 0.86 S 
PETL.BK 13.866 0.54 S 
B049.PB 16.204 0.56 S 
KBU.NC 16.326 0.50 S 
BRIC.BK 20.296 0.50 S 
# 2022 12 20 11 31 21.996 40.5667 -124.2014 17.530 2.075 0.132 0.132 0.549 144 
89462.CE 3.374 0.84 P 
KCT.NC 3.877 0.59 P 
1023.NP 3.954 0.86 P 
1586.NP 4.044 0.88 P 
1584B.NP 4.154 0.87 P 
1582.NP 4.454 0.84 P 
89255.CE 4.534 0.82 P 
KMPB.NC 4.797 0.63 P 
1581.NP 4.964 0.84 P 
89781.CE 5.534 0.84 P 
BJES.BK 5.974 0.81 P 
RBOW.BK 5.994 0.56 P 
B046.PB 6.452 0.85 P 
KNEE.BK 7.054 0.64 P 
PETL.BK 7.134 0.54 P 
DMOR.BK 7.364 0.52 P 
KCR.NC 7.394 0.69 P 
KCO.NC 7.437 0.83 P 
KPR.NC 8.244 0.67 P 
KBU.NC 9.184 0.58 P 
B049.PB 9.332 0.84 P 
KHMB.NC 9.847 0.82 P 
PRDS.BK 9.984 0.59 P 
B935.PB 10.092 0.85 P 
89688.CE 10.474 0.75 P 
KMR.NC 10.877 0.60 P 
KCSB.NC 11.027 0.83 P 
KRP.NC 11.577 0.79 P 
1591.NP 11.614 0.82 P 
BRIC.BK 11.694 0.54 P 
HAYF.BK 13.797 0.52 P 
B934.PB 13.942 0.53 P 
KHBB.NC 13.997 0.62 P 
WEAV.BK 16.634 0.54 P 
TRIN.BK 20.445 0.54 P 
LBK.NC 21.774 0.86 P 
SCOT.BK 22.305 0.56 P 
89255.CE 7.124 0.76 S 
1584B.NP 7.494 0.84 S 
1586.NP 7.654 0.76 S 
1023.NP 7.734 0.67 S 
89462.CE 7.794 0.80 S 
1582.NP 8.494 0.81 S 
KCT.NC 8.617 0.64 S 
KMPB.NC 8.647 0.65 S 
1581.NP 9.364 0.81 S 
89781.CE 10.174 0.82 S 
RBOW.BK 10.624 0.54 S 
BJES.BK 10.774 0.71 S 
B046.PB 11.452 0.82 S 
PETL.BK 12.664 0.54 S 
KCR.NC 13.354 0.54 S 
KCO.NC 13.477 0.82 S 
KPR.NC 15.044 0.58 S 
KBU.NC 16.304 0.79 S 
B049.PB 16.502 0.78 S 
PRDS.BK 17.894 0.50 S 
KHMB.NC 18.177 0.55 S 
89688.CE 18.464 0.73 S 
B935.PB 18.602 0.81 S 
KMR.NC 19.857 0.61 S 
BRIC.BK 20.204 0.57 S 
1591.NP 21.274 0.79 S 
HAYF.BK 23.257 0.66 S 
KHBB.NC 23.417 0.62 S 
B934.PB 27.432 0.70 S 
79046.CE 27.724 0.70 S 
WEAV.BK 30.154 0.62 S 
RVIT.BK 31.694 0.73 S 
TRIN.BK 37.647 0.61 S 
# 2022 12 20 11 31 56.540 40.5653 -124.2162 19.910 2.216 0.148 0.148 0.415 145 
89255.CE 4.270 0.89 P 
1586.NP 4.370 0.91 P 
89462.CE 4.690 0.90 P 
1582.NP 4.740 0.89 P 
1581.NP 5.140 0.89 P 
KMPB.NC 5.383 0.65 P 
89781.CE 5.630 0.89 P 
RBOW.BK 6.200 0.62 P 
BJES.BK 6.360 0.57 P 
B046.PB 6.418 0.90 P 
KNEE.BK 6.950 0.61 P 
PETL.BK 7.030 0.62 P 
KCO.NC 7.373 0.86 P 
DMOR.BK 7.560 0.53 P 
KCR.NC 7.660 0.69 P 
KPR.NC 8.260 0.64 P 
KBU.NC 9.270 0.67 P 
B049.PB 9.368 0.79 P 
PRDS.BK 9.900 0.62 P 
KHMB.NC 9.993 0.64 P 
B935.PB 10.258 0.84 P 
89688.CE 10.350 0.79 P 
KMR.NC 10.953 0.64 P 
KCSB.NC 11.173 0.83 P 
KRP.NC 11.373 0.82 P 
BRIC.BK 11.530 0.60 P 
1591.NP 12.220 0.86 P 
HAYF.BK 13.833 0.53 P 
KHBB.NC 13.983 0.62 P 
WEAV.BK 16.460 0.58 P 
LBK.NC 21.580 0.85 P 
1584B.NP 7.800 0.82 S 
89255.CE 8.100 0.69 S 
1023.NP 8.270 0.77 S 
1586.NP 8.270 0.75 S 
89462.CE 8.720 0.75 S 
KCT.NC 8.873 0.69 S 
1582.NP 9.020 0.78 S 
KMPB.NC 9.353 0.68 S 
1581.NP 9.670 0.80 S 
89781.CE 10.460 0.84 S 
RBOW.BK 11.030 0.51 S 
B046.PB 11.358 0.85 S 
BJES.BK 11.500 0.60 S 
KNEE.BK 12.424 0.53 S 
PETL.BK 12.460 0.58 S 
KCO.NC 13.113 0.80 S 
KCR.NC 13.830 0.53 S 
KPR.NC 14.660 0.61 S 
DMOR.BK 14.910 0.80 S 
KBU.NC 16.580 0.71 S 
B049.PB 16.738 0.80 S 
PRDS.BK 17.750 0.51 S 
KHMB.NC 18.113 0.66 S 
89688.CE 18.150 0.79 S 
B935.PB 18.518 0.83 S 
KMR.NC 19.273 0.61 S 
BRIC.BK 19.990 0.53 S 
KRP.NC 20.153 0.82 S 
KCSB.NC 20.193 0.82 S 
1591.NP 21.450 0.83 S 
HAYF.BK 24.393 0.66 S 
KHBB.NC 24.763 0.67 S 
WEAV.BK 29.370 0.83 S 
# 2022 12 20 11 32 25.535 40.4687 -124.5425 16.462 1.790 0.189 0.189 0.509 146 
KCT.NC 5.488 0.67 P 
PETL.BK 6.335 0.65 P 
B046.PB 6.363 0.86 P 
KCO.NC 7.098 0.83 P 
1586.NP 7.625 0.52 P 
KMPB.NC 7.858 0.74 P 
1582.NP 8.185 0.58 P 
RBOW.BK 8.265 0.55 P 
1581.NP 8.455 0.64 P 
KPR.NC 9.595 0.61 P 
PRDS.BK 10.645 0.65 P 
BJES.BK 10.665 0.80 P 
89688.CE 10.685 0.83 P 
KCR.NC 11.495 0.68 P 
KBU.NC 12.105 0.82 P 
B049.PB 12.183 0.81 P 
BRIC.BK 13.055 0.66 P 
B935.PB 14.083 0.84 P 
KMR.NC 14.148 0.85 P 
B934.PB 16.323 0.81 P 
KFP.NC 20.295 0.62 P 
KCT.NC 9.958 0.59 S 
1584B.NP 10.215 0.82 S 
PETL.BK 11.075 0.52 S 
B046.PB 11.123 0.85 S 
1023.NP 12.335 0.63 S 
KCO.NC 12.658 0.83 S 
KMPB.NC 13.638 0.55 S 
1586.NP 13.865 0.73 S 
RBOW.BK 14.305 0.62 S 
89255.CE 14.925 0.63 S 
1582.NP 15.075 0.81 S 
1581.NP 15.155 0.74 S 
KPR.NC 16.995 0.69 S 
89688.CE 18.565 0.83 S 
PRDS.BK 18.619 0.55 S 
KCR.NC 20.145 0.62 S 
KBU.NC 21.345 0.64 S 
B049.PB 21.553 0.81 S 
BRIC.BK 22.675 0.60 S 
KMR.NC 23.928 0.78 S 
B935.PB 25.273 0.71 S 
B934.PB 30.393 0.73 S 
KHBB.NC 30.838 0.52 S 
# 2022 12 20 11 32 56.150 40.6291 -124.0249 19.186 1.745 0.188 0.188 0.637 147 
KNEE.BK 3.874 0.77 P 
1582.NP 4.690 0.85 P 
1586.NP 5.000 0.82 P 
89781.CE 5.030 0.87 P 
1581.NP 5.140 0.85 P 
89255.CE 5.380 0.83 P 
KMPB.NC 5.883 0.54 P 
KCR.NC 6.360 0.67 P 
RBOW.BK 7.050 0.61 P 
KHMB.NC 7.763 0.63 P 
B935.PB 8.348 0.87 P 
KPR.NC 8.890 0.79 P 
KBU.NC 9.040 0.65 P 
B049.PB 9.078 0.81 P 
KMR.NC 10.503 0.84 P 
PRDS.BK 10.740 0.61 P 
BRIC.BK 11.740 0.62 P 
KHBB.NC 12.163 0.59 P 
WEAV.BK 13.100 0.58 P 
89255.CE 8.350 0.67 S 
KNEE.BK 8.420 0.53 S 
1582.NP 8.830 0.82 S 
89781.CE 9.070 0.84 S 
1586.NP 9.410 0.81 S 
1581.NP 9.590 0.79 S 
KMPB.NC 10.683 0.54 S 
1023.NP 11.020 0.57 S 
KCR.NC 11.340 0.59 S 
1584B.NP 11.500 0.77 S 
B046.PB 12.128 0.57 S 
RBOW.BK 12.500 0.57 S 
KHMB.NC 13.943 0.68 S 
B935.PB 15.028 0.84 S 
KTD.NC 15.760 0.58 S 
B049.PB 15.998 0.72 S 
KBU.NC 16.100 0.66 S 
KPR.NC 16.180 0.63 S 
KMR.NC 18.463 0.60 S 
PRDS.BK 18.860 0.55 S 
1591.NP 20.910 0.79 S 
BRIC.BK 21.170 0.53 S 
KHBB.NC 21.933 0.82 S 
WEAV.BK 26.060 0.55 S 
B934.PB 27.348 0.59 S 
# 2022 12 20 11 33 7.589 40.5161 -124.3987 16.401 1.594 0.164 0.164 0.435 148 
KCT.NC 4.004 0.78 P 
1586.NP 5.551 0.82 P 
B046.PB 5.699 0.85 P 
KMPB.NC 6.124 0.70 P 
1582.NP 6.211 0.80 P 
1581.NP 6.531 0.80 P 
RBOW.BK 6.841 0.54 P 
KCO.NC 6.904 0.83 P 
KPR.NC 8.821 0.67 P 
KCR.NC 9.701 0.77 P 
PRDS.BK 10.241 0.76 P 
KBU.NC 10.661 0.65 P 
B049.PB 10.829 0.76 P 
B935.PB 13.069 0.71 P 
1584B.NP 6.911 0.69 S 
KCT.NC 7.354 0.55 S 
1023.NP 8.681 0.75 S 
B046.PB 10.019 0.81 S 
1586.NP 10.241 0.86 S 
PETL.BK 10.691 0.56 S 
KMPB.NC 10.834 0.64 S 
89255.CE 10.901 0.71 S 
1582.NP 11.691 0.83 S 
KCO.NC 12.014 0.77 S 
1581.NP 12.061 0.78 S 
RBOW.BK 12.141 0.63 S 
KNEE.BK 15.335 0.57 S 
KPR.NC 15.851 0.68 S 
KCR.NC 17.021 0.68 S 
PRDS.BK 18.061 0.53 S 
89688.CE 18.541 0.66 S 
B049.PB 19.209 0.66 S 
KBU.NC 19.261 0.67 S 
BRIC.BK 21.571 0.55 S 
B935.PB 22.389 0.75 S 
1591.NP 23.181 0.71 S 
# 2022 12 20 11 33 19.752 40.5212 -124.3954 17.594 1.336 0.204 0.204 0.376 149 
1586.NP 5.488 0.82 P 
B046.PB 5.746 0.80 P 
KMPB.NC 6.071 0.63 P 
1582.NP 6.238 0.79 P 
KCO.NC 6.821 0.74 P 
KPR.NC 8.898 0.63 P 
KCR.NC 9.598 0.61 P 
KBU.NC 10.618 0.58 P 
B049.PB 10.746 0.80 P 
KCT.NC 7.351 0.55 S 
1023.NP 8.538 0.78 S 
B046.PB 10.076 0.80 S 
1586.NP 10.148 0.78 S 
KMPB.NC 10.701 0.66 S 
1582.NP 11.448 0.70 S 
1581.NP 11.978 0.50 S 
KCO.NC 12.151 0.80 S 
KPR.NC 16.048 0.62 S 
KCR.NC 17.358 0.62 S 
PRDS.BK 18.018 0.55 S 
KBU.NC 19.048 0.52 S 
DMOR.BK 19.098 0.57 S 
B049.PB 19.306 0.66 S 
BRIC.BK 21.418 0.53 S 
B935.PB 21.966 0.64 S 
