# 2022 12 20 10 59 7.781 40.5239 -124.3621 16.518 2.041 0.144 0.144 0.438 74 
1584B.NP 3.549 0.88 P 
KCT.NC 3.902 0.59 P 
1023.NP 4.199 0.87 P 
1586.NP 5.149 0.88 P 
89462.CE 5.589 0.87 P 
KMPB.NC 5.692 0.58 P 
B046.PB 5.747 0.85 P 
PETL.BK 6.139 0.84 P 
1581.NP 6.209 0.84 P 
RBOW.BK 6.509 0.52 P 
KCO.NC 7.072 0.85 P 
BJES.BK 8.129 0.76 P 
1580.NP 8.639 0.86 P 
KPR.NC 8.789 0.61 P 
KNEE.BK 8.819 0.52 P 
KCR.NC 9.249 0.65 P 
DMOR.BK 9.589 0.54 P 
KBU.NC 10.369 0.60 P 
B049.PB 10.477 0.81 P 
BRIC.BK 11.049 0.68 P 
B935.PB 11.827 0.79 P 
KHMB.NC 11.862 0.61 P 
KMR.NC 12.012 0.63 P 
1591.NP 12.649 0.82 P 
KRP.NC 13.272 0.68 P 
B934.PB 14.117 0.54 P 
1584B.NP 6.319 0.83 S 
KCT.NC 7.042 0.71 S 
1023.NP 7.989 0.75 S 
1586.NP 9.619 0.74 S 
B046.PB 9.997 0.80 S 
KMPB.NC 10.032 0.68 S 
89462.CE 10.149 0.76 S 
PETL.BK 10.769 0.57 S 
RBOW.BK 11.429 0.58 S 
1581.NP 11.499 0.83 S 
KCO.NC 12.162 0.79 S 
89781.CE 12.669 0.60 S 
B047.PB 12.797 0.80 S 
1580.NP 15.269 0.79 S 
KPR.NC 15.309 0.65 S 
KNEE.BK 15.913 0.61 S 
KCR.NC 16.739 0.67 S 
KBU.NC 18.419 0.68 S 
DMOR.BK 18.629 0.82 S 
B049.PB 18.637 0.67 S 
BRIC.BK 21.109 0.52 S 
KMR.NC 21.502 0.65 S 
KHMB.NC 21.552 0.68 S 
B935.PB 21.807 0.79 S 
1591.NP 22.629 0.60 S 
B934.PB 27.237 0.72 S 
# 2022 12 20 10 59 27.453 40.5409 -124.2416 20.008 1.575 0.244 0.244 0.704 75 
1023.NP 2.827 0.53 P 
1584B.NP 5.277 0.53 P 
89781.CE 5.397 0.65 P 
RBOW.BK 5.947 0.51 P 
1581.NP 6.207 0.61 P 
KCR.NC 7.757 0.62 P 
KPR.NC 8.077 0.60 P 
KBU.NC 9.197 0.60 P 
B049.PB 9.365 0.79 P 
KMR.NC 11.020 0.66 P 
1584B.NP 7.577 0.66 S 
1023.NP 7.947 0.62 S 
1581.NP 10.197 0.74 S 
B046.PB 10.695 0.79 S 
89781.CE 11.057 0.58 S 
BJES.BK 11.667 0.69 S 
PETL.BK 11.757 0.67 S 
KCO.NC 12.500 0.78 S 
1580.NP 13.577 0.73 S 
KCR.NC 13.877 0.59 S 
KPR.NC 14.467 0.62 S 
PRDS.BK 15.737 0.76 S 
89688.CE 16.777 0.66 S 
B049.PB 16.925 0.75 S 
KBU.NC 16.997 0.63 S 
BRIC.BK 20.507 0.56 S 
# 2022 12 20 10 59 42.849 40.5179 -124.3297 14.646 1.418 0.157 0.157 0.783 76 
1584B.NP 3.231 0.63 P 
KCT.NC 3.644 0.66 P 
1586.NP 4.221 0.81 P 
KMPB.NC 5.074 0.89 P 
B046.PB 5.509 0.86 P 
RBOW.BK 5.971 0.53 P 
KCO.NC 6.684 0.84 P 
B047.PB 6.889 0.85 P 
KPR.NC 8.281 0.62 P 
KCR.NC 8.601 0.73 P 
KBU.NC 9.731 0.62 P 
B049.PB 9.869 0.83 P 
PRDS.BK 10.001 0.85 P 
89688.CE 10.061 0.84 P 
BRIC.BK 11.641 0.64 P 
1584B.NP 6.081 0.82 S 
KCT.NC 6.934 0.67 S 
1023.NP 7.271 0.90 S 
1586.NP 7.901 0.77 S 
KMPB.NC 9.414 0.85 S 
89462.CE 9.441 0.83 S 
B046.PB 9.969 0.84 S 
RBOW.BK 10.881 0.59 S 
KCO.NC 12.204 0.81 S 
B047.PB 12.489 0.80 S 
KPR.NC 15.071 0.69 S 
KCR.NC 15.521 0.63 S 
PRDS.BK 17.635 0.52 S 
KBU.NC 17.681 0.68 S 
B049.PB 17.739 0.79 S 
89688.CE 18.281 0.75 S 
B935.PB 19.829 0.72 S 
BRIC.BK 20.531 0.64 S 
KMR.NC 20.674 0.60 S 
HAYF.BK 30.032 0.51 S 
KHBB.NC 30.444 0.51 S 
# 2022 12 20 11 0 26.688 40.7255 -123.8193 27.034 1.352 0.251 0.251 0.616 77 
KNEE.BK 4.942 0.66 P 
KHMB.NC 5.875 0.70 P 
B935.PB 7.490 0.88 P 
KCR.NC 7.582 0.68 P 
KBU.NC 8.572 0.70 P 
KMR.NC 9.355 0.70 P 
KHBB.NC 9.825 0.74 P 
B049.PB 10.170 0.88 P 
HAYF.BK 10.345 0.73 P 
BRIC.BK 11.222 0.54 P 
DMOR.BK 7.842 0.87 S 
KNEE.BK 9.386 0.83 S 
KHMB.NC 10.535 0.63 S 
BJES.BK 11.702 0.72 S 
B935.PB 13.370 0.84 S 
KCR.NC 13.522 0.65 S 
KHBB.NC 16.885 0.76 S 
B049.PB 17.510 0.82 S 
HAYF.BK 17.693 0.66 S 
KMR.NC 19.485 0.65 S 
WEAV.BK 21.232 0.51 S 
# 2022 12 20 11 0 50.854 40.4878 -124.4079 16.095 1.767 0.149 0.149 0.587 78 
KCT.NC 3.559 0.83 P 
1584B.NP 4.346 0.88 P 
B046.PB 5.114 0.88 P 
PETL.BK 5.406 0.55 P 
1023.NP 5.516 0.90 P 
KMPB.NC 5.899 0.62 P 
KCO.NC 6.319 0.86 P 
1586.NP 6.626 0.87 P 
RBOW.BK 6.636 0.72 P 
1581.NP 7.976 0.87 P 
KPR.NC 8.226 0.66 P 
89781.CE 8.916 0.85 P 
KNEE.BK 9.310 0.62 P 
PRDS.BK 9.576 0.61 P 
BJES.BK 9.736 0.87 P 
KCR.NC 9.906 0.82 P 
89688.CE 9.936 0.73 P 
BRIC.BK 11.586 0.84 P 
KBU.NC 11.916 0.75 P 
B049.PB 12.124 0.82 P 
B935.PB 12.444 0.81 P 
KHMB.NC 13.399 0.74 P 
KMR.NC 13.719 0.83 P 
KHBB.NC 16.369 0.64 P 
KCT.NC 7.019 0.56 S 
1584B.NP 7.596 0.86 S 
1023.NP 9.046 0.87 S 
B046.PB 9.284 0.82 S 
PETL.BK 9.946 0.64 S 
KMPB.NC 10.639 0.68 S 
1586.NP 10.796 0.81 S 
KCO.NC 11.439 0.81 S 
RBOW.BK 11.966 0.59 S 
1581.NP 12.546 0.73 S 
89781.CE 13.836 0.74 S 
KPR.NC 15.196 0.60 S 
BJES.BK 16.186 0.86 S 
KNEE.BK 17.170 0.83 S 
PRDS.BK 17.670 0.52 S 
89688.CE 17.836 0.74 S 
KCR.NC 17.906 0.84 S 
DMOR.BK 19.906 0.57 S 
KBU.NC 19.956 0.78 S 
BRIC.BK 21.006 0.56 S 
KMR.NC 22.059 0.81 S 
B935.PB 22.724 0.79 S 
1591.NP 22.956 0.73 S 
# 2022 12 20 11 1 3.526 40.4501 -124.3067 39.968 1.951 0.340 0.340 1.072 79 
RBOW.BK 6.154 0.66 P 
B046.PB 6.312 0.80 P 
KCO.NC 7.307 0.79 P 
1581.NP 8.064 0.72 P 
KPR.NC 8.264 0.63 P 
KBU.NC 9.544 0.80 P 
B049.PB 9.592 0.81 P 
B934.PB 14.172 0.52 P 
RBOW.BK 10.674 0.52 S 
B046.PB 10.902 0.78 S 
1584B.NP 11.834 0.59 S 
PETL.BK 11.864 0.54 S 
KCO.NC 12.687 0.77 S 
1023.NP 13.544 0.67 S 
KPR.NC 14.414 0.65 S 
1586.NP 15.204 0.51 S 
KBU.NC 17.184 0.58 S 
B049.PB 17.402 0.72 S 
89688.CE 18.574 0.65 S 
B935.PB 19.172 0.63 S 
BRIC.BK 20.524 0.53 S 
# 2022 12 20 11 1 43.328 40.4937 -124.3939 12.262 1.228 0.210 0.210 0.698 80 
1584B.NP 3.342 0.89 P 
B046.PB 5.080 0.89 P 
1023.NP 5.102 0.88 P 
1586.NP 5.192 0.89 P 
PETL.BK 5.462 0.56 P 
KMPB.NC 5.735 0.75 P 
RBOW.BK 6.402 0.88 P 
KPR.NC 8.382 0.58 P 
PRDS.BK 9.796 0.62 P 
KBU.NC 10.242 0.74 P 
B049.PB 10.460 0.75 P 
BRIC.BK 11.542 0.59 P 
B934.PB 18.560 0.50 P 
1584B.NP 6.542 0.85 S 
B046.PB 9.390 0.84 S 
PETL.BK 9.992 0.66 S 
1586.NP 10.162 0.85 S 
KMPB.NC 10.475 0.76 S 
89462.CE 10.922 0.60 S 
KCO.NC 11.515 0.80 S 
RBOW.BK 11.812 0.62 S 
KPR.NC 15.642 0.81 S 
PRDS.BK 17.612 0.56 S 
89688.CE 18.092 0.66 S 
BRIC.BK 21.162 0.66 S 
# 2022 12 20 11 2 13.147 40.5238 -124.3292 16.116 2.298 0.132 0.132 0.565 81 
1584B.NP 3.563 0.88 P 
KCT.NC 4.056 0.54 P 
1023.NP 4.133 0.84 P 
1586.NP 4.953 0.87 P 
89462.CE 5.243 0.87 P 
KMPB.NC 5.396 0.58 P 
B046.PB 5.661 0.84 P 
1581.NP 6.123 0.89 P 
PETL.BK 6.263 0.64 P 
RBOW.BK 6.293 0.54 P 
89781.CE 6.863 0.88 P 
KCO.NC 7.066 0.87 P 
BJES.BK 7.703 0.70 P 
1580.NP 8.513 0.90 P 
KPR.NC 8.563 0.67 P 
KCR.NC 8.843 0.66 P 
DMOR.BK 9.263 0.59 P 
KBU.NC 10.013 0.65 P 
B049.PB 10.131 0.82 P 
PRDS.BK 10.183 0.56 P 
89688.CE 10.443 0.80 P 
KHMB.NC 11.536 0.65 P 
B935.PB 11.651 0.84 P 
KMR.NC 11.706 0.58 P 
BRIC.BK 11.813 0.63 P 
KCSB.NC 12.256 0.68 P 
1591.NP 12.533 0.82 P 
HAYF.BK 15.314 0.64 P 
KHBB.NC 15.546 0.62 P 
B934.PB 17.851 0.56 P 
LBK.NC 23.253 0.83 P 
SCOT.BK 23.636 0.52 P 
1584B.NP 6.303 0.81 S 
KCT.NC 7.216 0.69 S 
1023.NP 8.053 0.61 S 
1586.NP 9.293 0.70 S 
KMPB.NC 9.546 0.70 S 
89462.CE 9.633 0.57 S 
B046.PB 9.911 0.73 S 
PETL.BK 10.763 0.61 S 
RBOW.BK 11.023 0.57 S 
1581.NP 11.233 0.83 S 
KCO.NC 12.056 0.80 S 
89781.CE 12.383 0.83 S 
1580.NP 15.023 0.83 S 
KNEE.BK 15.057 0.60 S 
KPR.NC 15.493 0.62 S 
KCR.NC 15.933 0.63 S 
PRDS.BK 17.473 0.57 S 
89688.CE 17.873 0.63 S 
KBU.NC 17.893 0.65 S 
B049.PB 18.081 0.78 S 
BRIC.BK 20.753 0.58 S 
KHMB.NC 20.886 0.70 S 
KMR.NC 21.016 0.61 S 
B935.PB 21.191 0.81 S 
1591.NP 22.053 0.78 S 
KCSB.NC 22.806 0.79 S 
B934.PB 27.071 0.64 S 
HAYF.BK 28.136 0.64 S 
KHBB.NC 29.076 0.59 S 
# 2022 12 20 11 2 38.489 40.6675 -123.9141 21.865 1.979 0.194 0.194 0.480 82 
BJES.BK 5.041 0.87 P 
89781.CE 5.441 0.89 P 
1581.NP 6.071 0.89 P 
89462.CE 6.301 0.87 P 
KHMB.NC 6.454 0.73 P 
KCR.NC 6.671 0.84 P 
KMPB.NC 7.334 0.83 P 
B935.PB 7.649 0.83 P 
KCSB.NC 7.924 0.86 P 
1584B.NP 8.071 0.82 P 
RBOW.BK 8.221 0.81 P 
B049.PB 9.339 0.84 P 
KBU.NC 9.361 0.67 P 
KPR.NC 9.421 0.66 P 
KMR.NC 10.484 0.69 P 
KHBB.NC 10.644 0.55 P 
HAYF.BK 10.994 0.53 P 
89688.CE 11.881 0.71 P 
DMOR.BK 8.561 0.85 S 
BJES.BK 9.171 0.54 S 
89781.CE 10.081 0.83 S 
1580.NP 10.621 0.82 S 
1581.NP 11.441 0.82 S 
89462.CE 11.611 0.84 S 
KHMB.NC 11.804 0.61 S 
KCR.NC 11.961 0.82 S 
KMPB.NC 13.194 0.61 S 
B935.PB 13.689 0.83 S 
1584B.NP 14.231 0.77 S 
KCSB.NC 14.564 0.83 S 
KBU.NC 16.391 0.64 S 
B049.PB 16.679 0.82 S 
B046.PB 16.769 0.80 S 
KRP.NC 17.844 0.75 S 
PETL.BK 18.391 0.76 S 
KMR.NC 18.934 0.62 S 
KHBB.NC 19.224 0.81 S 
HAYF.BK 19.302 0.64 S 
89688.CE 19.391 0.68 S 
# 2022 12 20 11 3 9.466 40.5976 -124.0589 18.223 2.708 0.141 0.141 1.180 83 
89462.CE 4.654 0.80 P 
1586.NP 4.934 0.89 P 
KMPB.NC 5.347 0.60 P 
1584B.NP 5.454 0.79 P 
89781.CE 5.494 0.86 P 
KNEE.BK 5.554 0.62 P 
DMOR.BK 6.114 0.62 P 
RBOW.BK 6.334 0.58 P 
KCR.NC 6.564 0.63 P 
1580.NP 6.764 0.85 P 
B046.PB 7.192 0.79 P 
PETL.BK 7.834 0.77 P 
KCO.NC 7.957 0.80 P 
KBU.NC 8.604 0.63 P 
B049.PB 8.622 0.83 P 
KHMB.NC 8.707 0.66 P 
B935.PB 8.782 0.87 P 
KCSB.NC 9.607 0.84 P 
KMR.NC 9.967 0.62 P 
PRDS.BK 9.968 0.72 P 
KRP.NC 10.937 0.84 P 
HAYF.BK 12.247 0.61 P 
KHBB.NC 12.487 0.63 P 
KOM.NC 14.987 0.73 P 
KFP.NC 18.264 0.52 P 
LBK.NC 20.224 0.84 P 
GUMB.BK 22.638 0.60 P 
89462.CE 8.654 0.84 S 
1586.NP 9.324 0.82 S 
BJES.BK 9.534 0.83 S 
KMPB.NC 9.717 0.66 S 
1023.NP 10.034 0.84 S 
89781.CE 10.114 0.83 S 
KNEE.BK 10.158 0.51 S 
RBOW.BK 11.274 0.52 S 
1584B.NP 11.504 0.77 S 
KCT.NC 11.927 0.62 S 
KCR.NC 11.934 0.81 S 
1580.NP 12.024 0.73 S 
DMOR.BK 12.274 0.70 S 
B046.PB 12.832 0.76 S 
KPR.NC 13.384 0.55 S 
PETL.BK 14.124 0.52 S 
KCO.NC 14.397 0.68 S 
KBU.NC 14.924 0.65 S 
B049.PB 15.032 0.76 S 
KHMB.NC 15.577 0.66 S 
B935.PB 15.982 0.83 S 
KMR.NC 17.087 0.59 S 
KCSB.NC 17.467 0.82 S 
KRP.NC 17.807 0.65 S 
KHBB.NC 21.917 0.59 S 
89688.CE 22.754 0.55 S 
HAYF.BK 22.895 0.80 S 
KFP.NC 31.224 0.63 S 
B934.PB 31.472 0.62 S 
79046.CE 32.374 0.59 S 
GUMB.BK 40.534 0.55 S 
# 2022 12 20 11 4 6.225 40.5227 -124.3295 16.136 1.934 0.131 0.131 0.486 84 
1584B.NP 3.395 0.86 P 
KCT.NC 3.848 0.57 P 
1023.NP 3.965 0.85 P 
KMPB.NC 4.658 0.52 P 
1586.NP 4.885 0.87 P 
89462.CE 5.225 0.87 P 
B046.PB 5.553 0.84 P 
1581.NP 6.265 0.88 P 
RBOW.BK 6.285 0.55 P 
KCO.NC 6.768 0.85 P 
89781.CE 6.865 0.87 P 
BJES.BK 7.695 0.78 P 
KNEE.BK 8.465 0.55 P 
1580.NP 8.525 0.87 P 
KPR.NC 8.535 0.63 P 
KCR.NC 8.885 0.67 P 
DMOR.BK 9.325 0.51 P 
KBU.NC 10.045 0.64 P 
B049.PB 10.203 0.81 P 
PRDS.BK 10.305 0.68 P 
89688.CE 10.385 0.79 P 
KHMB.NC 11.628 0.61 P 
B935.PB 11.673 0.84 P 
KMR.NC 11.828 0.58 P 
BRIC.BK 11.965 0.53 P 
1591.NP 12.465 0.81 P 
KCSB.NC 12.748 0.83 P 
HAYF.BK 14.396 0.69 P 
WEAV.BK 17.665 0.87 P 
TRIN.BK 22.248 0.85 P 
LBK.NC 23.345 0.87 P 
1584B.NP 6.075 0.83 S 
KCT.NC 6.918 0.70 S 
1023.NP 7.745 0.67 S 
1586.NP 9.225 0.71 S 
KMPB.NC 9.398 0.72 S 
89462.CE 9.475 0.74 S 
B046.PB 9.903 0.77 S 
PETL.BK 10.785 0.58 S 
RBOW.BK 11.065 0.55 S 
1581.NP 11.265 0.83 S 
KCO.NC 11.908 0.78 S 
89781.CE 12.345 0.82 S 
BJES.BK 13.995 0.73 S 
1580.NP 14.905 0.82 S 
KNEE.BK 15.125 0.56 S 
KPR.NC 15.265 0.64 S 
KCR.NC 15.905 0.62 S 
PRDS.BK 17.665 0.52 S 
89688.CE 17.985 0.66 S 
KBU.NC 18.185 0.70 S 
B049.PB 18.193 0.76 S 
BRIC.BK 20.725 0.59 S 
KMR.NC 20.758 0.73 S 
KHMB.NC 21.008 0.64 S 
B935.PB 21.093 0.83 S 
1591.NP 22.465 0.52 S 
KRP.NC 23.508 0.54 S 
B934.PB 26.583 0.68 S 
HAYF.BK 28.308 0.51 S 
LBK.NC 40.685 0.71 S 
# 2022 12 20 11 4 24.768 40.5401 -124.2064 17.267 1.583 0.169 0.169 0.693 85 
1584B.NP 3.392 0.77 P 
RBOW.BK 4.762 0.61 P 
KCO.NC 5.965 0.70 P 
1581.NP 6.842 0.88 P 
KNEE.BK 6.986 0.88 P 
PETL.BK 7.492 0.54 P 
KCR.NC 7.542 0.71 P 
KPR.NC 7.762 0.57 P 
DMOR.BK 7.912 0.77 P 
KBU.NC 8.962 0.62 P 
B049.PB 9.190 0.90 P 
PRDS.BK 9.522 0.65 P 
KHMB.NC 10.415 0.59 P 
B935.PB 10.550 0.87 P 
KMR.NC 10.845 0.86 P 
BRIC.BK 11.192 0.85 P 
1584B.NP 6.672 0.56 S 
1023.NP 7.502 0.61 S 
89462.CE 7.882 0.88 S 
1586.NP 8.092 0.82 S 
1581.NP 10.002 0.71 S 
B046.PB 10.410 0.83 S 
89781.CE 10.802 0.79 S 
BJES.BK 11.302 0.54 S 
PETL.BK 11.512 0.54 S 
KCO.NC 12.255 0.85 S 
KNEE.BK 12.526 0.52 S 
KCR.NC 13.392 0.58 S 
KPR.NC 13.982 0.78 S 
DMOR.BK 14.432 0.52 S 
KBU.NC 16.742 0.68 S 
B049.PB 16.880 0.84 S 
PRDS.BK 17.146 0.52 S 
B935.PB 17.690 0.84 S 
KMR.NC 19.365 0.67 S 
BRIC.BK 19.672 0.56 S 
KHBB.NC 26.245 0.51 S 
# 2022 12 20 11 5 2.002 40.5316 -124.3426 17.245 2.539 0.121 0.121 0.493 86 
1584B.NP 3.558 0.92 P 
1023.NP 3.668 0.85 P 
KCT.NC 4.231 0.61 P 
1586.NP 4.948 0.88 P 
89462.CE 5.428 0.88 P 
KMPB.NC 5.621 0.56 P 
1581.NP 5.978 0.91 P 
B046.PB 6.016 0.82 P 
RBOW.BK 6.578 0.59 P 
89781.CE 6.718 0.90 P 
KCO.NC 7.151 0.87 P 
BJES.BK 7.858 0.79 P 
1580.NP 8.338 0.91 P 
KPR.NC 8.808 0.62 P 
KCR.NC 8.988 0.68 P 
DMOR.BK 9.278 0.65 P 
PRDS.BK 10.178 0.62 P 
KBU.NC 10.228 0.66 P 
B049.PB 10.376 0.86 P 
89688.CE 10.518 0.77 P 
KTD.NC 10.668 0.89 P 
KHMB.NC 11.541 0.59 P 
B935.PB 11.756 0.87 P 
KMR.NC 11.881 0.54 P 
BRIC.BK 12.198 0.52 P 
KRP.NC 12.541 0.88 P 
KCSB.NC 12.681 0.85 P 
1591.NP 12.688 0.84 P 
HAYF.BK 15.451 0.86 P 
KHBB.NC 15.651 0.68 P 
79046.CE 16.918 0.82 P 
KOM.NC 17.541 0.84 P 
KFP.NC 19.358 0.72 P 
KBN.NC 19.808 0.75 P 
PETY.BK 21.369 0.65 P 
TRIN.BK 22.049 0.66 P 
GNR.NC 23.148 0.87 P 
LBK.NC 23.338 0.89 P 
SCOT.BK 23.661 0.68 P 
GHO.NC 25.468 0.79 P 
GUMB.BK 25.838 0.64 P 
GCWB.NC 27.828 0.69 P 
1584B.NP 6.578 0.80 S 
KCT.NC 7.571 0.64 S 
1023.NP 7.948 0.50 S 
1586.NP 9.118 0.70 S 
KMPB.NC 9.841 0.69 S 
89462.CE 9.868 0.56 S 
B046.PB 10.486 0.72 S 
1581.NP 11.018 0.82 S 
PETL.BK 11.328 0.63 S 
RBOW.BK 11.388 0.56 S 
89781.CE 12.118 0.83 S 
KCO.NC 12.421 0.82 S 
BJES.BK 14.098 0.53 S 
1580.NP 14.738 0.82 S 
KPR.NC 15.108 0.67 S 
KNEE.BK 15.162 0.57 S 
KCR.NC 16.008 0.61 S 
PRDS.BK 17.918 0.52 S 
KBU.NC 18.108 0.62 S 
89688.CE 18.178 0.70 S 
B049.PB 18.376 0.81 S 
KHMB.NC 20.731 0.64 S 
BRIC.BK 21.008 0.62 S 
B935.PB 21.056 0.76 S 
KMR.NC 21.631 0.75 S 
KRP.NC 22.151 0.82 S 
1591.NP 22.428 0.77 S 
KCSB.NC 22.531 0.82 S 
B934.PB 26.726 0.71 S 
KHBB.NC 27.091 0.65 S 
79046.CE 27.338 0.79 S 
HAYF.BK 28.131 0.63 S 
KIP.NC 31.168 0.81 S 
KOM.NC 31.891 0.75 S 
KFP.NC 33.968 0.62 S 
TRIN.BK 39.131 0.55 S 
PETY.BK 39.651 0.57 S 
GNR.NC 40.448 0.55 S 
SCOT.BK 40.869 0.62 S 
LBK.NC 41.448 0.79 S 
GHO.NC 44.488 0.54 S 
GUMB.BK 45.478 0.62 S 
# 2022 12 20 11 5 31.811 40.5248 -124.3866 17.082 1.693 0.176 0.176 0.461 87 
KCT.NC 4.122 0.70 P 
1586.NP 5.429 0.90 P 
B046.PB 5.867 0.90 P 
KMPB.NC 5.992 0.66 P 
KCO.NC 6.922 0.86 P 
KPR.NC 8.799 0.89 P 
1580.NP 8.869 0.79 P 
KCR.NC 9.659 0.71 P 
DMOR.BK 9.849 0.53 P 
PRDS.BK 10.189 0.80 P 
KBU.NC 10.589 0.68 P 
89688.CE 10.679 0.87 P 
B935.PB 11.807 0.87 P 
1584B.NP 6.689 0.88 S 
KCT.NC 7.352 0.64 S 
1023.NP 8.349 0.70 S 
1586.NP 9.959 0.86 S 
B046.PB 10.087 0.85 S 
KMPB.NC 10.352 0.70 S 
PETL.BK 10.849 0.52 S 
89462.CE 10.859 0.76 S 
1581.NP 11.599 0.51 S 
BJES.BK 15.109 0.67 S 
KPR.NC 15.519 0.84 S 
1580.NP 15.619 0.84 S 
KCR.NC 17.009 0.61 S 
89688.CE 18.639 0.83 S 
KBU.NC 18.799 0.77 S 
B049.PB 18.887 0.83 S 
BRIC.BK 21.229 0.57 S 
B935.PB 22.127 0.85 S 
1591.NP 22.959 0.82 S 
# 2022 12 20 11 6 9.174 40.5198 -124.3385 17.327 1.684 0.141 0.141 0.479 88 
1584B.NP 3.616 0.88 P 
KCT.NC 3.989 0.66 P 
1023.NP 4.096 0.91 P 
1586.NP 5.096 0.91 P 
89462.CE 5.396 0.88 P 
KMPB.NC 5.499 0.70 P 
B046.PB 5.624 0.88 P 
PETL.BK 6.156 0.83 P 
RBOW.BK 6.196 0.68 P 
KCO.NC 6.739 0.89 P 
KNEE.BK 8.476 0.69 P 
KPR.NC 8.536 0.72 P 
1580.NP 8.576 0.83 P 
KCR.NC 8.936 0.67 P 
DMOR.BK 9.356 0.59 P 
KBU.NC 10.086 0.86 P 
BRIC.BK 10.226 0.85 P 
89688.CE 10.516 0.82 P 
PRDS.BK 10.710 0.82 P 
KHMB.NC 11.599 0.63 P 
B935.PB 11.784 0.85 P 
1584B.NP 6.396 0.80 S 
KCT.NC 7.229 0.67 S 
1023.NP 7.946 0.84 S 
1586.NP 9.526 0.85 S 
KMPB.NC 9.639 0.64 S 
89462.CE 9.716 0.80 S 
B046.PB 9.844 0.82 S 
PETL.BK 10.716 0.56 S 
RBOW.BK 11.256 0.59 S 
1581.NP 11.406 0.72 S 
KCO.NC 11.919 0.79 S 
89781.CE 12.566 0.70 S 
BJES.BK 14.036 0.64 S 
KNEE.BK 15.146 0.56 S 
1580.NP 15.166 0.78 S 
KPR.NC 15.636 0.60 S 
KCR.NC 15.996 0.67 S 
KBU.NC 17.836 0.68 S 
DMOR.BK 17.876 0.63 S 
B049.PB 18.054 0.63 S 
89688.CE 18.236 0.78 S 
BRIC.BK 20.616 0.60 S 
KHMB.NC 20.879 0.68 S 
KMR.NC 20.959 0.78 S 
B935.PB 21.224 0.76 S 
B934.PB 26.584 0.61 S 
HAYF.BK 28.539 0.58 S 
# 2022 12 20 11 6 38.243 40.5952 -124.0773 15.565 1.335 0.182 0.182 0.578 89 
KMPB.NC 3.910 0.67 P 
1586.NP 4.287 0.92 P 
89781.CE 4.997 0.90 P 
KNEE.BK 5.081 0.61 P 
KCT.NC 5.850 0.88 P 
1581.NP 5.987 0.80 P 
DMOR.BK 6.077 0.67 P 
RBOW.BK 6.367 0.58 P 
KCR.NC 6.507 0.64 P 
B046.PB 7.045 0.87 P 
KCO.NC 8.210 0.85 P 
B049.PB 8.275 0.83 P 
KPR.NC 8.367 0.81 P 
KBU.NC 8.447 0.84 P 
B935.PB 9.115 0.86 P 
PRDS.BK 9.331 0.61 P 
KMR.NC 10.470 0.84 P 
KHBB.NC 13.080 0.83 P 
89462.CE 7.607 0.85 S 
1586.NP 8.167 0.86 S 
1581.NP 9.097 0.75 S 
89781.CE 9.167 0.84 S 
KNEE.BK 9.381 0.83 S 
1584B.NP 9.637 0.86 S 
RBOW.BK 11.677 0.60 S 
KCR.NC 11.787 0.73 S 
DMOR.BK 11.967 0.61 S 
KCT.NC 12.080 0.63 S 
KPR.NC 15.437 0.66 S 
KBU.NC 16.007 0.57 S 
B049.PB 16.135 0.84 S 
B935.PB 16.575 0.85 S 
PRDS.BK 18.687 0.60 S 
KMR.NC 18.910 0.64 S 
BRIC.BK 20.047 0.55 S 
KHBB.NC 24.080 0.65 S 
# 2022 12 20 11 6 59.912 40.5038 -124.3602 17.354 1.207 0.236 0.236 0.445 90 
KCT.NC 3.861 0.58 P 
KMPB.NC 5.481 0.83 P 
KPR.NC 8.318 0.85 P 
PRDS.BK 9.618 0.83 P 
KBU.NC 9.698 0.80 P 
BRIC.BK 10.578 0.80 P 
1591.NP 12.358 0.79 P 
KCT.NC 7.261 0.53 S 
B046.PB 9.676 0.80 S 
KMPB.NC 9.691 0.78 S 
1586.NP 9.758 0.61 S 
PETL.BK 10.488 0.51 S 
KCO.NC 11.101 0.75 S 
KPR.NC 14.888 0.82 S 
KCR.NC 16.338 0.79 S 
PRDS.BK 17.018 0.61 S 
89688.CE 17.398 0.66 S 
KBU.NC 17.958 0.73 S 
B049.PB 18.156 0.69 S 
BRIC.BK 20.618 0.57 S 
KMR.NC 21.261 0.63 S 
1591.NP 21.918 0.70 S 
# 2022 12 20 11 7 40.939 40.5380 -123.9388 19.680 1.724 0.163 0.163 0.458 91 
BJES.BK 4.091 0.85 P 
KCR.NC 5.031 0.71 P 
KMPB.NC 5.464 0.80 P 
KNEE.BK 5.521 0.62 P 
RBOW.BK 6.221 0.62 P 
1581.NP 6.991 0.52 P 
B935.PB 7.039 0.84 P 
KBU.NC 7.331 0.61 P 
B046.PB 7.739 0.84 P 
KPR.NC 7.741 0.61 P 
KHMB.NC 8.584 0.83 P 
KMR.NC 8.984 0.84 P 
BRIC.BK 10.221 0.66 P 
HAYF.BK 11.114 0.56 P 
KHBB.NC 11.394 0.58 P 
WEAV.BK 13.971 0.67 P 
PETY.BK 17.054 0.54 P 
TRIN.BK 19.042 0.80 P 
KCR.NC 9.181 0.66 S 
KMPB.NC 9.914 0.62 S 
KNEE.BK 10.081 0.53 S 
1586.NP 10.641 0.57 S 
RBOW.BK 11.031 0.53 S 
1581.NP 12.391 0.64 S 
B935.PB 12.689 0.85 S 
B049.PB 12.999 0.73 S 
KBU.NC 13.031 0.73 S 
1023.NP 13.681 0.52 S 
KPR.NC 13.741 0.80 S 
B046.PB 13.939 0.83 S 
KHMB.NC 15.354 0.67 S 
KCO.NC 15.494 0.81 S 
KMR.NC 15.514 0.62 S 
PETL.BK 15.561 0.59 S 
PRDS.BK 17.775 0.52 S 
BRIC.BK 17.861 0.62 S 
89688.CE 18.501 0.81 S 
HAYF.BK 19.794 0.58 S 
KHBB.NC 20.354 0.80 S 
B934.PB 23.999 0.63 S 
WEAV.BK 24.991 0.62 S 
# 2022 12 20 11 8 6.004 40.5416 -124.2381 18.239 1.546 0.184 0.184 0.564 92 
1584B.NP 3.806 0.91 P 
89462.CE 4.326 0.91 P 
1023.NP 5.386 0.69 P 
B046.PB 6.034 0.89 P 
PETL.BK 6.726 0.87 P 
KCO.NC 7.069 0.89 P 
KNEE.BK 7.076 0.72 P 
KCR.NC 7.736 0.70 P 
KPR.NC 8.046 0.66 P 
DMOR.BK 8.076 0.54 P 
KBU.NC 9.146 0.65 P 
B049.PB 9.384 0.87 P 
PRDS.BK 9.486 0.63 P 
KMR.NC 10.999 0.83 P 
BRIC.BK 11.476 0.58 P 
1584B.NP 6.966 0.87 S 
1023.NP 7.716 0.79 S 
89462.CE 8.086 0.83 S 
1586.NP 8.246 0.86 S 
1581.NP 10.256 0.75 S 
B046.PB 10.584 0.85 S 
89781.CE 11.086 0.80 S 
PETL.BK 11.766 0.76 S 
KCO.NC 12.449 0.87 S 
KNEE.BK 12.920 0.59 S 
KCR.NC 13.796 0.63 S 
KPR.NC 14.146 0.66 S 
B049.PB 16.934 0.84 S 
KBU.NC 16.956 0.66 S 
PRDS.BK 17.326 0.51 S 
B935.PB 19.014 0.79 S 
KMR.NC 19.849 0.71 S 
BRIC.BK 20.566 0.64 S 
KHBB.NC 26.599 0.59 S 
