# 2022 12 20 10 39 2.253 40.5212 -124.1818 27.076 4.563 0.146 0.146 0.427 22 
1584B.NP 4.907 0.82 P 
89462.CE 5.047 0.80 P 
1023.NP 5.207 0.78 P 
1586.NP 5.387 0.82 P 
B045.PB 5.485 0.83 P 
1582.NP 5.727 0.82 P 
1581.NP 6.087 0.82 P 
B046.PB 6.105 0.81 P 
B932.PB 6.375 0.78 P 
BJES.BK 6.387 0.78 P 
89781.CE 6.447 0.81 P 
B047.PB 6.815 0.78 P 
KCO.NC 6.930 0.76 P 
KNEE.BK 7.137 0.55 P 
KCR.NC 7.287 0.65 P 
KPR.NC 7.637 0.62 P 
1580.NP 7.667 0.76 P 
KBU.NC 8.567 0.62 P 
B049.PB 8.635 0.77 P 
PRDS.BK 9.427 0.68 P 
89688.CE 9.567 0.75 P 
B935.PB 9.735 0.80 P 
KTD.NC 10.047 0.74 P 
KHMB.NC 10.160 0.60 P 
KMR.NC 10.180 0.63 P 
KCSB.NC 10.600 0.77 P 
BRIC.BK 10.657 0.50 P 
1591.NP 10.817 0.78 P 
KRP.NC 12.020 0.76 P 
99700.CE 13.347 0.63 P 
HAYF.BK 13.390 0.58 P 
KHBB.NC 13.760 0.61 P 
B934.PB 14.065 0.78 P 
79046.CE 14.507 0.76 P 
RVIT.BK 16.217 0.77 P 
WEAV.BK 16.347 0.53 P 
KOM.NC 16.350 0.56 P 
KFP.NC 18.157 0.60 P 
79036.CE 18.357 0.78 P 
79298.CE 18.477 0.78 P 
MNDO.BK 20.067 0.80 P 
LSF.NC 21.357 0.81 P 
79668.CE 21.437 0.79 P 
LBK.NC 21.607 0.75 P 
GROB.NC 22.027 0.52 P 
GBL.NC 22.747 0.59 P 
GHO.NC 24.157 0.51 P 
1584B.NP 8.837 0.69 S 
KMPB.NC 9.210 0.55 S 
B045.PB 9.765 0.79 S 
1586.NP 10.047 0.60 S 
KCT.NC 10.280 0.52 S 
RBOW.BK 10.417 0.55 S 
1582.NP 10.717 0.59 S 
B046.PB 11.055 0.74 S 
1581.NP 11.347 0.73 S 
BJES.BK 11.487 0.52 S 
89781.CE 11.757 0.77 S 
PETL.BK 12.097 0.61 S 
B047.PB 12.125 0.76 S 
KCO.NC 12.690 0.76 S 
1580.NP 13.817 0.76 S 
KPR.NC 13.827 0.53 S 
DMOR.BK 14.637 0.74 S 
KBU.NC 14.997 0.53 S 
B049.PB 15.355 0.75 S 
89688.CE 16.947 0.74 S 
B935.PB 17.435 0.74 S 
KHMB.NC 17.960 0.62 S 
KTD.NC 18.087 0.76 S 
BRIC.BK 18.447 0.51 S 
KCSB.NC 18.950 0.73 S 
1591.NP 19.047 0.74 S 
KRP.NC 21.350 0.76 S 
99700.CE 23.797 0.75 S 
KHBB.NC 23.960 0.56 S 
B934.PB 24.505 0.74 S 
79046.CE 25.477 0.73 S 
KOM.NC 28.400 0.76 S 
RVIT.BK 28.557 0.55 S 
WEAV.BK 28.587 0.50 S 
KFP.NC 31.527 0.57 S 
79298.CE 31.947 0.62 S 
DCMP.BK 35.030 0.58 S 
MNDO.BK 35.397 0.77 S 
TRIN.BK 35.520 0.52 S 
SCOT.BK 38.010 0.55 S 
LSF.NC 38.677 0.67 S 
GBL.NC 40.417 0.56 S 
GWR.NC 40.777 0.74 S 
GUMB.BK 42.327 0.52 S 
GHO.NC 42.757 0.55 S 
GTSB.BK 47.717 0.62 S 
# 2022 12 20 10 39 46.228 40.5366 -124.3309 16.670 2.804 0.166 0.166 0.371 23 
KCT.NC 4.055 0.66 P 
1586.NP 4.792 0.89 P 
89462.CE 5.292 0.87 P 
1582.NP 5.492 0.84 P 
KMPB.NC 5.495 0.68 P 
B046.PB 5.850 0.87 P 
1581.NP 5.882 0.81 P 
PETL.BK 6.382 0.60 P 
RBOW.BK 6.382 0.85 P 
B045.PB 6.530 0.88 P 
89781.CE 6.592 0.87 P 
KCO.NC 6.985 0.88 P 
B047.PB 7.190 0.87 P 
1580.NP 8.172 0.79 P 
KNEE.BK 8.282 0.51 P 
KPR.NC 8.522 0.69 P 
KCR.NC 9.002 0.88 P 
PRDS.BK 10.042 0.67 P 
KBU.NC 10.172 0.81 P 
B049.PB 10.270 0.86 P 
89688.CE 10.442 0.69 P 
KHMB.NC 11.455 0.79 P 
BRIC.BK 12.052 0.81 P 
1584B.NP 6.392 0.85 S 
KCT.NC 7.585 0.67 S 
1586.NP 9.022 0.85 S 
89462.CE 9.692 0.82 S 
KMPB.NC 9.715 0.64 S 
B046.PB 10.350 0.82 S 
RBOW.BK 11.252 0.63 S 
PETL.BK 11.272 0.57 S 
B045.PB 11.500 0.76 S 
89781.CE 12.222 0.80 S 
KCO.NC 12.265 0.79 S 
B047.PB 12.690 0.78 S 
1580.NP 14.642 0.80 S 
KPR.NC 15.342 0.64 S 
BJES.BK 15.372 0.73 S 
DMOR.BK 17.822 0.73 S 
PRDS.BK 18.056 0.51 S 
B049.PB 18.280 0.77 S 
KHMB.NC 20.605 0.78 S 
BRIC.BK 20.792 0.70 S 
# 2022 12 20 10 40 3.560 40.6176 -124.0978 19.482 2.710 0.180 0.180 0.435 24 
1586.NP 4.460 0.86 P 
1581.NP 4.670 0.83 P 
BJES.BK 4.690 0.75 P 
89781.CE 4.800 0.84 P 
89462.CE 4.840 0.85 P 
B045.PB 4.968 0.77 P 
KNEE.BK 5.440 0.65 P 
1584B.NP 5.470 0.85 P 
1580.NP 5.990 0.85 P 
KCR.NC 6.340 0.60 P 
KMPB.NC 6.433 0.63 P 
RBOW.BK 6.790 0.60 P 
B047.PB 8.198 0.82 P 
KHMB.NC 8.393 0.64 P 
KCO.NC 8.443 0.76 P 
KPR.NC 8.650 0.68 P 
B935.PB 9.078 0.83 P 
KBU.NC 9.240 0.64 P 
B049.PB 9.308 0.77 P 
KCSB.NC 10.013 0.78 P 
KMR.NC 10.753 0.81 P 
BRIC.BK 11.800 0.72 P 
KHBB.NC 12.553 0.72 P 
1586.NP 8.580 0.80 S 
89462.CE 8.970 0.82 S 
1581.NP 8.970 0.75 S 
89781.CE 8.970 0.71 S 
1023.NP 9.690 0.76 S 
KNEE.BK 9.770 0.56 S 
BJES.BK 9.930 0.80 S 
1584B.NP 10.010 0.80 S 
B045.PB 10.278 0.83 S 
KMPB.NC 10.403 0.66 S 
1580.NP 10.920 0.79 S 
RBOW.BK 12.120 0.57 S 
KCR.NC 12.660 0.74 S 
B046.PB 13.468 0.63 S 
B047.PB 14.548 0.77 S 
PETL.BK 14.700 0.53 S 
KCO.NC 15.053 0.78 S 
KHMB.NC 15.333 0.65 S 
KPR.NC 15.770 0.62 S 
KBU.NC 16.490 0.74 S 
B935.PB 16.658 0.82 S 
B049.PB 16.698 0.66 S 
KMR.NC 19.503 0.63 S 
BRIC.BK 21.160 0.73 S 
# 2022 12 20 10 40 16.868 40.5195 -124.4021 16.500 2.671 0.151 0.151 0.449 25 
KCT.NC 3.125 0.66 P 
1023.NP 4.662 0.86 P 
B046.PB 5.590 0.86 P 
89462.CE 5.642 0.84 P 
1586.NP 5.642 0.77 P 
PETL.BK 6.092 0.57 P 
KMPB.NC 6.205 0.64 P 
1581.NP 6.672 0.84 P 
RBOW.BK 6.952 0.51 P 
KCO.NC 7.035 0.86 P 
B045.PB 7.110 0.80 P 
B047.PB 7.590 0.81 P 
KPR.NC 8.902 0.58 P 
1580.NP 8.962 0.80 P 
KCR.NC 9.762 0.54 P 
DMOR.BK 10.222 0.77 P 
PRDS.BK 10.532 0.56 P 
89688.CE 10.662 0.81 P 
KBU.NC 10.802 0.65 P 
B049.PB 10.950 0.80 P 
BRIC.BK 12.302 0.54 P 
B935.PB 12.530 0.78 P 
1591.NP 12.732 0.83 P 
KMR.NC 12.765 0.62 P 
1584B.NP 6.972 0.85 S 
KCT.NC 7.495 0.65 S 
1023.NP 8.782 0.80 S 
B046.PB 10.060 0.75 S 
1586.NP 10.332 0.68 S 
KMPB.NC 10.915 0.65 S 
PETL.BK 10.942 0.57 S 
89462.CE 11.222 0.77 S 
RBOW.BK 12.052 0.65 S 
1581.NP 12.152 0.73 S 
KCO.NC 12.345 0.83 S 
B047.PB 13.050 0.74 S 
89781.CE 13.462 0.66 S 
KPR.NC 15.952 0.72 S 
1580.NP 15.972 0.77 S 
KCR.NC 17.542 0.70 S 
PRDS.BK 18.142 0.54 S 
89688.CE 18.572 0.69 S 
KBU.NC 18.582 0.56 S 
B049.PB 19.300 0.70 S 
DMOR.BK 19.382 0.82 S 
BRIC.BK 21.712 0.55 S 
1591.NP 23.022 0.76 S 
B934.PB 27.430 0.71 S 
79046.CE 27.702 0.62 S 
# 2022 12 20 10 40 29.878 40.5033 -124.4347 18.751 2.568 0.210 0.210 0.455 26 
1584B.NP 4.572 0.71 P 
KCT.NC 4.625 0.58 P 
89462.CE 5.042 0.62 P 
B046.PB 5.820 0.73 P 
PETL.BK 5.992 0.56 P 
1586.NP 6.032 0.71 P 
KMPB.NC 6.525 0.60 P 
KCO.NC 6.705 0.60 P 
RBOW.BK 7.152 0.54 P 
B047.PB 7.410 0.72 P 
KPR.NC 8.812 0.56 P 
PRDS.BK 9.892 0.51 P 
KCR.NC 9.912 0.52 P 
1584B.NP 8.222 0.75 S 
KCT.NC 8.635 0.54 S 
1023.NP 9.612 0.71 S 
B046.PB 10.330 0.73 S 
1586.NP 11.262 0.73 S 
KMPB.NC 11.505 0.58 S 
89462.CE 12.122 0.53 S 
KCO.NC 12.295 0.71 S 
RBOW.BK 12.532 0.52 S 
1581.NP 12.532 0.65 S 
B047.PB 12.980 0.67 S 
B045.PB 13.450 0.67 S 
KPR.NC 15.692 0.58 S 
B049.PB 19.520 0.66 S 
BRIC.BK 21.512 0.58 S 
# 2022 12 20 10 40 43.813 40.5696 -123.9841 25.585 2.369 0.209 0.209 0.886 27 
BJES.BK 4.817 0.65 P 
B045.PB 5.225 0.82 P 
89462.CE 6.047 0.87 P 
KMPB.NC 6.170 0.70 P 
1586.NP 6.387 0.86 P 
89781.CE 6.777 0.85 P 
RBOW.BK 6.787 0.57 P 
1581.NP 7.007 0.90 P 
B046.PB 7.115 0.84 P 
KCSB.NC 7.780 0.53 P 
PETL.BK 7.797 0.77 P 
B047.PB 7.825 0.86 P 
1584B.NP 7.837 0.51 P 
KCO.NC 7.960 0.81 P 
KBU.NC 8.137 0.76 P 
KPR.NC 8.597 0.65 P 
B049.PB 9.645 0.83 P 
PRDS.BK 10.411 0.60 P 
89688.CE 10.677 0.85 P 
KHBB.NC 10.780 0.56 P 
BRIC.BK 11.637 0.81 P 
BJES.BK 8.717 0.60 S 
KNEE.BK 9.987 0.58 S 
KMPB.NC 10.200 0.69 S 
B045.PB 10.205 0.76 S 
89462.CE 10.267 0.84 S 
KCR.NC 10.317 0.57 S 
1023.NP 10.797 0.81 S 
1586.NP 10.987 0.86 S 
RBOW.BK 11.367 0.60 S 
B046.PB 11.575 0.73 S 
1581.NP 12.237 0.85 S 
89781.CE 12.247 0.84 S 
B935.PB 12.765 0.56 S 
B047.PB 12.995 0.82 S 
1580.NP 13.217 0.82 S 
KCO.NC 13.280 0.83 S 
KHMB.NC 14.120 0.54 S 
KCSB.NC 14.160 0.71 S 
KPR.NC 14.767 0.65 S 
KMR.NC 15.510 0.51 S 
KBU.NC 16.157 0.54 S 
PRDS.BK 17.061 0.55 S 
89688.CE 18.147 0.82 S 
BRIC.BK 19.167 0.74 S 
B934.PB 25.235 0.70 S 
79046.CE 26.277 0.65 S 
# 2022 12 20 10 41 6.491 40.3734 -124.2096 11.281 1.580 0.241 0.241 0.659 28 
B045.PB 3.637 0.59 P 
KCT.NC 4.072 0.73 P 
PETL.BK 4.729 0.66 P 
1584B.NP 4.949 0.67 P 
1586.NP 7.649 0.72 P 
KHBB.NC 16.052 0.55 P 
B046.PB 4.167 0.65 S 
RBOW.BK 5.579 0.74 S 
KCO.NC 6.202 0.68 S 
B047.PB 6.797 0.75 S 
KCT.NC 7.172 0.52 S 
KPR.NC 8.859 0.54 S 
1023.NP 10.669 0.72 S 
1586.NP 11.729 0.70 S 
89688.CE 12.679 0.61 S 
# 2022 12 20 10 41 11.928 40.5628 -123.9072 25.508 2.029 0.325 0.325 0.917 29 
BJES.BK 4.282 0.63 P 
KMPB.NC 4.505 0.58 P 
KCR.NC 6.032 0.52 P 
B935.PB 6.750 0.87 P 
PETL.BK 7.032 0.77 P 
KCSB.NC 7.665 0.85 P 
KHBB.NC 10.645 0.62 P 
1591.NP 10.842 0.79 P 
KCR.NC 10.112 0.66 S 
KNEE.BK 11.242 0.70 S 
B935.PB 11.610 0.78 S 
1581.NP 12.822 0.59 S 
KCSB.NC 12.995 0.77 S 
B049.PB 13.210 0.74 S 
KHMB.NC 15.005 0.55 S 
KMR.NC 16.125 0.79 S 
1591.NP 17.372 0.64 S 
HAYF.BK 17.805 0.54 S 
KHBB.NC 18.335 0.62 S 
BRIC.BK 18.942 0.55 S 
89688.CE 19.512 0.57 S 
# 2022 12 20 10 41 32.877 40.6571 -124.0680 28.475 2.242 0.245 0.245 0.454 30 
1581.NP 5.233 0.71 P 
89781.CE 5.253 0.73 P 
1586.NP 5.493 0.71 P 
1580.NP 6.223 0.75 P 
DMOR.BK 6.253 0.54 P 
B045.PB 6.741 0.67 P 
KCR.NC 7.883 0.58 P 
B935.PB 8.311 0.66 P 
KCSB.NC 10.046 0.69 P 
KRP.NC 10.346 0.50 P 
89781.CE 9.363 0.70 S 
1581.NP 9.813 0.70 S 
1586.NP 9.983 0.68 S 
1580.NP 10.733 0.70 S 
BJES.BK 10.883 0.71 S 
1023.NP 11.233 0.64 S 
1584B.NP 11.633 0.69 S 
B045.PB 11.721 0.62 S 
KMPB.NC 11.966 0.52 S 
DMOR.BK 12.233 0.72 S 
KCR.NC 13.563 0.52 S 
KHMB.NC 14.736 0.69 S 
B049.PB 16.221 0.56 S 
B935.PB 16.701 0.64 S 
# 2022 12 20 10 41 41.307 40.4939 -124.2822 31.362 2.422 0.222 0.222 1.011 31 
RBOW.BK 5.763 0.58 P 
1586.NP 6.533 0.89 P 
B047.PB 6.701 0.84 P 
PETL.BK 6.713 0.67 P 
KCO.NC 6.886 0.77 P 
KNEE.BK 6.983 0.58 P 
89462.CE 7.203 0.81 P 
1581.NP 7.323 0.90 P 
KPR.NC 7.493 0.59 P 
KMPB.NC 7.496 0.72 P 
89781.CE 7.903 0.88 P 
B045.PB 8.251 0.81 P 
KBU.NC 8.453 0.76 P 
BJES.BK 9.213 0.84 P 
PRDS.BK 9.343 0.73 P 
89688.CE 9.543 0.83 P 
KCR.NC 10.363 0.77 P 
BRIC.BK 10.623 0.56 P 
KMR.NC 11.096 0.61 P 
1591.NP 12.923 0.64 P 
79046.CE 14.543 0.73 P 
1584B.NP 9.273 0.84 S 
1023.NP 9.863 0.85 S 
KCT.NC 10.146 0.67 S 
RBOW.BK 10.293 0.52 S 
1586.NP 10.773 0.84 S 
89781.CE 11.473 0.58 S 
PETL.BK 11.763 0.68 S 
89462.CE 11.823 0.79 S 
B047.PB 11.871 0.84 S 
1581.NP 12.163 0.86 S 
B046.PB 12.671 0.85 S 
KNEE.BK 12.697 0.70 S 
B045.PB 13.391 0.76 S 
KPR.NC 13.623 0.83 S 
B049.PB 15.091 0.73 S 
KBU.NC 15.143 0.77 S 
BJES.BK 15.303 0.73 S 
89688.CE 17.023 0.74 S 
BRIC.BK 18.033 0.63 S 
KHMB.NC 20.796 0.71 S 
B934.PB 24.191 0.71 S 
79046.CE 24.743 0.55 S 
# 2022 12 20 10 41 50.764 40.2883 -123.5179 39.966 2.263 0.558 0.558 0.815 32 
KMR.NC 8.529 0.67 P 
B934.PB 9.054 0.65 P 
PRDS.BK 10.126 0.64 P 
B046.PB 10.854 0.54 P 
PETL.BK 11.786 0.56 P 
B047.PB 11.894 0.60 P 
1584B.NP 13.686 0.52 P 
B049.PB 13.664 0.61 S 
KBU.NC 13.806 0.51 S 
KCSB.NC 13.829 0.51 S 
B046.PB 20.294 0.62 S 
# 2022 12 20 10 42 25.580 40.5429 -124.1507 23.452 1.768 0.239 0.239 0.503 33 
89462.CE 4.690 0.86 P 
KMPB.NC 4.723 0.64 P 
B045.PB 5.098 0.87 P 
1023.NP 5.150 0.86 P 
1584B.NP 5.280 0.87 P 
1581.NP 5.660 0.81 P 
RBOW.BK 5.710 0.60 P 
BJES.BK 5.890 0.67 P 
89781.CE 6.030 0.79 P 
KNEE.BK 6.490 0.62 P 
B046.PB 6.788 0.84 P 
KCR.NC 7.200 0.68 P 
B047.PB 7.428 0.88 P 
89688.CE 8.530 0.59 P 
KBU.NC 8.590 0.85 P 
B049.PB 8.718 0.85 P 
B935.PB 9.538 0.84 P 
BRIC.BK 11.330 0.70 P 
KHBB.NC 13.133 0.54 P 
KMPB.NC 8.663 0.67 S 
89462.CE 8.810 0.65 S 
1586.NP 9.350 0.90 S 
1584B.NP 9.410 0.84 S 
1023.NP 9.670 0.86 S 
B045.PB 9.698 0.82 S 
RBOW.BK 10.090 0.62 S 
BJES.BK 10.420 0.67 S 
89781.CE 10.820 0.78 S 
KNEE.BK 11.710 0.56 S 
KCR.NC 12.540 0.63 S 
KCO.NC 12.613 0.78 S 
B047.PB 13.008 0.83 S 
PRDS.BK 16.160 0.53 S 
B049.PB 16.638 0.54 S 
B935.PB 16.818 0.75 S 
# 2022 12 20 10 42 58.569 40.5588 -124.2204 20.160 1.860 0.210 0.210 0.542 34 
KCT.NC 4.074 0.54 P 
1584B.NP 4.561 0.70 P 
1586.NP 4.681 0.76 P 
1581.NP 5.221 0.74 P 
89781.CE 5.611 0.73 P 
B045.PB 5.939 0.75 P 
BJES.BK 6.451 0.71 P 
RBOW.BK 6.511 0.55 P 
KNEE.BK 6.671 0.50 P 
B047.PB 7.469 0.66 P 
KCO.NC 7.604 0.69 P 
KCR.NC 7.681 0.58 P 
1580.NP 8.031 0.57 P 
KBU.NC 9.221 0.57 P 
B935.PB 10.149 0.72 P 
89688.CE 10.231 0.57 P 
KHMB.NC 11.434 0.51 P 
KHBB.NC 13.784 0.52 P 
1023.NP 7.931 0.71 S 
1586.NP 8.781 0.75 S 
89462.CE 9.361 0.68 S 
KMPB.NC 9.624 0.74 S 
1581.NP 9.771 0.71 S 
89781.CE 10.201 0.63 S 
B045.PB 10.579 0.66 S 
RBOW.BK 11.241 0.66 S 
BJES.BK 11.741 0.53 S 
KNEE.BK 11.961 0.53 S 
KCR.NC 13.711 0.55 S 
KPR.NC 14.921 0.70 S 
B049.PB 16.449 0.56 S 
KBU.NC 16.471 0.70 S 
89688.CE 18.061 0.62 S 
BRIC.BK 20.521 0.56 S 
# 2022 12 20 10 43 9.406 40.5280 -124.3482 16.622 2.044 0.159 0.159 0.573 35 
1584B.NP 3.754 0.90 P 
KCT.NC 4.217 0.68 P 
1586.NP 4.404 0.92 P 
KMPB.NC 5.717 0.69 P 
RBOW.BK 6.564 0.61 P 
B045.PB 6.812 0.88 P 
89781.CE 7.044 0.86 P 
KNEE.BK 7.514 0.87 P 
B047.PB 7.752 0.83 P 
KPR.NC 8.844 0.67 P 
KCR.NC 9.204 0.62 P 
KBU.NC 9.424 0.85 P 
DMOR.BK 9.564 0.61 P 
B049.PB 10.352 0.87 P 
B935.PB 11.992 0.84 P 
1584B.NP 6.594 0.83 S 
KCT.NC 7.397 0.65 S 
1023.NP 8.154 0.85 S 
1586.NP 9.524 0.87 S 
B046.PB 9.692 0.84 S 
KMPB.NC 9.977 0.63 S 
PETL.BK 10.944 0.70 S 
1581.NP 11.384 0.72 S 
RBOW.BK 11.504 0.58 S 
B045.PB 11.842 0.81 S 
KCO.NC 12.307 0.83 S 
89781.CE 12.534 0.88 S 
B047.PB 12.952 0.76 S 
1580.NP 15.144 0.73 S 
KPR.NC 15.364 0.63 S 
KNEE.BK 15.724 0.61 S 
KCR.NC 16.224 0.85 S 
DMOR.BK 18.064 0.82 S 
KBU.NC 18.524 0.62 S 
B049.PB 18.532 0.82 S 
B935.PB 21.562 0.77 S 
1591.NP 22.514 0.71 S 
KHBB.NC 29.717 0.61 S 
# 2022 12 20 10 43 39.613 40.5123 -124.4090 15.932 2.861 0.116 0.116 0.571 36 
1584B.NP 3.897 0.86 P 
KCT.NC 4.000 0.64 P 
1023.NP 4.617 0.94 P 
1586.NP 5.697 0.93 P 
B046.PB 5.825 0.91 P 
89462.CE 6.257 0.89 P 
KMPB.NC 6.270 0.64 P 
PETL.BK 6.347 0.59 P 
1581.NP 6.757 0.92 P 
RBOW.BK 6.947 0.57 P 
KCO.NC 7.020 0.92 P 
B045.PB 7.505 0.91 P 
89781.CE 7.527 0.92 P 
B047.PB 7.545 0.91 P 
BJES.BK 8.807 0.67 P 
KPR.NC 9.077 0.64 P 
1580.NP 9.097 0.87 P 
KNEE.BK 9.191 0.58 P 
KCR.NC 9.897 0.62 P 
PRDS.BK 10.271 0.60 P 
89688.CE 10.537 0.86 P 
KBU.NC 10.887 0.62 P 
B049.PB 11.015 0.90 P 
KTD.NC 11.317 0.83 P 
BRIC.BK 12.507 0.55 P 
B935.PB 12.665 0.90 P 
KMR.NC 12.780 0.86 P 
1591.NP 13.077 0.88 P 
KCSB.NC 13.520 0.87 P 
B934.PB 15.645 0.90 P 
79046.CE 16.017 0.89 P 
HAYF.BK 16.470 0.57 P 
KIP.NC 18.277 0.55 P 
KOM.NC 18.350 0.90 P 
WEAV.BK 19.057 0.51 P 
KFP.NC 19.857 0.68 P 
DCMP.BK 22.008 0.64 P 
PETY.BK 22.528 0.66 P 
TRIN.BK 23.400 0.71 P 
GNR.NC 23.417 0.65 P 
GBL.NC 24.267 0.92 P 
LBK.NC 24.317 0.86 P 
SCOT.BK 24.760 0.71 P 
GVA.NC 25.467 0.78 P 
GUMB.BK 27.151 0.68 P 
1584B.NP 6.877 0.81 S 
KCT.NC 7.320 0.69 S 
1023.NP 8.797 0.89 S 
B046.PB 10.085 0.84 S 
1586.NP 10.427 0.88 S 
PETL.BK 10.797 0.60 S 
KMPB.NC 10.970 0.66 S 
89462.CE 11.277 0.85 S 
1581.NP 12.267 0.88 S 
KCO.NC 12.280 0.85 S 
RBOW.BK 12.467 0.60 S 
B047.PB 13.085 0.82 S 
B045.PB 13.085 0.76 S 
89781.CE 13.607 0.88 S 
BJES.BK 15.647 0.60 S 
KPR.NC 15.997 0.68 S 
1580.NP 16.127 0.85 S 
KNEE.BK 16.981 0.60 S 
KCR.NC 17.637 0.71 S 
PRDS.BK 18.147 0.57 S 
89688.CE 18.467 0.85 S 
KBU.NC 19.387 0.69 S 
DMOR.BK 19.437 0.53 S 
B049.PB 19.485 0.86 S 
BRIC.BK 21.787 0.56 S 
KHMB.NC 21.910 0.80 S 
KMR.NC 22.230 0.70 S 
KRP.NC 22.300 0.53 S 
B935.PB 22.585 0.88 S 
1591.NP 23.157 0.84 S 
KCSB.NC 24.280 0.79 S 
B934.PB 27.085 0.88 S 
79046.CE 28.117 0.89 S 
HAYF.BK 30.320 0.74 S 
KOM.NC 31.540 0.83 S 
KIP.NC 32.077 0.86 S 
KFP.NC 34.637 0.61 S 
KBN.NC 37.817 0.70 S 
DCMP.BK 38.290 0.55 S 
GNR.NC 40.677 0.67 S 
GBL.NC 41.637 0.56 S 
SCOT.BK 42.538 0.63 S 
GVA.NC 42.917 0.62 S 
TRIN.BK 43.450 0.67 S 
GHO.NC 45.117 0.73 S 
GUMB.BK 46.917 0.64 S 
# 2022 12 20 10 44 28.410 40.5117 -124.3387 17.859 2.073 0.154 0.154 0.483 37 
1584B.NP 3.790 0.86 P 
KCT.NC 4.273 0.62 P 
1023.NP 4.330 0.92 P 
KMPB.NC 5.103 0.67 P 
1586.NP 5.270 0.91 P 
89462.CE 5.520 0.86 P 
RBOW.BK 6.220 0.66 P 
B045.PB 6.288 0.91 P 
89781.CE 7.070 0.91 P 
KPR.NC 7.820 0.63 P 
BJES.BK 7.960 0.88 P 
KNEE.BK 8.594 0.73 P 
KCR.NC 8.740 0.70 P 
1580.NP 8.780 0.83 P 
89688.CE 9.350 0.80 P 
B049.PB 9.558 0.87 P 
KBU.NC 10.240 0.86 P 
BRIC.BK 10.950 0.85 P 
B935.PB 11.388 0.85 P 
KMR.NC 11.723 0.86 P 
KHMB.NC 11.843 0.58 P 
1584B.NP 6.170 0.59 S 
KCT.NC 7.663 0.63 S 
1023.NP 8.130 0.86 S 
1586.NP 9.550 0.84 S 
KMPB.NC 9.753 0.64 S 
PETL.BK 11.030 0.86 S 
RBOW.BK 11.370 0.66 S 
B045.PB 11.578 0.83 S 
89781.CE 12.600 0.82 S 
BJES.BK 14.140 0.57 S 
KPR.NC 14.600 0.83 S 
1580.NP 15.270 0.78 S 
KCR.NC 16.180 0.66 S 
89688.CE 17.160 0.74 S 
KBU.NC 17.910 0.62 S 
B049.PB 17.968 0.84 S 
KHMB.NC 20.143 0.74 S 
BRIC.BK 20.230 0.80 S 
KMR.NC 21.253 0.63 S 
B935.PB 21.368 0.73 S 
1591.NP 22.130 0.77 S 
B934.PB 26.628 0.63 S 
# 2022 12 20 10 44 39.525 40.9047 -124.9233 12.535 2.764 1.123 1.123 0.985 38 
1586.NP 12.905 0.73 P 
B046.PB 13.273 0.70 P 
KMPB.NC 13.548 0.59 P 
PETL.BK 13.715 0.50 P 
KCT.NC 14.398 0.57 P 
KPR.NC 16.385 0.56 P 
PRDS.BK 17.775 0.51 P 
89688.CE 18.035 0.73 P 
79046.CE 23.485 0.77 P 
1586.NP 22.685 0.52 S 
KMPB.NC 25.328 0.58 S 
KRP.NC 25.888 0.59 S 
DMOR.BK 26.845 0.59 S 
KHMB.NC 29.608 0.53 S 
KCR.NC 30.245 0.56 S 
KPR.NC 30.525 0.54 S 
B049.PB 32.753 0.68 S 
89688.CE 33.085 0.60 S 
B934.PB 41.453 0.67 S 
79046.CE 42.235 0.62 S 
RVIT.BK 46.085 0.66 S 
KIP.NC 46.185 0.67 S 
KFP.NC 48.485 0.57 S 
# 2022 12 20 10 44 48.157 40.5118 -124.2769 20.483 2.688 0.302 0.302 0.767 39 
89462.CE 4.843 0.76 P 
1584B.NP 5.253 0.66 P 
RBOW.BK 5.683 0.82 P 
KCT.NC 5.786 0.62 P 
KCO.NC 5.886 0.78 P 
89781.CE 6.223 0.83 P 
B047.PB 6.331 0.83 P 
KPR.NC 7.763 0.70 P 
1580.NP 7.793 0.87 P 
KCR.NC 8.613 0.82 P 
PRDS.BK 9.153 0.60 P 
KBU.NC 9.643 0.62 P 
B049.PB 9.801 0.80 P 
KTD.NC 10.093 0.77 P 
BRIC.BK 11.283 0.52 P 
1591.NP 11.773 0.81 P 
KIP.NC 16.933 0.75 P 
B046.PB 8.891 0.64 S 
KCO.NC 11.206 0.81 S 
B047.PB 11.831 0.84 S 
89781.CE 12.223 0.82 S 
KPR.NC 14.773 0.65 S 
1580.NP 14.773 0.81 S 
KBU.NC 16.293 0.72 S 
89688.CE 17.463 0.81 S 
BRIC.BK 20.533 0.53 S 
B934.PB 26.401 0.77 S 
79046.CE 26.933 0.81 S 
KIP.NC 28.533 0.61 S 
KBN.NC 31.453 0.51 S 
# 2022 12 20 10 44 53.810 40.5823 -124.3074 26.032 3.078 0.303 0.303 1.059 40 
1584B.NP 4.380 0.85 P 
KCT.NC 4.823 0.63 P 
89462.CE 5.800 0.84 P 
B046.PB 6.748 0.85 P 
RBOW.BK 7.160 0.82 P 
PETL.BK 7.270 0.80 P 
KNEE.BK 7.670 0.57 P 
BJES.BK 7.750 0.60 P 
KCO.NC 7.803 0.85 P 
KCR.NC 9.090 0.75 P 
KTD.NC 9.340 0.65 P 
KHMB.NC 10.583 0.54 P 
B935.PB 11.448 0.74 P 
KCSB.NC 12.203 0.79 P 
1584B.NP 7.880 0.84 S 
1023.NP 8.270 0.74 S 
KCT.NC 8.693 0.64 S 
89462.CE 10.590 0.82 S 
KMPB.NC 10.973 0.60 S 
B046.PB 11.888 0.75 S 
B045.PB 12.408 0.76 S 
KCO.NC 13.833 0.76 S 
BJES.BK 13.910 0.79 S 
B047.PB 13.978 0.76 S 
KNEE.BK 14.174 0.52 S 
KHMB.NC 15.473 0.54 S 
KCR.NC 15.900 0.61 S 
KTD.NC 16.360 0.61 S 
1591.NP 16.850 0.65 S 
B935.PB 20.458 0.59 S 
# 2022 12 20 10 45 22.490 40.5389 -124.3261 18.387 2.032 0.199 0.199 0.578 41 
1586.NP 4.710 0.87 P 
89462.CE 5.220 0.87 P 
1584B.NP 5.560 0.68 P 
KMPB.NC 5.583 0.67 P 
B046.PB 5.858 0.84 P 
RBOW.BK 6.280 0.64 P 
PETL.BK 6.380 0.76 P 
B045.PB 6.478 0.87 P 
89781.CE 6.500 0.82 P 
KCO.NC 6.963 0.87 P 
B047.PB 7.228 0.85 P 
BJES.BK 7.630 0.85 P 
KPR.NC 8.060 0.51 P 
1580.NP 8.140 0.83 P 
KCR.NC 8.820 0.64 P 
KBU.NC 9.280 0.81 P 
B049.PB 9.288 0.80 P 
89688.CE 10.460 0.79 P 
1023.NP 7.540 0.81 S 
1586.NP 8.920 0.84 S 
89462.CE 9.640 0.82 S 
KMPB.NC 9.943 0.64 S 
B046.PB 10.338 0.73 S 
RBOW.BK 11.140 0.65 S 
KCO.NC 12.263 0.73 S 
B047.PB 12.638 0.66 S 
1580.NP 14.640 0.82 S 
KPR.NC 15.740 0.81 S 
KCR.NC 15.960 0.71 S 
B049.PB 17.568 0.81 S 
PRDS.BK 17.840 0.56 S 
KBU.NC 18.140 0.75 S 
BRIC.BK 20.920 0.70 S 
B934.PB 28.828 0.62 S 
