# 2022 12 20 0 57 25.304 40.6448 -124.3003 8.156 0.459 0.166 0.166 0.503 1 
1582.NP 2.656 0.71 P 
KCT.NC 4.869 0.78 P 
KNEE.BK 7.620 0.71 P 
B046.PB 7.814 0.83 P 
B932.PB 8.634 0.80 P 
PETL.BK 9.106 0.66 P 
B047.PB 9.224 0.82 P 
DMOR.BK 9.456 0.72 P 
KCR.NC 10.226 0.80 P 
B049.PB 12.134 0.83 P 
KHMB.NC 12.269 0.63 P 
B935.PB 12.824 0.81 P 
KMR.NC 13.779 0.81 P 
1582.NP 5.596 0.67 S 
1023.NP 5.846 0.63 S 
KCT.NC 9.029 0.75 S 
KMPB.NC 11.889 0.77 S 
KNEE.BK 13.440 0.58 S 
B045.PB 13.544 0.78 S 
B046.PB 14.354 0.81 S 
PETL.BK 15.856 0.65 S 
B932.PB 16.254 0.83 S 
DMOR.BK 17.306 0.54 S 
B047.PB 17.434 0.85 S 
KHMB.NC 19.809 0.63 S 
B049.PB 21.664 0.80 S 
KMR.NC 24.989 0.74 S 
KHBB.NC 29.549 0.60 S 
# 2022 12 20 1 21 51.303 39.7714 -122.5413 22.506 1.941 0.569 0.569 0.398 2 
GROB.NC 4.737 0.57 P 
LRB.NC 7.657 0.72 P 
PETY.BK 9.040 0.55 P 
GTSB.BK 9.147 0.72 P 
KBN.NC 10.737 0.80 P 
GSR.NC 12.307 0.79 P 
GVA.NC 12.667 0.73 P 
GHGB.NC 13.870 0.81 P 
GROB.NC 9.707 0.78 S 
LRB.NC 14.457 0.82 S 
KBN.NC 19.467 0.72 S 
GHGB.NC 25.190 0.71 S 
# 2022 12 20 2 44 52.382 40.4189 -124.2338 23.295 0.012 0.385 0.385 0.319 3 
B047.PB 4.306 0.87 P 
B046.PB 4.726 0.86 P 
B932.PB 4.876 0.86 P 
KCT.NC 5.451 0.74 P 
B045.PB 5.486 0.83 P 
KPR.NC 6.438 0.86 P 
BRIC.BK 8.668 0.81 P 
B046.PB 8.386 0.83 S 
B932.PB 8.676 0.84 S 
RBOW.BK 9.098 0.53 S 
PETL.BK 9.238 0.59 S 
B047.PB 9.716 0.81 S 
B045.PB 9.866 0.70 S 
KPR.NC 11.568 0.83 S 
B049.PB 14.556 0.79 S 
# 2022 12 20 3 6 59.875 40.3154 -124.3610 20.037 0.914 0.193 0.193 0.333 4 
PETL.BK 3.725 0.61 P 
B046.PB 3.803 0.87 P 
B932.PB 4.103 0.84 P 
KCO.NC 4.178 0.89 P 
B047.PB 4.803 0.88 P 
KCT.NC 5.308 0.72 P 
RBOW.BK 5.425 0.61 P 
KMPB.NC 5.728 0.89 P 
KPR.NC 6.525 0.72 P 
PRDS.BK 7.085 0.65 P 
B045.PB 7.103 0.83 P 
89688.CE 7.165 0.86 P 
1586.NP 8.175 0.71 P 
KBU.NC 8.775 0.88 P 
KCR.NC 9.465 0.85 P 
BRIC.BK 9.565 0.57 P 
KMR.NC 10.858 0.87 P 
PETL.BK 6.725 0.59 S 
B046.PB 6.873 0.85 S 
B932.PB 7.443 0.86 S 
KCO.NC 7.588 0.83 S 
B047.PB 8.623 0.85 S 
RBOW.BK 9.815 0.69 S 
KCT.NC 9.988 0.62 S 
KMPB.NC 10.478 0.65 S 
KPR.NC 11.245 0.63 S 
B045.PB 12.513 0.84 S 
89688.CE 12.545 0.80 S 
1586.NP 15.255 0.61 S 
B049.PB 15.903 0.81 S 
KCR.NC 16.435 0.85 S 
BRIC.BK 16.655 0.65 S 
KNEE.BK 18.975 0.58 S 
KMR.NC 19.178 0.81 S 
DMOR.BK 21.765 0.69 S 
# 2022 12 20 3 18 27.700 40.3648 -124.2772 28.226 0.909 0.219 0.219 0.477 5 
B046.PB 4.758 0.91 P 
B932.PB 4.898 0.92 P 
B047.PB 5.348 0.92 P 
KMPB.NC 5.513 0.57 P 
KCT.NC 5.753 0.89 P 
B045.PB 6.348 0.87 P 
PETL.BK 6.440 0.64 P 
KPR.NC 6.510 0.72 P 
PRDS.BK 7.464 0.71 P 
89688.CE 7.500 0.91 P 
KCR.NC 8.160 0.88 P 
KBU.NC 8.220 0.90 P 
B049.PB 8.398 0.92 P 
BRIC.BK 9.420 0.67 P 
KMR.NC 9.883 0.89 P 
DMOR.BK 11.790 0.78 P 
B046.PB 8.698 0.89 S 
B932.PB 8.888 0.88 S 
PETL.BK 9.020 0.65 S 
B047.PB 9.678 0.88 S 
KCO.NC 9.873 0.86 S 
KMPB.NC 10.113 0.72 S 
RBOW.BK 10.190 0.72 S 
KCT.NC 10.653 0.83 S 
B045.PB 11.328 0.87 S 
KPR.NC 11.630 0.61 S 
PRDS.BK 13.070 0.59 S 
89688.CE 13.120 0.79 S 
KCR.NC 14.910 0.87 S 
B049.PB 14.918 0.84 S 
KBU.NC 15.190 0.85 S 
BRIC.BK 16.490 0.61 S 
KMR.NC 17.593 0.87 S 
B935.PB 19.518 0.81 S 
B934.PB 21.558 0.70 S 
KHMB.NC 22.303 0.71 S 
# 2022 12 20 4 45 40.465 40.2517 -123.6909 33.946 0.879 0.230 0.230 0.346 6 
B049.PB 5.733 0.92 P 
KMR.NC 5.738 0.91 P 
KBU.NC 6.105 0.60 P 
KCR.NC 6.755 0.90 P 
B935.PB 7.473 0.92 P 
BRIC.BK 7.615 0.55 P 
KPR.NC 7.645 0.57 P 
B045.PB 7.853 0.91 P 
PRDS.BK 7.879 0.71 P 
RBOW.BK 8.275 0.91 P 
B047.PB 8.713 0.93 P 
KMPB.NC 8.768 0.91 P 
B934.PB 8.853 0.91 P 
B932.PB 9.003 0.93 P 
DMOR.BK 9.175 0.59 P 
HAYF.BK 9.856 0.61 P 
B046.PB 9.893 0.87 P 
KHBB.NC 11.258 0.89 P 
KFP.NC 12.245 0.74 P 
PETY.BK 13.156 0.56 P 
B049.PB 10.043 0.85 S 
KMR.NC 10.178 0.76 S 
KBU.NC 10.945 0.66 S 
KCR.NC 11.985 0.81 S 
BRIC.BK 12.975 0.63 S 
B935.PB 13.413 0.86 S 
B045.PB 13.793 0.89 S 
KPR.NC 13.945 0.83 S 
PRDS.BK 14.025 0.63 S 
RBOW.BK 14.715 0.84 S 
B934.PB 15.543 0.83 S 
KMPB.NC 15.748 0.88 S 
B047.PB 15.833 0.87 S 
B932.PB 16.503 0.89 S 
DMOR.BK 17.245 0.53 S 
B046.PB 17.493 0.84 S 
HAYF.BK 17.516 0.64 S 
KHBB.NC 19.538 0.88 S 
PETY.BK 23.348 0.63 S 
# 2022 12 20 4 56 46.103 40.2406 -123.6917 33.510 1.105 0.228 0.228 0.323 7 
B049.PB 5.635 0.91 P 
KMR.NC 5.670 0.89 P 
KBU.NC 6.017 0.67 P 
KCR.NC 6.787 0.92 P 
B935.PB 7.365 0.92 P 
KPR.NC 7.537 0.69 P 
B045.PB 7.735 0.91 P 
PRDS.BK 7.777 0.61 P 
B047.PB 8.605 0.91 P 
B934.PB 8.775 0.92 P 
B932.PB 8.935 0.92 P 
DMOR.BK 9.127 0.62 P 
B046.PB 9.775 0.88 P 
HAYF.BK 9.798 0.62 P 
KHBB.NC 11.240 0.89 P 
KFP.NC 12.187 0.85 P 
PETY.BK 13.150 0.67 P 
TRIN.BK 18.358 0.79 P 
B049.PB 9.905 0.86 S 
KMR.NC 10.110 0.67 S 
KBU.NC 10.867 0.72 S 
KCR.NC 11.907 0.87 S 
BRIC.BK 12.817 0.59 S 
B935.PB 13.345 0.85 S 
B045.PB 13.745 0.86 S 
PRDS.BK 13.807 0.58 S 
KPR.NC 14.067 0.66 S 
BJES.BK 15.217 0.52 S 
B934.PB 15.605 0.85 S 
B932.PB 16.305 0.87 S 
HAYF.BK 17.480 0.66 S 
B046.PB 17.535 0.77 S 
KHBB.NC 19.670 0.88 S 
KFP.NC 21.117 0.76 S 
PETY.BK 23.298 0.61 S 
TRIN.BK 32.350 0.53 S 
# 2022 12 20 5 38 3.864 39.3162 -123.2328 5.795 1.218 0.373 0.373 0.553 8 
GVA.NC 2.556 0.63 P 
GWR.NC 2.896 0.66 P 
DCMP.BK 3.447 0.61 P 
GCWB.NC 4.646 0.84 P 
KRK.NC 5.526 0.85 P 
KFP.NC 7.346 0.82 P 
GHO.NC 7.626 0.79 P 
GHGB.NC 7.709 0.83 P 
GSR.NC 9.856 0.81 P 
B934.PB 15.034 0.56 P 
GVA.NC 4.756 0.70 S 
GWR.NC 5.326 0.64 S 
DCMP.BK 6.319 0.60 S 
GCWB.NC 8.106 0.82 S 
KFP.NC 12.736 0.78 S 
GHO.NC 13.266 0.73 S 
GHGB.NC 13.719 0.79 S 
GSR.NC 18.036 0.62 S 
B934.PB 22.344 0.54 S 
# 2022 12 20 6 31 58.112 39.6569 -123.8554 4.513 0.788 0.212 0.212 0.421 9 
79046.CE 2.168 0.89 P 
B934.PB 4.896 0.88 P 
KFP.NC 7.238 0.82 P 
DCMP.BK 9.241 0.68 P 
GNR.NC 10.238 0.80 P 
GVA.NC 12.738 0.80 P 
B047.PB 13.176 0.84 P 
B932.PB 13.446 0.83 P 
B046.PB 14.996 0.85 P 
79046.CE 4.048 0.81 S 
B934.PB 8.716 0.82 S 
KIP.NC 12.918 0.66 S 
KFP.NC 13.098 0.76 S 
DCMP.BK 16.309 0.59 S 
PRDS.BK 17.972 0.56 S 
BRIC.BK 18.738 0.74 S 
GNR.NC 19.318 0.67 S 
GBL.NC 20.638 0.58 S 
GVA.NC 22.998 0.72 S 
B047.PB 23.076 0.84 S 
B932.PB 24.246 0.81 S 
B046.PB 26.386 0.80 S 
# 2022 12 20 7 19 15.485 40.4729 -124.2516 19.362 0.195 0.299 0.299 0.597 10 
B046.PB 4.453 0.88 P 
B932.PB 5.033 0.88 P 
B045.PB 5.553 0.88 P 
B047.PB 5.713 0.87 P 
KPR.NC 7.365 0.83 P 
KBU.NC 8.835 0.84 P 
PRDS.BK 8.949 0.60 P 
B049.PB 8.953 0.84 P 
B046.PB 8.303 0.82 S 
89462.CE 9.045 0.78 S 
B932.PB 9.363 0.83 S 
B045.PB 10.213 0.84 S 
B047.PB 10.533 0.82 S 
KCR.NC 11.955 0.54 S 
PRDS.BK 15.695 0.59 S 
B049.PB 16.453 0.63 S 
# 2022 12 20 8 4 18.878 38.9650 -123.0373 0.921 0.984 0.372 0.372 0.148 11 
GCWB.NC 3.762 0.67 P 
GHGB.NC 5.155 0.83 P 
GWR.NC 6.742 0.82 P 
GSR.NC 8.282 0.83 P 
GHO.NC 8.402 0.77 P 
GVA.NC 8.932 0.61 P 
GTSB.BK 10.372 0.53 P 
GNR.NC 10.742 0.63 P 
GCWB.NC 6.832 0.65 S 
GHGB.NC 9.465 0.82 S 
GWR.NC 11.922 0.80 S 
GHO.NC 14.562 0.76 S 
GSR.NC 14.852 0.80 S 
GVA.NC 16.132 0.52 S 
GTSB.BK 18.506 0.54 S 
# 2022 12 20 9 0 21.605 39.4924 -122.8203 9.738 2.160 0.399 0.399 0.597 12 
GVA.NC 5.545 0.70 P 
GTSB.BK 5.859 0.59 P 
KRK.NC 6.145 0.63 P 
GSR.NC 7.455 0.65 P 
GHGB.NC 7.958 0.66 P 
DCMP.BK 8.196 0.62 P 
GCWB.NC 8.795 0.67 P 
GWR.NC 9.825 0.84 P 
KFP.NC 10.195 0.69 P 
KBN.NC 10.525 0.81 P 
KIP.NC 12.605 0.84 P 
GNR.NC 14.065 0.69 P 
PETY.BK 14.276 0.63 P 
GHO.NC 14.985 0.85 P 
LRB.NC 15.385 0.67 P 
B934.PB 15.583 0.81 P 
GBL.NC 16.135 0.82 P 
GVA.NC 9.885 0.61 S 
GTSB.BK 10.295 0.61 S 
KRK.NC 11.145 0.78 S 
GSR.NC 13.085 0.66 S 
DCMP.BK 14.038 0.55 S 
GHGB.NC 14.238 0.65 S 
GCWB.NC 15.925 0.68 S 
GROB.NC 16.045 0.54 S 
KFP.NC 18.005 0.65 S 
KBN.NC 18.885 0.82 S 
GWR.NC 19.615 0.74 S 
RVIT.BK 23.625 0.61 S 
PETY.BK 24.318 0.60 S 
GNR.NC 24.685 0.63 S 
GHO.NC 25.515 0.80 S 
B934.PB 27.573 0.80 S 
# 2022 12 20 10 29 22.436 40.4004 -124.2821 18.908 0.728 0.194 0.194 0.349 13 
B046.PB 3.822 0.92 P 
PETL.BK 4.254 0.68 P 
B932.PB 4.292 0.90 P 
KCT.NC 4.317 0.86 P 
B047.PB 4.932 0.91 P 
B045.PB 5.722 0.86 P 
KPR.NC 6.294 0.70 P 
PRDS.BK 7.444 0.70 P 
KBU.NC 8.324 0.90 P 
B049.PB 8.522 0.91 P 
BRIC.BK 9.774 0.57 P 
B935.PB 11.092 0.81 P 
B046.PB 6.942 0.87 S 
PETL.BK 7.674 0.62 S 
B932.PB 7.862 0.88 S 
KCT.NC 8.257 0.56 S 
KMPB.NC 8.367 0.77 S 
RBOW.BK 8.564 0.88 S 
B047.PB 8.862 0.88 S 
B045.PB 10.282 0.84 S 
1023.NP 10.714 0.78 S 
KPR.NC 11.284 0.64 S 
PRDS.BK 13.378 0.64 S 
BJES.BK 14.424 0.79 S 
KBU.NC 15.174 0.87 S 
B049.PB 15.312 0.85 S 
BRIC.BK 16.934 0.67 S 
DMOR.BK 19.104 0.70 S 
# 2022 12 20 10 34 24.607 40.5131 -124.4210 12.994 6.090 0.096 0.096 0.628 14 
1584B.NP 3.913 0.87 P 
KCT.NC 3.946 0.53 P 
1023.NP 4.623 0.90 P 
1586.NP 5.703 0.90 P 
B046.PB 5.921 0.83 P 
89255.CE 6.113 0.88 P 
KMPB.NC 6.276 0.53 P 
89462.CE 6.313 0.91 P 
1582.NP 6.423 0.89 P 
1581.NP 6.833 0.88 P 
B932.PB 6.841 0.87 P 
KCO.NC 7.156 0.89 P 
B045.PB 7.531 0.89 P 
89781.CE 7.653 0.88 P 
B047.PB 7.681 0.89 P 
BJES.BK 9.033 0.87 P 
KPR.NC 9.063 0.50 P 
1580.NP 9.183 0.90 P 
KNEE.BK 9.763 0.51 P 
KCR.NC 10.043 0.53 P 
PRDS.BK 10.507 0.63 P 
DMOR.BK 10.513 0.58 P 
89688.CE 10.793 0.85 P 
B049.PB 11.121 0.88 P 
KTD.NC 11.363 0.86 P 
BRIC.BK 12.553 0.52 P 
KHMB.NC 12.646 0.65 P 
B935.PB 12.921 0.89 P 
1591.NP 13.283 0.86 P 
KRP.NC 13.426 0.87 P 
KCSB.NC 13.836 0.87 P 
99700.CE 14.633 0.84 P 
B934.PB 16.041 0.86 P 
79046.CE 16.153 0.84 P 
HAYF.BK 16.626 0.54 P 
KHBB.NC 16.766 0.86 P 
KOM.NC 18.556 0.56 P 
RVIT.BK 18.723 0.90 P 
WEAV.BK 19.183 0.53 P 
KBN.NC 20.603 0.78 P 
79036.CE 21.223 0.90 P 
MNDO.BK 21.673 0.88 P 
DCMP.BK 21.956 0.58 P 
PETY.BK 22.206 0.85 P 
79668.CE 23.313 0.83 P 
LSF.NC 24.103 0.89 P 
LBK.NC 24.103 0.86 P 
GBL.NC 24.243 0.57 P 
GVA.NC 24.603 0.51 P 
SCOT.BK 24.626 0.53 P 
LRB.NC 24.763 0.79 P 
GWR.NC 25.153 0.54 P 
GHO.NC 25.903 0.82 P 
79666.CE 26.313 0.81 P 
GCWB.NC 27.673 0.68 P 
GHGB.NC 29.846 0.55 P 
1584B.NP 6.913 0.82 S 
KCT.NC 7.286 0.73 S 
B046.PB 8.561 0.56 S 
1023.NP 8.733 0.72 S 
KMPB.NC 10.926 0.68 S 
PETL.BK 11.033 0.62 S 
89255.CE 11.203 0.57 S 
1586.NP 11.203 0.77 S 
89462.CE 11.603 0.77 S 
B932.PB 11.971 0.77 S 
1582.NP 12.323 0.78 S 
RBOW.BK 13.103 0.62 S 
1581.NP 13.243 0.86 S 
KCO.NC 13.346 0.69 S 
B047.PB 13.461 0.83 S 
B045.PB 13.721 0.85 S 
89781.CE 13.843 0.85 S 
KPR.NC 16.543 0.69 S 
BJES.BK 16.543 0.83 S 
KNEE.BK 17.023 0.71 S 
1580.NP 17.283 0.86 S 
KCR.NC 18.123 0.79 S 
PRDS.BK 18.843 0.56 S 
89688.CE 19.323 0.85 S 
89464.CE 19.443 0.81 S 
DMOR.BK 19.623 0.80 S 
KBU.NC 19.803 0.77 S 
B049.PB 20.001 0.80 S 
KTD.NC 21.313 0.86 S 
BRIC.BK 21.943 0.65 S 
B935.PB 22.271 0.79 S 
KHMB.NC 22.586 0.65 S 
1591.NP 23.503 0.78 S 
KMR.NC 24.406 0.58 S 
KRP.NC 24.936 0.85 S 
KCSB.NC 24.946 0.79 S 
99700.CE 27.023 0.86 S 
KHBB.NC 29.626 0.63 S 
HAYF.BK 29.816 0.62 S 
KOM.NC 32.966 0.84 S 
WEAV.BK 34.113 0.63 S 
RVIT.BK 35.163 0.52 S 
79298.CE 37.233 0.76 S 
KBN.NC 38.433 0.51 S 
DCMP.BK 38.866 0.53 S 
GBL.NC 42.263 0.74 S 
SCOT.BK 43.104 0.58 S 
# 2022 12 20 10 35 59.204 40.5851 -124.1180 17.453 3.731 0.154 0.154 0.306 15 
89255.CE 3.696 0.87 P 
89462.CE 4.176 0.92 P 
1586.NP 4.296 0.91 P 
1582.NP 4.466 0.94 P 
1023.NP 4.656 0.91 P 
KMPB.NC 5.099 0.67 P 
B045.PB 5.124 0.90 P 
89781.CE 5.186 0.90 P 
BJES.BK 5.206 0.92 P 
1580.NP 6.586 0.90 P 
KCR.NC 6.836 0.88 P 
B046.PB 7.204 0.91 P 
B932.PB 7.454 0.78 P 
B047.PB 7.754 0.89 P 
PETL.BK 7.926 0.92 P 
KCO.NC 8.029 0.91 P 
KHMB.NC 8.919 0.85 P 
KBU.NC 8.996 0.88 P 
B049.PB 9.164 0.87 P 
PRDS.BK 10.290 0.57 P 
89688.CE 10.876 0.75 P 
BRIC.BK 11.466 0.62 P 
89255.CE 7.136 0.85 S 
89462.CE 7.766 0.88 S 
1586.NP 8.126 0.87 S 
1582.NP 8.286 0.88 S 
1023.NP 8.956 0.87 S 
1584B.NP 9.136 0.81 S 
B045.PB 9.174 0.83 S 
1581.NP 9.256 0.77 S 
KMPB.NC 9.369 0.67 S 
BJES.BK 9.396 0.86 S 
89781.CE 9.476 0.87 S 
KCT.NC 10.419 0.88 S 
RBOW.BK 11.166 0.82 S 
KCR.NC 12.196 0.85 S 
1580.NP 12.206 0.85 S 
B046.PB 12.644 0.83 S 
B932.PB 13.094 0.71 S 
B047.PB 13.774 0.78 S 
PETL.BK 13.896 0.85 S 
KBU.NC 15.806 0.84 S 
B049.PB 16.144 0.81 S 
KHMB.NC 16.579 0.82 S 
KTD.NC 17.106 0.75 S 
PRDS.BK 18.376 0.57 S 
KMR.NC 19.569 0.54 S 
BRIC.BK 20.026 0.73 S 
# 2022 12 20 10 36 14.701 40.5048 -124.3286 17.327 3.133 0.236 0.236 0.440 16 
KCT.NC 3.902 0.65 P 
B046.PB 4.437 0.79 P 
1586.NP 4.899 0.85 P 
B045.PB 7.067 0.54 P 
B049.PB 10.037 0.67 P 
1584B.NP 6.179 0.77 S 
KCT.NC 7.272 0.64 S 
KMPB.NC 9.362 0.56 S 
1586.NP 9.449 0.81 S 
89462.CE 9.509 0.68 S 
B046.PB 9.767 0.80 S 
B932.PB 10.177 0.75 S 
PETL.BK 10.659 0.73 S 
B045.PB 11.287 0.55 S 
B049.PB 18.007 0.61 S 
# 2022 12 20 10 36 38.963 40.6764 -123.8500 21.257 3.137 0.220 0.220 0.369 17 
KNEE.BK 4.521 0.57 P 
89781.CE 6.167 0.87 P 
KHMB.NC 6.190 0.87 P 
1580.NP 6.477 0.87 P 
1582.NP 6.607 0.85 P 
1581.NP 6.767 0.87 P 
B045.PB 6.775 0.84 P 
89462.CE 6.987 0.87 P 
B935.PB 7.235 0.81 P 
1586.NP 7.247 0.87 P 
KCSB.NC 7.430 0.81 P 
KMPB.NC 7.810 0.63 P 
1584B.NP 8.587 0.74 P 
RBOW.BK 8.787 0.79 P 
B049.PB 9.435 0.71 P 
KHBB.NC 10.120 0.64 P 
HAYF.BK 10.490 0.53 P 
WEAV.BK 12.567 0.80 P 
KNEE.BK 8.067 0.70 S 
89781.CE 11.087 0.82 S 
KHMB.NC 11.220 0.78 S 
1580.NP 11.327 0.83 S 
B045.PB 12.295 0.73 S 
1582.NP 12.697 0.83 S 
1581.NP 12.797 0.85 S 
KMPB.NC 14.300 0.60 S 
RBOW.BK 15.567 0.80 S 
1584B.NP 15.857 0.81 S 
KCT.NC 16.300 0.55 S 
B049.PB 16.855 0.75 S 
KHBB.NC 17.900 0.78 S 
B047.PB 18.155 0.60 S 
HAYF.BK 18.430 0.66 S 
KCO.NC 20.940 0.77 S 
# 2022 12 20 10 36 47.033 40.4995 -124.4569 15.792 2.887 0.243 0.243 0.718 18 
1023.NP 3.967 0.75 P 
KCT.NC 4.530 0.64 P 
B932.PB 5.395 0.68 P 
B046.PB 6.015 0.76 P 
B047.PB 6.125 0.73 P 
KMPB.NC 6.160 0.69 P 
PETL.BK 6.247 0.76 P 
1586.NP 6.757 0.60 P 
KCO.NC 7.090 0.78 P 
PRDS.BK 10.351 0.51 P 
89688.CE 10.607 0.76 P 
BRIC.BK 13.087 0.73 P 
KCT.NC 8.210 0.63 S 
1023.NP 9.497 0.62 S 
B046.PB 9.985 0.76 S 
PETL.BK 11.047 0.66 S 
1586.NP 11.267 0.64 S 
KMPB.NC 11.730 0.51 S 
B932.PB 11.895 0.76 S 
RBOW.BK 12.857 0.64 S 
KPR.NC 16.287 0.65 S 
PRDS.BK 18.387 0.74 S 
89688.CE 18.617 0.72 S 
BRIC.BK 22.137 0.68 S 
# 2022 12 20 10 37 8.886 40.7623 -123.8933 26.663 3.320 0.243 0.243 0.358 19 
DMOR.BK 4.624 0.76 P 
KNEE.BK 5.054 0.58 P 
1580.NP 5.574 0.82 P 
89781.CE 5.704 0.83 P 
KHMB.NC 6.077 0.63 P 
1582.NP 6.404 0.82 P 
1581.NP 6.434 0.82 P 
BJES.BK 6.594 0.79 P 
KTD.NC 7.704 0.83 P 
B935.PB 8.352 0.81 P 
KRP.NC 8.757 0.78 P 
99700.CE 10.244 0.80 P 
KHBB.NC 10.647 0.58 P 
TRIN.BK 16.747 0.68 P 
SCOT.BK 17.747 0.57 P 
KNEE.BK 9.144 0.52 S 
DMOR.BK 9.424 0.80 S 
1580.NP 9.964 0.71 S 
89781.CE 10.354 0.74 S 
KHMB.NC 10.877 0.61 S 
BJES.BK 11.714 0.75 S 
1581.NP 11.894 0.75 S 
KTD.NC 13.724 0.75 S 
KCR.NC 14.224 0.68 S 
B935.PB 15.172 0.79 S 
KHBB.NC 18.107 0.66 S 
# 2022 12 20 10 37 20.901 40.5298 -124.3223 16.607 3.563 0.126 0.126 0.474 20 
1584B.NP 3.539 0.90 P 
1023.NP 3.939 0.79 P 
1586.NP 4.699 0.91 P 
89462.CE 5.189 0.89 P 
1582.NP 5.379 0.89 P 
KMPB.NC 5.382 0.84 P 
1581.NP 5.739 0.93 P 
B046.PB 5.787 0.82 P 
RBOW.BK 6.359 0.51 P 
B045.PB 6.447 0.88 P 
89781.CE 6.459 0.90 P 
B932.PB 6.507 0.85 P 
KCO.NC 6.922 0.88 P 
B047.PB 7.197 0.87 P 
BJES.BK 7.649 0.85 P 
1580.NP 8.019 0.90 P 
KNEE.BK 8.203 0.53 P 
KPR.NC 8.669 0.55 P 
KCR.NC 8.779 0.56 P 
PRDS.BK 10.033 0.58 P 
KBU.NC 10.089 0.64 P 
B049.PB 10.197 0.87 P 
89688.CE 10.309 0.82 P 
KTD.NC 10.369 0.90 P 
DMOR.BK 10.459 0.57 P 
KHMB.NC 11.292 0.52 P 
B935.PB 11.577 0.87 P 
KMR.NC 11.872 0.65 P 
1591.NP 12.289 0.85 P 
99700.CE 13.849 0.88 P 
HAYF.BK 15.832 0.88 P 
79046.CE 17.109 0.75 P 
WEAV.BK 18.049 0.87 P 
1584B.NP 6.399 0.81 S 
1023.NP 7.679 0.74 S 
KCT.NC 7.752 0.68 S 
1586.NP 8.929 0.77 S 
89462.CE 9.579 0.68 S 
KMPB.NC 9.602 0.60 S 
1582.NP 10.299 0.75 S 
B046.PB 10.307 0.74 S 
RBOW.BK 11.149 0.67 S 
PETL.BK 11.219 0.58 S 
B045.PB 11.407 0.82 S 
B932.PB 11.417 0.75 S 
89781.CE 11.949 0.83 S 
KCO.NC 12.222 0.80 S 
B047.PB 12.607 0.80 S 
BJES.BK 13.829 0.80 S 
1580.NP 14.629 0.82 S 
KNEE.BK 14.863 0.58 S 
KPR.NC 15.279 0.69 S 
KCR.NC 15.859 0.77 S 
DMOR.BK 17.539 0.81 S 
PRDS.BK 17.859 0.56 S 
89688.CE 17.979 0.78 S 
KBU.NC 18.149 0.64 S 
B049.PB 18.207 0.83 S 
KTD.NC 18.749 0.84 S 
KHMB.NC 20.622 0.73 S 
KMR.NC 21.342 0.63 S 
1591.NP 22.189 0.65 S 
99700.CE 25.949 0.65 S 
B934.PB 26.447 0.71 S 
79046.CE 27.229 0.79 S 
HAYF.BK 28.340 0.54 S 
RVIT.BK 32.329 0.74 S 
# 2022 12 20 10 38 2.807 40.6273 -123.9966 19.592 3.643 0.117 0.117 0.529 21 
BJES.BK 4.753 0.71 P 
KNEE.BK 4.763 0.66 P 
DMOR.BK 5.163 0.65 P 
1582.NP 5.263 0.92 P 
89462.CE 5.303 0.93 P 
89781.CE 5.443 0.91 P 
B045.PB 5.581 0.94 P 
1586.NP 5.603 0.94 P 
1581.NP 5.673 0.93 P 
KMPB.NC 6.176 0.70 P 
1023.NP 6.253 0.90 P 
1580.NP 6.293 0.90 P 
KCR.NC 6.333 0.68 P 
1584B.NP 6.643 0.94 P 
RBOW.BK 7.173 0.65 P 
KCT.NC 7.396 0.76 P 
KHMB.NC 7.686 0.68 P 
B935.PB 8.041 0.93 P 
B046.PB 8.351 0.93 P 
B932.PB 8.421 0.90 P 
B047.PB 8.721 0.89 P 
KCSB.NC 8.736 0.94 P 
KBU.NC 8.883 0.59 P 
B049.PB 8.911 0.92 P 
KPR.NC 9.003 0.73 P 
KCO.NC 9.126 0.90 P 
KTD.NC 9.153 0.92 P 
PETL.BK 9.273 0.87 P 
KMR.NC 10.136 0.70 P 
KRP.NC 10.576 0.91 P 
PRDS.BK 10.807 0.60 P 
1591.NP 11.303 0.84 P 
BRIC.BK 11.583 0.61 P 
89688.CE 11.603 0.89 P 
KHBB.NC 11.676 0.67 P 
HAYF.BK 11.756 0.61 P 
99700.CE 11.903 0.85 P 
KOM.NC 14.196 0.66 P 
WEAV.BK 14.223 0.59 P 
B934.PB 14.831 0.90 P 
79046.CE 15.483 0.89 P 
GUMB.BK 22.353 0.88 P 
BJES.BK 8.643 0.57 S 
KNEE.BK 8.693 0.55 S 
89462.CE 9.683 0.85 S 
1582.NP 9.923 0.82 S 
B045.PB 9.931 0.80 S 
89781.CE 9.973 0.85 S 
1586.NP 10.453 0.84 S 
1581.NP 10.813 0.82 S 
KMPB.NC 11.156 0.64 S 
KCR.NC 11.273 0.62 S 
1580.NP 11.503 0.84 S 
1023.NP 11.813 0.73 S 
1584B.NP 12.013 0.85 S 
RBOW.BK 13.073 0.54 S 
KCT.NC 13.496 0.57 S 
KHMB.NC 14.086 0.65 S 
B935.PB 14.421 0.84 S 
B932.PB 14.811 0.75 S 
B046.PB 14.821 0.86 S 
B047.PB 15.241 0.77 S 
B049.PB 15.731 0.84 S 
KBU.NC 15.773 0.83 S 
KPR.NC 15.863 0.55 S 
KCSB.NC 15.996 0.86 S 
PETL.BK 16.123 0.59 S 
KCO.NC 16.246 0.86 S 
KTD.NC 16.363 0.83 S 
KMR.NC 18.006 0.59 S 
KRP.NC 18.776 0.83 S 
PRDS.BK 19.057 0.54 S 
89688.CE 19.773 0.85 S 
BRIC.BK 20.233 0.52 S 
1591.NP 20.283 0.84 S 
KHBB.NC 20.606 0.62 S 
HAYF.BK 20.666 0.52 S 
99700.CE 21.353 0.82 S 
KOM.NC 24.926 0.65 S 
WEAV.BK 25.153 0.55 S 
B934.PB 27.071 0.87 S 
RVIT.BK 29.683 0.78 S 
79046.CE 29.713 0.75 S 
KIP.NC 30.733 0.78 S 
KBN.NC 32.883 0.80 S 
TRIN.BK 33.886 0.53 S 
PETY.BK 34.006 0.76 S 
SCOT.BK 35.006 0.84 S 
GUMB.BK 39.247 0.64 S 
